{"type":"FeatureCollection","features":[{"type":"Feature","geometry":{"type":"LineString","coordinates":[[21.676,34.1],[21.8,33.976],[21.924,34.1],[21.923,34.3],[21.8,34.423],[21.677,34.3],[21.676,34.1]]},"properties":{"probabilityThreshold":0.0715,"lengthKm":115.3,"diagnosticOnly":true}},{"type":"Feature","geometry":{"type":"LineString","coordinates":[[21.711,34.7],[21.8,34.611],[21.889,34.7],[21.905,34.9],[21.882,35.1],[21.8,35.182],[21.718,35.1],[21.695,34.9],[21.711,34.7]]},"properties":{"probabilityThreshold":0.0715,"lengthKm":138.0,"diagnosticOnly":true}},{"type":"Feature","geometry":{"type":"LineString","coordinates":[[3.0,41.582],[3.2,41.598],[3.4,41.603],[3.6,41.635],[3.784,41.5],[3.8,41.484],[4.0,41.345],[4.2,41.422],[4.243,41.5],[4.4,41.585],[4.6,41.652],[4.734,41.5],[4.8,41.434],[4.866,41.5],[5.0,41.676],[5.024,41.7],[5.111,41.9],[5.06,42.1],[5.0,42.297],[4.8,42.183],[4.6,42.169],[4.4,42.164],[4.336,42.1],[4.2,41.933],[4.0,41.97],[3.8,41.904],[3.6,42.078],[3.4,42.042],[3.331,42.1],[3.269,42.3],[3.2,42.369],[3.0,42.336]]},"properties":{"probabilityThreshold":0.0715,"lengthKm":510.9,"diagnosticOnly":true}},{"type":"Feature","geometry":{"type":"LineString","coordinates":[[5.372,42.1],[5.4,42.072],[5.428,42.1],[5.406,42.3],[5.6,42.407],[5.8,42.4],[5.9,42.5],[6.0,42.58],[6.12,42.7],[6.099,42.9],[6.065,43.1],[6.0,43.165],[5.8,43.136],[5.733,43.3],[5.8,43.4],[6.0,43.403],[6.097,43.5],[6.2,43.579],[6.321,43.7],[6.4,43.761],[6.6,43.774],[6.726,43.9],[6.8,44.037],[6.932,43.9],[7.0,43.832],[7.2,43.783],[7.4,43.823],[7.477,43.9],[7.6,43.977],[7.8,44.031],[7.869,44.1],[8.0,44.184],[8.116,44.3],[8.2,44.386],[8.371,44.3],[8.4,44.271],[8.429,44.3],[8.6,44.48],[8.62,44.5],[8.8,44.646],[9.0,44.594],[9.106,44.7],[9.2,44.761],[9.31,44.7],[9.4,44.61],[9.49,44.7],[9.6,44.785],[9.8,44.813],[10.0,44.79],[10.11,44.9],[10.2,45.06],[10.24,45.1],[10.4,45.152],[10.472,45.1],[10.6,44.972],[10.8,44.991],[11.0,45.089],[11.041,45.1],[11.2,45.155],[11.272,45.1],[11.4,45.041],[11.6,45.039],[11.8,45.006],[12.0,45.073],[12.2,45.042],[12.258,45.1],[12.4,45.244],[12.519,45.1],[12.6,45.019],[12.681,45.1],[12.636,45.3],[12.8,45.464],[13.0,45.488],[13.122,45.3],[13.2,45.222],[13.278,45.3],[13.4,45.392],[13.595,45.3],[13.6,45.295],[13.61,45.3],[13.686,45.5],[13.8,45.601],[13.862,45.7],[14.0,45.892],[14.2,45.854],[14.4,45.879],[14.6,45.826],[14.8,45.847],[15.0,45.826],[15.074,45.9],[15.2,46.029],[15.4,46.063],[15.6,46.078],[15.622,46.1],[15.628,46.3],[15.8,46.4],[15.9,46.5],[15.834,46.7],[16.0,46.854],[16.046,46.9],[16.2,47.042],[16.258,47.1],[16.4,47.299],[16.401,47.3],[16.4,47.301],[16.2,47.307],[16.193,47.3],[16.0,47.156],[15.881,47.1],[15.8,47.048],[15.6,47.095],[15.4,46.97],[15.2,46.915],[15.127,47.1],[15.2,47.169],[15.272,47.3],[15.233,47.5],[15.4,47.689],[15.411,47.7],[15.6,47.865],[15.676,47.9],[15.8,47.998],[15.853,48.1],[16.0,48.182],[16.2,48.163],[16.292,48.1],[16.303,47.9],[16.4,47.803],[16.497,47.9],[16.6,48.073],[16.627,48.1],[16.659,48.3],[16.8,48.475],[16.825,48.5],[17.0,48.671],[17.029,48.7],[17.0,48.729],[16.8,48.735],[16.6,48.789],[16.4,48.787],[16.2,48.807],[16.0,48.82],[15.8,48.823],[15.6,48.834],[15.4,48.84],[15.2,48.849],[15.0,48.849],[14.8,48.85],[14.6,48.847],[14.4,48.85],[14.2,48.853],[14.0,48.849],[13.8,48.856],[13.6,48.853],[13.4,48.791],[13.2,48.769],[13.0,48.709],[12.991,48.7],[13.0,48.691],[13.127,48.5],[13.0,48.391],[12.836,48.5],[12.8,48.536],[12.764,48.5],[12.729,48.3],[12.6,48.227],[12.441,48.3],[12.4,48.341],[12.2,48.316],[12.184,48.3],[12.0,48.103],[11.997,48.1],[11.8,47.996],[11.65,48.1],[11.6,48.15],[11.464,48.1],[11.4,48.07],[11.2,48.092],[11.085,48.1],[11.0,48.106],[10.994,48.1],[10.8,48.014],[10.6,47.983],[10.4,48.0],[10.2,48.005],[10.002,48.1],[10.0,48.102],[9.998,48.1],[9.8,47.945],[9.6,47.955],[9.4,47.982],[9.2,47.924],[9.176,47.9],[9.0,47.785],[8.814,47.9],[8.8,47.914],[8.786,47.9],[8.6,47.759],[8.4,47.769],[8.2,47.78],[8.12,47.7],[8.0,47.61],[7.8,47.607],[7.6,47.59],[7.4,47.547],[7.353,47.5],[7.2,47.35],[7.0,47.388],[6.912,47.3],[6.8,47.167],[6.6,47.156],[6.4,47.174],[6.326,47.1],[6.2,46.999],[6.101,46.9],[6.095,46.7],[6.2,46.595],[6.305,46.7],[6.4,46.817],[6.573,46.7],[6.465,46.5],[6.4,46.437],[6.2,46.391],[6.109,46.3],[6.0,46.215],[5.89,46.3],[6.0,46.438],[6.062,46.5],[6.0,46.562],[5.835,46.7],[5.8,46.735],[5.765,46.7],[5.6,46.606],[5.4,46.542],[5.358,46.5],[5.2,46.41],[5.09,46.3],[5.0,46.217],[4.8,46.125],[4.775,46.1],[4.8,46.075],[4.963,45.9],[5.0,45.863],[5.037,45.9],[5.2,45.994],[5.372,45.9],[5.2,45.809],[5.091,45.7],[5.2,45.591],[5.4,45.662],[5.539,45.7],[5.489,45.9],[5.6,46.013],[5.627,46.1],[5.8,46.21],[5.885,46.1],[5.8,45.996],[5.635,45.9],[5.63,45.7],[5.8,45.627],[5.952,45.5],[5.946,45.3],[5.961,45.1],[5.8,45.0],[5.7,44.9],[5.8,44.8],[5.938,44.7],[5.8,44.605],[5.6,44.643],[5.485,44.7],[5.4,44.785],[5.315,44.7],[5.292,44.5],[5.2,44.418],[5.0,44.424],[4.8,44.404],[4.696,44.3],[4.6,44.134],[4.4,44.128],[4.372,44.1],[4.372,43.9],[4.2,43.781],[4.0,43.7],[3.8,43.786],[3.714,43.7],[3.689,43.5],[3.659,43.3],[3.684,43.1],[3.8,42.984],[3.854,42.9],[3.862,42.7],[3.959,42.5],[4.0,42.459],[4.041,42.5],[4.2,42.584],[4.4,42.673],[4.427,42.7],[4.6,42.873],[4.627,42.9],[4.8,43.05],[5.0,43.074],[5.126,42.9],[5.0,42.712],[4.988,42.7],[5.0,42.688],[5.2,42.697],[5.363,42.5],[5.366,42.3],[5.372,42.1]]},"properties":{"probabilityThreshold":0.0715,"lengthKm":4349.8,"diagnosticOnly":true}},{"type":"Feature","geometry":{"type":"LineString","coordinates":[[7.4,46.687],[7.38,46.7],[7.4,46.712],[7.6,46.801],[7.774,46.9],[7.8,46.92],[8.0,46.956],[8.12,46.9],[8.0,46.87],[7.8,46.792],[7.778,46.7],[7.6,46.555],[7.4,46.687]]},"properties":{"probabilityThreshold":0.0715,"lengthKm":148.7,"diagnosticOnly":true}},{"type":"Feature","geometry":{"type":"LineString","coordinates":[[9.8,46.788],[9.677,46.9],[9.6,47.026],[9.4,47.099],[9.394,47.1],[9.4,47.102],[9.6,47.139],[9.676,47.1],[9.8,47.025],[9.875,47.1],[10.0,47.203],[10.2,47.265],[10.368,47.1],[10.2,46.936],[10.0,46.94],[9.96,46.9],[9.8,46.788]]},"properties":{"probabilityThreshold":0.0715,"lengthKm":208.2,"diagnosticOnly":true}},{"type":"Feature","geometry":{"type":"LineString","coordinates":[[11.6,47.093],[11.595,47.1],[11.559,47.3],[11.4,47.405],[11.228,47.5],[11.4,47.601],[11.572,47.5],[11.6,47.428],[11.8,47.484],[11.998,47.3],[11.893,47.1],[11.8,46.978],[11.6,47.093]]},"properties":{"probabilityThreshold":0.0715,"lengthKm":199.0,"diagnosticOnly":true}},{"type":"Feature","geometry":{"type":"LineString","coordinates":[[12.4,47.241],[12.221,47.3],[12.4,47.482],[12.418,47.5],[12.6,47.633],[12.8,47.539],[12.83,47.5],[12.952,47.3],[12.8,47.154],[12.6,47.21],[12.4,47.241]]},"properties":{"probabilityThreshold":0.0715,"lengthKm":160.3,"diagnosticOnly":true}},{"type":"Feature","geometry":{"type":"LineString","coordinates":[[13.4,47.363],[13.269,47.5],[13.4,47.667],[13.6,47.559],[13.782,47.7],[13.8,47.716],[13.846,47.7],[13.966,47.5],[13.8,47.409],[13.6,47.364],[13.4,47.363]]},"properties":{"probabilityThreshold":0.0715,"lengthKm":156.0,"diagnosticOnly":true}}],"properties":{"forecastHour":36,"method":"xgboost-dwd-era5-icon2i-v1","threshold":0.07145121517771291,"temporalConfirmation":"2-of-3 adjacent hours","diagnosticOnly":true}}