{"type":"FeatureCollection","features":[{"type":"Feature","geometry":{"type":"LineString","coordinates":[[20.141,42.3],[20.2,42.241],[20.4,42.233],[20.6,42.205],[20.8,42.239],[21.0,42.209],[21.2,42.249],[21.251,42.3],[21.2,42.351],[21.062,42.5],[21.0,42.562],[20.901,42.7],[21.0,42.859],[21.2,42.834],[21.266,42.9],[21.2,42.966],[21.0,42.941],[20.812,43.1],[20.8,43.112],[20.788,43.1],[20.6,42.914],[20.4,42.986],[20.253,43.1],[20.4,43.293],[20.407,43.3],[20.4,43.307],[20.2,43.314],[20.0,43.323],[19.806,43.5],[19.8,43.506],[19.794,43.5],[19.77,43.3],[19.6,43.197],[19.457,43.3],[19.4,43.357],[19.2,43.309],[19.037,43.5],[19.114,43.7],[19.0,43.814],[18.886,43.7],[18.963,43.5],[18.8,43.309],[18.791,43.3],[18.8,43.291],[18.976,43.1],[19.0,43.076],[19.2,43.084],[19.4,43.063],[19.6,43.003],[19.709,42.9],[19.8,42.809],[19.891,42.9],[20.0,43.003],[20.153,42.9],[20.0,42.783],[19.917,42.7],[19.888,42.5],[20.0,42.388],[20.141,42.3]]},"properties":{"probabilityThreshold":0.0715,"lengthKm":838.2,"diagnosticOnly":true}},{"type":"Feature","geometry":{"type":"LineString","coordinates":[[18.436,43.7],[18.6,43.597],[18.703,43.7],[18.651,43.9],[18.603,44.1],[18.6,44.103],[18.597,44.1],[18.4,43.983],[18.304,44.1],[18.2,44.204],[18.046,44.3],[18.0,44.346],[17.804,44.5],[17.8,44.504],[17.65,44.7],[17.657,44.9],[17.6,44.957],[17.543,44.9],[17.4,44.818],[17.291,44.9],[17.239,45.1],[17.278,45.3],[17.268,45.5],[17.4,45.634],[17.466,45.7],[17.4,45.766],[17.22,45.9],[17.2,45.92],[17.0,45.946],[16.8,45.987],[16.6,45.974],[16.4,46.006],[16.2,46.014],[16.006,46.1],[16.0,46.106],[15.994,46.1],[15.8,45.949],[15.669,46.1],[15.8,46.276],[15.824,46.3],[15.8,46.324],[15.6,46.342],[15.4,46.384],[15.316,46.3],[15.2,46.167],[15.039,46.3],[15.0,46.339],[14.8,46.39],[14.6,46.5],[14.6,46.5],[14.4,46.532],[14.226,46.7],[14.2,46.726],[14.0,46.739],[13.8,46.721],[13.659,46.9],[13.6,46.959],[13.541,46.9],[13.519,46.7],[13.4,46.544],[13.282,46.7],[13.289,46.9],[13.2,46.989],[13.0,46.985],[12.881,47.1],[12.8,47.181],[12.6,47.168],[12.4,47.156],[12.344,47.1],[12.4,47.044],[12.454,46.9],[12.4,46.779],[12.238,46.9],[12.2,46.938],[12.0,47.011],[11.8,46.981],[11.719,46.9],[11.6,46.798],[11.502,46.7],[11.6,46.602],[11.8,46.676],[12.0,46.615],[12.158,46.5],[12.2,46.458],[12.242,46.5],[12.4,46.621],[12.6,46.63],[12.8,46.671],[12.915,46.5],[12.918,46.3],[12.875,46.1],[12.947,45.9],[13.0,45.847],[13.2,45.76],[13.254,45.7],[13.4,45.554],[13.6,45.55],[13.669,45.5],[13.8,45.369],[13.966,45.3],[14.0,45.266],[14.034,45.3],[14.2,45.374],[14.326,45.5],[14.4,45.574],[14.485,45.5],[14.6,45.385],[14.724,45.3],[14.8,45.224],[14.96,45.1],[15.0,45.06],[15.134,44.9],[15.2,44.834],[15.368,44.7],[15.4,44.668],[15.6,44.572],[15.79,44.5],[15.8,44.49],[16.0,44.445],[16.2,44.379],[16.4,44.399],[16.505,44.3],[16.6,44.205],[16.8,44.206],[16.941,44.1],[17.0,44.041],[17.2,44.04],[17.399,43.9],[17.4,43.899],[17.404,43.9],[17.6,43.923],[17.8,43.92],[17.864,43.9],[18.0,43.846],[18.2,43.82],[18.4,43.75],[18.436,43.7]]},"properties":{"probabilityThreshold":0.0715,"lengthKm":1882.2,"diagnosticOnly":true}},{"type":"Feature","geometry":{"type":"LineString","coordinates":[[17.0,45.005],[16.876,45.1],[16.853,45.3],[17.0,45.439],[17.122,45.3],[17.161,45.1],[17.0,45.005]]},"properties":{"probabilityThreshold":0.0715,"lengthKm":112.6,"diagnosticOnly":true}},{"type":"Feature","geometry":{"type":"LineString","coordinates":[[21.708,45.9],[21.8,45.808],[21.892,45.9],[21.942,46.1],[21.953,46.3],[21.947,46.5],[21.956,46.7],[21.969,46.9],[21.971,47.1],[21.947,47.3],[21.962,47.5],[21.964,47.7],[21.944,47.9],[21.8,48.044],[21.6,48.029],[21.4,48.06],[21.365,48.1],[21.325,48.3],[21.2,48.425],[21.0,48.462],[20.8,48.47],[20.6,48.389],[20.515,48.3],[20.6,48.215],[20.645,48.1],[20.8,47.939],[20.85,47.9],[20.835,47.7],[20.841,47.5],[20.846,47.3],[20.8,47.173],[20.727,47.1],[20.8,47.027],[21.0,46.948],[21.054,46.9],[21.0,46.839],[20.8,46.735],[20.6,46.719],[20.581,46.7],[20.6,46.681],[20.8,46.665],[21.0,46.561],[21.139,46.7],[21.2,46.754],[21.245,46.7],[21.253,46.5],[21.247,46.3],[21.4,46.147],[21.445,46.1],[21.6,45.945],[21.708,45.9]]},"properties":{"probabilityThreshold":0.0715,"lengthKm":793.1,"diagnosticOnly":true}},{"type":"Feature","geometry":{"type":"LineString","coordinates":[[10.925,46.5],[11.0,46.425],[11.2,46.411],[11.4,46.487],[11.413,46.5],[11.4,46.513],[11.237,46.7],[11.4,46.867],[11.433,46.9],[11.4,46.933],[11.225,47.1],[11.2,47.125],[11.175,47.1],[11.044,46.9],[11.163,46.7],[11.0,46.575],[10.925,46.5]]},"properties":{"probabilityThreshold":0.0715,"lengthKm":208.0,"diagnosticOnly":true}}],"properties":{"forecastHour":66,"method":"xgboost-dwd-era5-icon2i-v1","threshold":0.07145121517771291,"temporalConfirmation":"2-of-3 adjacent hours","diagnosticOnly":true}}