{"type":"FeatureCollection","features":[{"type":"Feature","geometry":{"type":"LineString","coordinates":[[18.685,43.3],[18.8,43.185],[19.0,43.236],[19.064,43.3],[19.044,43.5],[19.0,43.544],[18.956,43.5],[18.8,43.415],[18.685,43.3]]},"properties":{"probabilityThreshold":0.0715,"lengthKm":107.3,"diagnosticOnly":true}},{"type":"Feature","geometry":{"type":"LineString","coordinates":[[17.161,44.1],[17.2,44.061],[17.4,43.999],[17.6,44.058],[17.8,44.098],[17.802,44.1],[17.8,44.102],[17.609,44.3],[17.6,44.309],[17.4,44.345],[17.2,44.37],[17.048,44.5],[17.0,44.548],[16.8,44.581],[16.649,44.7],[16.8,44.832],[16.868,44.9],[16.838,45.1],[16.83,45.3],[17.0,45.438],[17.062,45.5],[17.2,45.656],[17.4,45.674],[17.426,45.7],[17.4,45.726],[17.295,45.9],[17.2,45.995],[17.0,45.998],[16.901,46.1],[17.0,46.29],[17.2,46.195],[17.305,46.3],[17.4,46.466],[17.481,46.3],[17.507,46.1],[17.576,45.9],[17.6,45.876],[17.624,45.9],[17.693,46.1],[17.8,46.19],[17.91,46.3],[17.908,46.5],[17.8,46.608],[17.6,46.555],[17.4,46.534],[17.2,46.533],[17.167,46.5],[17.0,46.31],[16.8,46.308],[16.6,46.423],[16.468,46.5],[16.4,46.568],[16.332,46.5],[16.4,46.432],[16.477,46.3],[16.4,46.217],[16.2,46.221],[16.0,46.254],[15.947,46.3],[15.896,46.5],[16.0,46.614],[16.2,46.633],[16.267,46.7],[16.2,46.767],[16.031,46.9],[16.0,46.931],[15.833,47.1],[15.8,47.133],[15.6,47.215],[15.4,47.108],[15.2,47.115],[15.0,47.18],[14.92,47.1],[14.8,47.001],[14.629,47.1],[14.6,47.129],[14.44,47.3],[14.4,47.34],[14.36,47.3],[14.328,47.1],[14.2,47.027],[14.031,47.1],[14.11,47.3],[14.0,47.41],[13.895,47.5],[13.8,47.595],[13.705,47.5],[13.74,47.3],[13.8,47.24],[13.969,47.1],[13.881,46.9],[13.8,46.839],[13.724,46.9],[13.632,47.1],[13.6,47.132],[13.568,47.1],[13.4,47.054],[13.2,47.004],[13.0,46.973],[12.87,47.1],[13.0,47.211],[13.2,47.184],[13.316,47.3],[13.302,47.5],[13.2,47.602],[13.0,47.601],[12.899,47.5],[12.8,47.395],[12.705,47.3],[12.6,47.152],[12.4,47.144],[12.356,47.1],[12.4,47.056],[12.444,46.9],[12.4,46.788],[12.294,46.9],[12.2,46.994],[12.0,47.046],[11.8,47.039],[11.661,46.9],[11.6,46.835],[11.491,46.9],[11.4,46.991],[11.312,47.1],[11.2,47.212],[11.088,47.1],[11.105,46.9],[11.0,46.81],[10.89,46.7],[10.879,46.5],[11.0,46.379],[11.2,46.419],[11.4,46.384],[11.516,46.5],[11.6,46.565],[11.8,46.593],[12.0,46.615],[12.161,46.5],[12.2,46.461],[12.239,46.5],[12.4,46.612],[12.6,46.584],[12.676,46.5],[12.6,46.323],[12.4,46.412],[12.288,46.3],[12.4,46.188],[12.6,46.25],[12.725,46.3],[12.8,46.309],[12.872,46.3],[12.833,46.1],[12.954,45.9],[13.0,45.854],[13.2,45.798],[13.4,45.792],[13.529,45.7],[13.6,45.629],[13.784,45.5],[13.8,45.484],[14.0,45.447],[14.2,45.451],[14.249,45.5],[14.4,45.592],[14.583,45.5],[14.6,45.483],[14.76,45.3],[14.8,45.26],[15.0,45.194],[15.123,45.1],[15.2,45.023],[15.4,44.985],[15.568,44.9],[15.6,44.868],[15.8,44.866],[15.92,44.7],[16.0,44.62],[16.2,44.605],[16.285,44.5],[16.4,44.385],[16.6,44.405],[16.726,44.3],[16.8,44.226],[17.0,44.247],[17.161,44.1]]},"properties":{"probabilityThreshold":0.0715,"lengthKm":2619.3,"diagnosticOnly":true}},{"type":"Feature","geometry":{"type":"LineString","coordinates":[[21.135,46.9],[21.2,46.835],[21.4,46.826],[21.6,46.896],[21.604,46.9],[21.67,47.1],[21.6,47.17],[21.53,47.1],[21.4,46.974],[21.2,46.965],[21.135,46.9]]},"properties":{"probabilityThreshold":0.0715,"lengthKm":124.0,"diagnosticOnly":true}},{"type":"Feature","geometry":{"type":"LineString","coordinates":[[20.706,47.1],[20.8,47.006],[21.0,47.024],[21.076,47.1],[21.2,47.236],[21.264,47.3],[21.4,47.496],[21.404,47.5],[21.6,47.565],[21.69,47.5],[21.749,47.3],[21.8,47.249],[21.851,47.3],[21.91,47.5],[21.96,47.7],[21.966,47.9],[21.8,48.066],[21.6,47.955],[21.4,47.95],[21.2,47.982],[21.059,48.1],[21.2,48.29],[21.21,48.3],[21.2,48.31],[21.0,48.375],[20.8,48.464],[20.6,48.44],[20.46,48.3],[20.6,48.16],[20.65,48.1],[20.8,47.95],[20.866,47.9],[20.906,47.7],[20.882,47.5],[20.908,47.3],[20.8,47.194],[20.706,47.1]]},"properties":{"probabilityThreshold":0.0715,"lengthKm":548.8,"diagnosticOnly":true}},{"type":"Feature","geometry":{"type":"LineString","coordinates":[[12.108,47.3],[12.2,47.208],[12.292,47.3],[12.246,47.5],[12.268,47.7],[12.2,47.768],[12.0,47.777],[11.923,47.7],[11.8,47.565],[11.735,47.5],[11.8,47.435],[12.0,47.435],[12.108,47.3]]},"properties":{"probabilityThreshold":0.0715,"lengthKm":170.5,"diagnosticOnly":true}},{"type":"Feature","geometry":{"type":"LineString","coordinates":[[17.547,47.3],[17.6,47.247],[17.653,47.3],[17.608,47.5],[17.8,47.616],[17.884,47.7],[17.8,47.784],[17.6,47.781],[17.4,47.741],[17.2,47.731],[17.169,47.7],[17.2,47.669],[17.4,47.659],[17.592,47.5],[17.547,47.3]]},"properties":{"probabilityThreshold":0.0715,"lengthKm":192.6,"diagnosticOnly":true}},{"type":"Feature","geometry":{"type":"LineString","coordinates":[[15.129,47.9],[15.2,47.829],[15.4,47.852],[15.6,47.808],[15.8,47.778],[16.0,47.896],[16.2,47.787],[16.313,47.9],[16.215,48.1],[16.2,48.115],[16.185,48.1],[16.0,47.904],[15.8,48.022],[15.6,47.992],[15.4,47.948],[15.329,48.1],[15.2,48.229],[15.0,48.15],[14.95,48.1],[15.0,48.05],[15.129,47.9]]},"properties":{"probabilityThreshold":0.0715,"lengthKm":297.9,"diagnosticOnly":true}},{"type":"Feature","geometry":{"type":"LineString","coordinates":[[18.194,48.7],[18.2,48.694],[18.4,48.636],[18.6,48.651],[18.8,48.689],[19.0,48.603],[19.2,48.643],[19.257,48.7],[19.2,48.757],[19.0,48.797],[18.8,48.711],[18.6,48.749],[18.4,48.764],[18.2,48.706],[18.194,48.7]]},"properties":{"probabilityThreshold":0.0715,"lengthKm":174.8,"diagnosticOnly":true}},{"type":"Feature","geometry":{"type":"LineString","coordinates":[[19.724,48.7],[19.8,48.624],[20.0,48.607],[20.2,48.602],[20.4,48.635],[20.6,48.567],[20.733,48.7],[20.6,48.833],[20.4,48.765],[20.2,48.798],[20.0,48.793],[19.8,48.776],[19.724,48.7]]},"properties":{"probabilityThreshold":0.0715,"lengthKm":177.9,"diagnosticOnly":true}}],"properties":{"forecastHour":63,"method":"xgboost-dwd-era5-icon2i-v1","threshold":0.07145121517771291,"temporalConfirmation":"2-of-3 adjacent hours","diagnosticOnly":true}}