{"type":"FeatureCollection","features":[{"type":"Feature","geometry":{"type":"LineString","coordinates":[[3.0,38.13],[3.039,38.1],[3.2,37.939],[3.265,37.9],[3.2,37.854],[3.046,37.7],[3.2,37.546],[3.265,37.5],[3.4,37.365],[3.6,37.377],[3.723,37.5],[3.8,37.546],[3.901,37.5],[3.938,37.3],[4.0,37.238],[4.062,37.3],[4.2,37.36],[4.4,37.355],[4.51,37.3],[4.6,37.21],[4.8,37.22],[5.0,37.255],[5.045,37.3],[5.117,37.5],[5.2,37.559],[5.341,37.7],[5.2,37.841],[5.059,37.7],[5.0,37.617],[4.8,37.634],[4.745,37.7],[4.6,37.845],[4.4,37.848],[4.2,37.839],[4.061,37.7],[4.0,37.599],[3.954,37.7],[3.919,37.9],[4.0,37.988],[4.2,38.011],[4.4,37.966],[4.6,38.09],[4.61,38.1],[4.8,38.156],[5.0,38.158],[5.2,38.227],[5.273,38.3],[5.4,38.349],[5.6,38.384],[5.716,38.5],[5.8,38.552],[6.0,38.591],[6.2,38.595],[6.305,38.7],[6.4,38.827],[6.6,38.816],[6.684,38.9],[6.6,38.984],[6.4,38.973],[6.2,38.987],[6.0,39.09],[5.897,38.9],[5.8,38.848],[5.673,38.9],[5.6,39.078],[5.551,39.1],[5.4,39.136],[5.364,39.1],[5.2,38.981],[5.0,38.984],[4.916,38.9],[4.869,38.7],[4.8,38.648],[4.6,38.619],[4.481,38.5],[4.4,38.433],[4.315,38.5],[4.26,38.7],[4.2,38.76],[4.14,38.7],[4.085,38.5],[4.048,38.3],[4.0,38.212],[3.8,38.248],[3.6,38.253],[3.529,38.3],[3.548,38.5],[3.4,38.648],[3.252,38.5],[3.271,38.3],[3.2,38.261],[3.17,38.3],[3.0,38.47]]},"properties":{"probabilityThreshold":0.0715,"lengthKm":1397.3,"diagnosticOnly":true}},{"type":"Feature","geometry":{"type":"LineString","coordinates":[[4.121,41.1],[4.2,41.021],[4.4,41.028],[4.472,41.1],[4.6,41.251],[4.799,41.1],[4.8,41.099],[4.801,41.1],[4.892,41.3],[5.0,41.447],[5.2,41.479],[5.221,41.5],[5.4,41.667],[5.6,41.7],[5.6,41.7],[5.609,41.9],[5.6,41.909],[5.4,41.936],[5.2,41.906],[5.0,41.913],[4.8,41.943],[4.6,41.963],[4.4,42.004],[4.2,42.004],[4.007,42.1],[4.0,42.107],[3.8,42.18],[3.6,42.11],[3.59,42.1],[3.6,42.09],[3.744,41.9],[3.8,41.844],[3.93,41.7],[3.8,41.511],[3.6,41.515],[3.4,41.502],[3.398,41.5],[3.4,41.498],[3.6,41.485],[3.8,41.489],[3.959,41.3],[4.0,41.259],[4.121,41.1]]},"properties":{"probabilityThreshold":0.0715,"lengthKm":577.9,"diagnosticOnly":true}},{"type":"Feature","geometry":{"type":"LineString","coordinates":[[14.089,43.7],[14.2,43.589],[14.311,43.7],[14.4,43.815],[14.514,43.7],[14.6,43.614],[14.8,43.607],[15.0,43.619],[15.2,43.608],[15.4,43.588],[15.6,43.663],[15.8,43.664],[15.836,43.7],[16.0,43.869],[16.2,43.884],[16.4,43.83],[16.47,43.9],[16.522,44.1],[16.6,44.193],[16.8,44.233],[17.0,44.228],[17.2,44.294],[17.206,44.3],[17.4,44.432],[17.6,44.432],[17.796,44.3],[17.765,44.1],[17.8,44.065],[18.0,44.079],[18.021,44.1],[18.012,44.3],[18.2,44.4],[18.3,44.5],[18.284,44.7],[18.218,44.9],[18.4,45.007],[18.6,45.005],[18.8,45.013],[18.887,45.1],[19.0,45.222],[19.2,45.226],[19.274,45.3],[19.4,45.446],[19.454,45.5],[19.4,45.554],[19.2,45.579],[19.089,45.7],[19.0,45.789],[18.818,45.9],[18.876,46.1],[18.826,46.3],[18.8,46.326],[18.656,46.5],[18.6,46.556],[18.4,46.604],[18.296,46.5],[18.2,46.364],[18.016,46.5],[18.0,46.516],[17.8,46.549],[17.751,46.5],[17.6,46.386],[17.514,46.3],[17.4,46.209],[17.2,46.169],[17.031,46.3],[17.0,46.331],[16.835,46.5],[16.805,46.7],[16.8,46.705],[16.795,46.7],[16.765,46.5],[16.6,46.385],[16.4,46.34],[16.254,46.5],[16.2,46.554],[16.08,46.5],[16.0,46.442],[15.8,46.312],[15.6,46.318],[15.4,46.411],[15.287,46.3],[15.2,46.237],[15.124,46.3],[15.2,46.481],[15.218,46.5],[15.2,46.505],[15.172,46.5],[15.0,46.444],[14.851,46.5],[14.845,46.7],[14.8,46.745],[14.699,46.7],[14.6,46.663],[14.565,46.7],[14.6,46.829],[14.627,46.9],[14.6,46.927],[14.439,46.9],[14.4,46.894],[14.36,46.9],[14.4,46.987],[14.409,47.1],[14.4,47.109],[14.285,47.3],[14.2,47.385],[14.105,47.5],[14.063,47.7],[14.007,47.9],[14.2,48.08],[14.22,48.1],[14.2,48.12],[14.0,48.224],[13.8,48.221],[13.679,48.1],[13.6,47.956],[13.4,48.005],[13.2,48.041],[13.084,48.1],[13.0,48.184],[12.8,48.219],[12.681,48.1],[12.6,47.995],[12.531,48.1],[12.4,48.231],[12.2,48.171],[12.129,48.1],[12.031,47.9],[12.171,47.7],[12.2,47.671],[12.4,47.644],[12.6,47.583],[12.674,47.5],[12.716,47.3],[12.6,47.206],[12.4,47.132],[12.368,47.1],[12.2,47.018],[12.082,46.9],[12.0,46.811],[11.8,46.768],[11.6,46.851],[11.4,46.82],[11.2,46.721],[11.081,46.9],[11.2,47.076],[11.224,47.1],[11.2,47.124],[11.0,47.221],[10.879,47.1],[10.8,46.959],[10.741,46.9],[10.6,46.784],[10.511,46.9],[10.445,47.1],[10.4,47.145],[10.355,47.1],[10.2,46.929],[10.0,46.982],[9.918,46.9],[9.8,46.746],[9.754,46.7],[9.8,46.636],[10.0,46.636],[10.03,46.7],[10.2,46.871],[10.4,46.706],[10.41,46.7],[10.4,46.687],[10.2,46.582],[10.071,46.5],[10.0,46.457],[9.8,46.407],[9.6,46.491],[9.561,46.5],[9.4,46.544],[9.293,46.5],[9.4,46.452],[9.476,46.3],[9.4,46.253],[9.2,46.249],[9.0,46.249],[8.8,46.195],[8.612,46.1],[8.6,46.078],[8.4,46.038],[8.2,46.084],[8.099,46.1],[8.0,46.142],[7.952,46.1],[7.8,46.04],[7.667,45.9],[7.688,45.7],[7.6,45.631],[7.4,45.664],[7.236,45.5],[7.2,45.351],[7.149,45.3],[7.0,45.188],[6.912,45.1],[6.847,44.9],[7.0,44.728],[7.061,44.7],[7.069,44.5],[7.127,44.3],[7.2,44.227],[7.4,44.226],[7.6,44.232],[7.8,44.218],[8.0,44.198],[8.2,44.214],[8.4,44.154],[8.6,44.184],[8.716,44.3],[8.8,44.359],[9.0,44.414],[9.2,44.327],[9.267,44.3],[9.4,44.253],[9.6,44.186],[9.8,44.166],[10.0,44.143],[10.041,44.1],[10.2,43.984],[10.4,43.967],[10.533,44.1],[10.4,44.233],[10.228,44.3],[10.2,44.328],[10.0,44.412],[9.817,44.5],[9.846,44.7],[9.8,44.746],[9.754,44.7],[9.6,44.534],[9.458,44.7],[9.6,44.856],[9.644,44.9],[9.6,44.982],[9.4,44.914],[9.386,44.9],[9.2,44.78],[9.055,44.9],[9.0,44.99],[8.952,45.1],[9.0,45.168],[9.159,45.1],[9.2,45.079],[9.221,45.1],[9.4,45.264],[9.6,45.153],[9.8,45.2],[9.9,45.3],[10.0,45.482],[10.175,45.3],[10.2,45.275],[10.225,45.3],[10.229,45.5],[10.4,45.595],[10.505,45.7],[10.6,45.799],[10.738,45.7],[10.8,45.617],[11.0,45.523],[11.07,45.5],[11.2,45.434],[11.266,45.5],[11.2,45.566],[11.134,45.7],[11.2,45.866],[11.397,45.7],[11.4,45.697],[11.6,45.699],[11.601,45.7],[11.8,45.785],[12.0,45.722],[12.2,45.773],[12.323,45.7],[12.298,45.5],[12.2,45.369],[12.0,45.308],[11.992,45.3],[12.0,45.292],[12.2,45.231],[12.354,45.1],[12.2,45.007],[12.0,44.927],[11.973,44.9],[12.0,44.873],[12.189,44.7],[12.2,44.689],[12.211,44.7],[12.4,44.879],[12.6,44.844],[12.704,44.7],[12.6,44.552],[12.4,44.614],[12.286,44.5],[12.4,44.386],[12.6,44.448],[12.8,44.36],[12.924,44.3],[13.0,44.224],[13.116,44.1],[13.0,43.999],[12.887,44.1],[12.8,44.187],[12.713,44.1],[12.6,43.971],[12.529,43.9],[12.6,43.829],[12.8,43.862],[13.0,43.801],[13.2,43.828],[13.4,43.789],[13.6,43.81],[13.8,43.836],[14.0,43.841],[14.089,43.7]]},"properties":{"probabilityThreshold":0.0715,"lengthKm":4439.9,"diagnosticOnly":true}},{"type":"Feature","geometry":{"type":"LineString","coordinates":[[16.8,44.367],[16.658,44.5],[16.6,44.7],[16.681,44.9],[16.643,45.1],[16.6,45.143],[16.557,45.1],[16.4,44.913],[16.326,44.9],[16.2,44.86],[16.0,44.804],[15.863,44.7],[15.8,44.678],[15.659,44.7],[15.602,44.9],[15.661,45.1],[15.606,45.3],[15.8,45.381],[16.0,45.391],[16.2,45.445],[16.4,45.46],[16.6,45.362],[16.8,45.327],[16.899,45.3],[16.932,45.1],[16.902,44.9],[16.928,44.7],[16.956,44.5],[16.8,44.367]]},"properties":{"probabilityThreshold":0.0715,"lengthKm":474.3,"diagnosticOnly":true}},{"type":"Feature","geometry":{"type":"LineString","coordinates":[[17.2,44.579],[17.072,44.7],[17.038,44.9],[17.2,45.076],[17.224,45.1],[17.4,45.188],[17.6,45.186],[17.8,45.169],[18.0,45.235],[18.183,45.1],[18.182,44.9],[18.116,44.7],[18.0,44.605],[17.8,44.608],[17.6,44.568],[17.4,44.568],[17.2,44.579]]},"properties":{"probabilityThreshold":0.0715,"lengthKm":274.9,"diagnosticOnly":true}},{"type":"Feature","geometry":{"type":"LineString","coordinates":[[18.939,44.7],[19.0,44.639],[19.2,44.646],[19.254,44.7],[19.4,44.873],[19.427,44.9],[19.4,44.927],[19.2,44.958],[19.142,44.9],[19.0,44.761],[18.939,44.7]]},"properties":{"probabilityThreshold":0.0715,"lengthKm":112.6,"diagnosticOnly":true}},{"type":"Feature","geometry":{"type":"LineString","coordinates":[[15.0,45.038],[14.867,45.1],[15.0,45.266],[15.2,45.261],[15.4,45.215],[15.575,45.1],[15.4,44.951],[15.2,44.98],[15.0,45.038]]},"properties":{"probabilityThreshold":0.0715,"lengthKm":139.0,"diagnosticOnly":true}},{"type":"Feature","geometry":{"type":"LineString","coordinates":[[8.8,45.218],[8.722,45.3],[8.635,45.5],[8.644,45.7],[8.8,45.822],[8.938,45.7],[8.946,45.5],[8.906,45.3],[8.8,45.218]]},"properties":{"probabilityThreshold":0.0715,"lengthKm":148.2,"diagnosticOnly":true}},{"type":"Feature","geometry":{"type":"LineString","coordinates":[[8.0,45.475],[7.994,45.5],[8.0,45.502],[8.2,45.545],[8.4,45.622],[8.565,45.5],[8.4,45.339],[8.2,45.301],[8.0,45.475]]},"properties":{"probabilityThreshold":0.0715,"lengthKm":119.1,"diagnosticOnly":true}},{"type":"Feature","geometry":{"type":"LineString","coordinates":[[14.4,45.444],[14.32,45.5],[14.241,45.7],[14.4,45.782],[14.495,45.7],[14.6,45.595],[14.664,45.5],[14.6,45.387],[14.4,45.444]]},"properties":{"probabilityThreshold":0.0715,"lengthKm":114.8,"diagnosticOnly":true}},{"type":"Feature","geometry":{"type":"LineString","coordinates":[[13.4,45.769],[13.252,45.9],[13.2,45.977],[13.0,46.034],[12.873,46.1],[12.828,46.3],[13.0,46.338],[13.2,46.376],[13.327,46.5],[13.4,46.527],[13.416,46.5],[13.581,46.3],[13.6,46.281],[13.8,46.185],[14.0,46.191],[14.099,46.1],[14.0,45.916],[13.8,45.907],[13.793,45.9],[13.6,45.706],[13.4,45.769]]},"properties":{"probabilityThreshold":0.0715,"lengthKm":291.5,"diagnosticOnly":true}},{"type":"Feature","geometry":{"type":"LineString","coordinates":[[18.2,46.032],[18.052,46.1],[18.2,46.236],[18.4,46.234],[18.6,46.196],[18.616,46.1],[18.6,46.031],[18.4,45.978],[18.2,46.032]]},"properties":{"probabilityThreshold":0.0715,"lengthKm":115.4,"diagnosticOnly":true}},{"type":"Feature","geometry":{"type":"LineString","coordinates":[[4.346,46.7],[4.4,46.646],[4.454,46.7],[4.6,46.815],[4.8,46.853],[4.847,46.9],[5.0,46.996],[5.104,47.1],[5.106,47.3],[5.2,47.379],[5.304,47.3],[5.4,47.204],[5.6,47.244],[5.656,47.3],[5.8,47.385],[5.915,47.5],[6.0,47.574],[6.2,47.592],[6.4,47.579],[6.516,47.5],[6.6,47.318],[6.684,47.5],[6.8,47.571],[6.929,47.7],[6.8,47.829],[6.671,47.7],[6.6,47.584],[6.521,47.7],[6.6,47.877],[6.623,47.9],[6.612,48.1],[6.6,48.112],[6.588,48.1],[6.4,47.944],[6.2,47.964],[6.015,48.1],[6.0,48.115],[5.985,48.1],[5.8,48.002],[5.6,47.926],[5.574,47.9],[5.4,47.772],[5.2,47.731],[5.169,47.7],[5.0,47.582],[4.8,47.527],[4.773,47.5],[4.6,47.369],[4.531,47.3],[4.4,47.144],[4.2,47.112],[4.188,47.1],[4.2,47.088],[4.324,46.9],[4.346,46.7]]},"properties":{"probabilityThreshold":0.0715,"lengthKm":718.9,"diagnosticOnly":true}},{"type":"Feature","geometry":{"type":"LineString","coordinates":[[16.925,46.9],[17.0,46.825],[17.075,46.9],[17.2,47.073],[17.4,47.085],[17.415,47.1],[17.4,47.115],[17.211,47.3],[17.2,47.311],[17.189,47.3],[17.0,47.144],[16.956,47.1],[16.925,46.9]]},"properties":{"probabilityThreshold":0.0715,"lengthKm":139.2,"diagnosticOnly":true}},{"type":"Feature","geometry":{"type":"LineString","coordinates":[[11.149,48.1],[11.2,48.049],[11.4,48.075],[11.425,48.1],[11.476,48.3],[11.4,48.376],[11.2,48.373],[11.0,48.35],[10.95,48.3],[11.0,48.25],[11.149,48.1]]},"properties":{"probabilityThreshold":0.0715,"lengthKm":120.9,"diagnosticOnly":true}},{"type":"Feature","geometry":{"type":"LineString","coordinates":[[18.095,48.5],[18.2,48.395],[18.305,48.5],[18.4,48.629],[18.6,48.586],[18.8,48.62],[19.0,48.654],[19.2,48.673],[19.4,48.68],[19.6,48.602],[19.8,48.659],[19.841,48.7],[19.8,48.741],[19.6,48.798],[19.4,48.72],[19.2,48.727],[19.0,48.746],[18.8,48.78],[18.6,48.814],[18.4,48.771],[18.2,48.806],[18.0,48.784],[17.8,48.766],[17.6,48.739],[17.487,48.7],[17.6,48.661],[17.8,48.634],[18.0,48.616],[18.095,48.5]]},"properties":{"probabilityThreshold":0.0715,"lengthKm":394.7,"diagnosticOnly":true}}],"properties":{"forecastHour":48,"method":"xgboost-dwd-era5-icon2i-v1","threshold":0.07145121517771291,"temporalConfirmation":"2-of-3 adjacent hours","diagnosticOnly":true}}