{"type":"FeatureCollection","features":[{"type":"Feature","geometry":{"type":"LineString","coordinates":[[21.71,34.7],[21.8,34.61],[21.89,34.7],[21.909,34.9],[21.913,35.1],[21.8,35.213],[21.687,35.1],[21.691,34.9],[21.71,34.7]]},"properties":{"probabilityThreshold":0.0715,"lengthKm":146.8,"diagnosticOnly":true}},{"type":"Feature","geometry":{"type":"LineString","coordinates":[[3.0,41.68],[3.2,41.685],[3.4,41.645],[3.6,41.672],[3.791,41.5],[3.8,41.491],[4.0,41.462],[4.2,41.455],[4.245,41.5],[4.278,41.7],[4.2,41.778],[4.036,41.9],[4.0,41.936],[3.8,41.941],[3.6,41.915],[3.4,42.023],[3.23,42.1],[3.286,42.3],[3.2,42.386],[3.0,42.398]]},"properties":{"probabilityThreshold":0.0715,"lengthKm":295.0,"diagnosticOnly":true}},{"type":"Feature","geometry":{"type":"LineString","coordinates":[[5.388,42.3],[5.4,42.288],[5.412,42.3],[5.6,42.409],[5.8,42.418],[5.882,42.5],[6.0,42.672],[6.028,42.7],[6.05,42.9],[6.0,42.95],[5.873,43.1],[5.8,43.173],[5.732,43.3],[5.8,43.354],[6.0,43.378],[6.122,43.5],[6.2,43.62],[6.28,43.7],[6.4,43.768],[6.6,43.767],[6.8,43.772],[7.0,43.783],[7.2,43.791],[7.4,43.852],[7.448,43.9],[7.4,43.988],[7.229,44.1],[7.2,44.118],[7.106,44.3],[7.2,44.341],[7.284,44.3],[7.4,44.16],[7.488,44.1],[7.6,44.032],[7.668,44.1],[7.762,44.3],[7.8,44.33],[7.983,44.3],[8.0,44.296],[8.004,44.3],[8.0,44.331],[7.984,44.5],[8.0,44.508],[8.048,44.5],[8.2,44.448],[8.383,44.3],[8.4,44.283],[8.417,44.3],[8.6,44.418],[8.682,44.5],[8.8,44.629],[9.0,44.648],[9.052,44.7],[9.0,44.752],[8.83,44.9],[9.0,44.987],[9.144,44.9],[9.2,44.844],[9.256,44.9],[9.304,45.1],[9.4,45.145],[9.507,45.1],[9.6,45.007],[9.718,44.9],[9.8,44.818],[9.882,44.9],[9.92,45.1],[10.0,45.197],[10.15,45.1],[10.2,45.05],[10.25,45.1],[10.292,45.3],[10.4,45.41],[10.6,45.3],[10.6,45.3],[10.6,45.3],[10.8,45.384],[10.986,45.3],[11.0,45.286],[11.2,45.277],[11.4,45.281],[11.6,45.238],[11.8,45.23],[11.87,45.3],[12.0,45.448],[12.2,45.471],[12.4,45.47],[12.43,45.5],[12.6,45.626],[12.8,45.651],[12.849,45.7],[13.0,45.837],[13.139,45.7],[13.2,45.639],[13.261,45.7],[13.274,45.9],[13.4,46.074],[13.6,46.09],[13.776,45.9],[13.722,45.7],[13.8,45.622],[13.878,45.7],[14.0,45.892],[14.2,45.893],[14.207,45.9],[14.264,46.1],[14.2,46.164],[14.035,46.3],[14.055,46.5],[14.2,46.664],[14.4,46.559],[14.6,46.561],[14.8,46.561],[15.0,46.68],[15.02,46.7],[15.2,46.876],[15.224,46.9],[15.2,46.924],[15.101,47.1],[15.2,47.191],[15.309,47.3],[15.307,47.5],[15.4,47.621],[15.548,47.7],[15.6,47.747],[15.686,47.9],[15.6,47.986],[15.512,48.1],[15.6,48.128],[15.734,48.1],[15.8,48.034],[15.866,48.1],[16.0,48.27],[16.03,48.3],[16.2,48.374],[16.4,48.447],[16.453,48.5],[16.6,48.672],[16.8,48.669],[16.831,48.7],[16.8,48.731],[16.6,48.728],[16.4,48.746],[16.2,48.711],[16.147,48.7],[16.0,48.684],[15.984,48.7],[15.8,48.831],[15.6,48.842],[15.4,48.849],[15.2,48.85],[15.0,48.854],[14.8,48.856],[14.6,48.853],[14.4,48.853],[14.2,48.848],[14.0,48.835],[13.8,48.832],[13.6,48.849],[13.4,48.843],[13.2,48.845],[13.0,48.833],[12.8,48.851],[12.6,48.846],[12.4,48.838],[12.2,48.831],[12.0,48.782],[11.8,48.771],[11.6,48.779],[11.4,48.758],[11.342,48.7],[11.4,48.642],[11.563,48.5],[11.546,48.3],[11.4,48.176],[11.2,48.184],[11.0,48.181],[10.8,48.188],[10.6,48.17],[10.4,48.193],[10.2,48.21],[10.0,48.161],[9.853,48.1],[9.8,48.078],[9.6,48.053],[9.4,48.068],[9.2,48.02],[9.0,48.012],[8.8,47.953],[8.747,47.9],[8.6,47.809],[8.4,47.8],[8.2,47.758],[8.0,47.732],[7.8,47.72],[7.6,47.707],[7.4,47.71],[7.39,47.7],[7.2,47.61],[7.021,47.7],[7.0,47.721],[6.979,47.7],[6.985,47.5],[6.8,47.396],[6.6,47.308],[6.592,47.3],[6.4,47.214],[6.2,47.181],[6.119,47.1],[6.0,46.989],[5.8,46.976],[5.724,46.9],[5.6,46.805],[5.4,46.755],[5.345,46.7],[5.2,46.597],[5.103,46.5],[5.0,46.399],[4.901,46.3],[4.8,46.213],[4.687,46.1],[4.8,45.923],[4.877,45.9],[5.0,45.722],[5.004,45.7],[5.054,45.5],[5.056,45.3],[5.0,45.211],[4.933,45.1],[5.0,45.058],[5.127,44.9],[5.0,44.783],[4.8,44.746],[4.754,44.7],[4.6,44.634],[4.4,44.599],[4.2,44.543],[4.157,44.5],[4.0,44.355],[3.945,44.3],[3.8,44.167],[3.733,44.1],[3.706,43.9],[3.671,43.7],[3.688,43.5],[3.647,43.3],[3.663,43.1],[3.8,42.963],[3.938,42.9],[3.976,42.7],[3.958,42.5],[4.0,42.458],[4.042,42.5],[4.2,42.649],[4.4,42.635],[4.6,42.606],[4.694,42.7],[4.8,42.783],[4.902,42.7],[5.0,42.602],[5.2,42.6],[5.293,42.5],[5.388,42.3]]},"properties":{"probabilityThreshold":0.0715,"lengthKm":3600.9,"diagnosticOnly":true}},{"type":"Feature","geometry":{"type":"LineString","coordinates":[[11.8,46.954],[11.602,47.1],[11.732,47.3],[11.8,47.405],[11.946,47.3],[11.926,47.1],[11.8,46.954]]},"properties":{"probabilityThreshold":0.0715,"lengthKm":116.0,"diagnosticOnly":true}},{"type":"Feature","geometry":{"type":"LineString","coordinates":[[9.8,47.139],[9.624,47.3],[9.8,47.371],[10.0,47.388],[10.2,47.334],[10.359,47.5],[10.4,47.518],[10.6,47.51],[10.645,47.5],[10.6,47.446],[10.413,47.3],[10.4,47.297],[10.2,47.176],[10.0,47.14],[9.8,47.139]]},"properties":{"probabilityThreshold":0.0715,"lengthKm":193.6,"diagnosticOnly":true}},{"type":"Feature","geometry":{"type":"LineString","coordinates":[[11.2,47.287],[11.184,47.3],[11.123,47.5],[11.2,47.543],[11.4,47.625],[11.6,47.568],[11.651,47.5],[11.6,47.473],[11.4,47.431],[11.216,47.3],[11.2,47.287]]},"properties":{"probabilityThreshold":0.0715,"lengthKm":116.9,"diagnosticOnly":true}},{"type":"Feature","geometry":{"type":"LineString","coordinates":[[12.4,47.25],[12.263,47.3],[12.2,47.446],[12.14,47.5],[12.2,47.52],[12.368,47.7],[12.4,47.742],[12.6,47.72],[12.8,47.75],[13.0,47.719],[13.197,47.9],[13.2,47.902],[13.4,47.936],[13.6,47.9],[13.6,47.9],[13.6,47.9],[13.44,47.7],[13.6,47.632],[13.762,47.5],[13.6,47.31],[13.4,47.349],[13.273,47.5],[13.2,47.648],[13.0,47.688],[12.865,47.5],[12.948,47.3],[12.8,47.204],[12.6,47.206],[12.4,47.25]]},"properties":{"probabilityThreshold":0.0715,"lengthKm":414.6,"diagnosticOnly":true}},{"type":"Feature","geometry":{"type":"LineString","coordinates":[[19.301,47.9],[19.4,47.801],[19.6,47.82],[19.68,47.9],[19.688,48.1],[19.6,48.188],[19.514,48.3],[19.6,48.432],[19.668,48.5],[19.679,48.7],[19.6,48.779],[19.521,48.7],[19.4,48.607],[19.292,48.7],[19.2,48.792],[19.0,48.822],[18.878,48.7],[18.902,48.5],[18.928,48.3],[19.0,48.268],[19.1,48.1],[19.2,48.0],[19.301,47.9]]},"properties":{"probabilityThreshold":0.0715,"lengthKm":322.4,"diagnosticOnly":true}}],"properties":{"forecastHour":33,"method":"xgboost-dwd-era5-icon2i-v1","threshold":0.07145121517771291,"temporalConfirmation":"2-of-3 adjacent hours","diagnosticOnly":true}}