{"type":"FeatureCollection","features":[{"type":"Feature","geometry":{"type":"LineString","coordinates":[[3.0,36.146],[3.154,36.3],[3.2,36.37],[3.4,36.33],[3.435,36.3],[3.452,36.1],[3.6,35.952],[3.748,36.1],[3.765,36.3],[3.768,36.5],[3.8,36.612],[4.0,36.565],[4.2,36.553],[4.359,36.5],[4.4,36.459],[4.441,36.5],[4.46,36.7],[4.4,36.76],[4.2,36.847],[4.0,36.835],[3.8,36.788],[3.6,36.809],[3.439,36.9],[3.4,36.939],[3.361,36.9],[3.2,36.744],[3.11,36.7],[3.0,36.61]]},"properties":{"probabilityThreshold":0.0715,"lengthKm":418.8,"diagnosticOnly":true}},{"type":"Feature","geometry":{"type":"LineString","coordinates":[[5.258,36.5],[5.4,36.358],[5.542,36.5],[5.6,36.564],[5.8,36.54],[6.0,36.545],[6.155,36.7],[6.2,36.744],[6.356,36.9],[6.2,37.056],[6.044,36.9],[6.0,36.855],[5.8,36.86],[5.6,36.836],[5.464,36.7],[5.4,36.642],[5.358,36.7],[5.2,36.858],[5.174,36.9],[5.0,37.074],[4.8,37.069],[4.6,36.912],[4.588,36.9],[4.6,36.888],[4.8,36.731],[4.836,36.7],[5.0,36.536],[5.2,36.542],[5.258,36.5]]},"properties":{"probabilityThreshold":0.0715,"lengthKm":433.8,"diagnosticOnly":true}},{"type":"Feature","geometry":{"type":"LineString","coordinates":[[4.127,37.5],[4.2,37.427],[4.4,37.389],[4.6,37.358],[4.742,37.5],[4.6,37.642],[4.4,37.611],[4.2,37.573],[4.127,37.5]]},"properties":{"probabilityThreshold":0.0715,"lengthKm":133.0,"diagnosticOnly":true}},{"type":"Feature","geometry":{"type":"LineString","coordinates":[[4.7,37.9],[4.8,37.8],[5.0,37.829],[5.071,37.9],[5.2,38.068],[5.232,38.1],[5.246,38.3],[5.2,38.376],[5.008,38.3],[5.0,38.293],[4.8,38.144],[4.765,38.1],[4.7,37.9]]},"properties":{"probabilityThreshold":0.0715,"lengthKm":172.1,"diagnosticOnly":true}},{"type":"Feature","geometry":{"type":"LineString","coordinates":[[5.59,38.3],[5.6,38.29],[5.8,38.248],[5.852,38.3],[6.0,38.426],[6.2,38.431],[6.4,38.417],[6.483,38.5],[6.6,38.661],[6.639,38.7],[6.6,38.739],[6.44,38.9],[6.4,38.94],[6.2,38.99],[6.11,38.9],[6.2,38.81],[6.371,38.7],[6.2,38.569],[6.051,38.7],[6.0,38.751],[5.912,38.7],[5.8,38.599],[5.74,38.5],[5.6,38.31],[5.59,38.3]]},"properties":{"probabilityThreshold":0.0715,"lengthKm":324.2,"diagnosticOnly":true}},{"type":"Feature","geometry":{"type":"LineString","coordinates":[[16.362,43.5],[16.4,43.462],[16.438,43.5],[16.6,43.603],[16.8,43.6],[16.9,43.7],[16.8,43.8],[16.685,43.9],[16.8,43.982],[16.918,44.1],[17.0,44.233],[17.2,44.182],[17.4,44.131],[17.6,44.16],[17.723,44.1],[17.8,44.023],[17.877,44.1],[18.0,44.285],[18.015,44.3],[18.0,44.315],[17.887,44.5],[17.923,44.7],[18.0,44.834],[18.167,44.7],[18.2,44.667],[18.365,44.5],[18.4,44.465],[18.435,44.5],[18.6,44.668],[18.632,44.7],[18.612,44.9],[18.6,44.912],[18.4,44.996],[18.29,45.1],[18.207,45.3],[18.356,45.5],[18.369,45.7],[18.375,45.9],[18.4,45.935],[18.6,46.076],[18.613,46.1],[18.6,46.106],[18.433,46.3],[18.6,46.474],[18.8,46.469],[19.0,46.429],[19.2,46.465],[19.235,46.5],[19.2,46.535],[19.0,46.571],[18.8,46.506],[18.637,46.7],[18.8,46.879],[18.821,46.9],[18.8,46.921],[18.6,46.923],[18.577,46.9],[18.4,46.75],[18.2,46.795],[18.059,46.9],[18.2,47.035],[18.265,47.1],[18.271,47.3],[18.229,47.5],[18.2,47.529],[18.171,47.5],[18.0,47.37],[17.93,47.3],[17.94,47.1],[17.941,46.9],[17.8,46.808],[17.66,46.9],[17.677,47.1],[17.6,47.177],[17.4,47.195],[17.2,47.108],[17.192,47.1],[17.2,47.092],[17.4,47.005],[17.54,46.9],[17.4,46.771],[17.2,46.801],[17.0,46.735],[16.8,46.784],[16.716,46.7],[16.6,46.613],[16.4,46.51],[16.39,46.5],[16.2,46.4],[16.0,46.336],[15.826,46.3],[15.8,46.296],[15.6,46.295],[15.561,46.3],[15.4,46.326],[15.29,46.3],[15.2,46.286],[15.156,46.3],[15.0,46.359],[14.833,46.5],[14.8,46.533],[14.6,46.516],[14.584,46.5],[14.6,46.484],[14.779,46.3],[14.6,46.234],[14.489,46.3],[14.4,46.389],[14.242,46.5],[14.2,46.542],[14.043,46.7],[14.0,46.743],[13.8,46.704],[13.796,46.7],[13.6,46.612],[13.4,46.537],[13.23,46.7],[13.2,46.73],[13.048,46.9],[13.0,46.948],[12.8,46.981],[12.776,46.9],[12.725,46.7],[12.6,46.611],[12.4,46.513],[12.217,46.7],[12.2,46.717],[12.0,46.733],[11.967,46.7],[12.0,46.667],[12.176,46.5],[12.08,46.3],[12.0,46.131],[11.8,46.137],[11.763,46.1],[11.6,45.966],[11.461,46.1],[11.416,46.3],[11.4,46.316],[11.2,46.302],[11.198,46.3],[11.0,46.237],[10.884,46.3],[11.0,46.407],[11.093,46.5],[11.082,46.7],[11.0,46.782],[10.8,46.703],[10.6,46.726],[10.4,46.788],[10.248,46.9],[10.4,47.047],[10.453,47.1],[10.6,47.216],[10.684,47.3],[10.8,47.475],[11.0,47.427],[11.167,47.3],[11.2,47.215],[11.233,47.3],[11.316,47.5],[11.4,47.636],[11.502,47.5],[11.6,47.402],[11.8,47.409],[11.914,47.3],[12.0,47.214],[12.086,47.3],[12.2,47.391],[12.309,47.5],[12.4,47.632],[12.468,47.7],[12.409,47.9],[12.4,47.909],[12.391,47.9],[12.2,47.788],[12.0,47.781],[11.8,47.793],[11.6,47.793],[11.4,47.764],[11.2,47.777],[11.0,47.791],[10.909,47.7],[10.8,47.525],[10.6,47.616],[10.435,47.7],[10.4,47.735],[10.365,47.7],[10.2,47.621],[10.0,47.567],[9.8,47.552],[9.6,47.533],[9.567,47.5],[9.4,47.451],[9.249,47.3],[9.2,47.222],[9.0,47.195],[8.8,47.217],[8.6,47.241],[8.501,47.3],[8.4,47.401],[8.281,47.5],[8.2,47.581],[8.0,47.609],[7.891,47.5],[7.8,47.427],[7.679,47.5],[7.6,47.642],[7.4,47.614],[7.304,47.7],[7.2,47.804],[7.0,47.82],[6.8,47.745],[6.781,47.7],[6.8,47.681],[7.0,47.58],[7.2,47.596],[7.286,47.5],[7.2,47.398],[7.0,47.38],[6.92,47.3],[7.0,47.22],[7.111,47.1],[7.147,46.9],[7.2,46.847],[7.253,46.9],[7.4,47.046],[7.6,47.0],[7.8,47.029],[8.0,46.995],[8.119,46.9],[8.2,46.819],[8.4,46.84],[8.46,46.9],[8.6,46.959],[8.696,46.9],[8.6,46.718],[8.582,46.7],[8.4,46.615],[8.285,46.5],[8.2,46.449],[8.0,46.385],[7.8,46.378],[7.722,46.3],[7.6,46.217],[7.483,46.1],[7.4,46.045],[7.224,46.1],[7.2,46.124],[7.176,46.1],[7.196,45.9],[7.077,45.7],[7.0,45.602],[6.8,45.574],[6.726,45.5],[6.6,45.434],[6.462,45.5],[6.4,45.562],[6.338,45.5],[6.4,45.438],[6.466,45.3],[6.435,45.1],[6.6,44.935],[6.632,44.9],[6.8,44.732],[6.834,44.7],[6.8,44.647],[6.6,44.666],[6.434,44.5],[6.523,44.3],[6.6,44.223],[6.73,44.1],[6.754,43.9],[6.8,43.854],[6.846,43.9],[7.0,44.005],[7.2,44.058],[7.319,43.9],[7.4,43.819],[7.6,43.895],[7.605,43.9],[7.8,43.973],[8.0,44.041],[8.059,44.1],[8.2,44.194],[8.4,44.261],[8.439,44.3],[8.6,44.362],[8.8,44.487],[9.0,44.499],[9.001,44.5],[9.2,44.634],[9.266,44.7],[9.4,44.782],[9.48,44.7],[9.6,44.58],[9.8,44.653],[9.847,44.7],[10.0,44.791],[10.109,44.9],[10.2,44.962],[10.383,44.9],[10.4,44.883],[10.417,44.9],[10.6,45.067],[10.759,44.9],[10.8,44.859],[10.841,44.9],[11.0,45.035],[11.065,45.1],[11.095,45.3],[11.0,45.445],[10.8,45.345],[10.72,45.5],[10.8,45.601],[11.0,45.548],[11.2,45.585],[11.4,45.628],[11.472,45.7],[11.6,45.834],[11.777,45.7],[11.7,45.5],[11.705,45.3],[11.8,45.205],[11.913,45.1],[12.0,45.013],[12.2,45.029],[12.32,44.9],[12.4,44.82],[12.48,44.9],[12.6,45.052],[12.8,44.977],[12.948,44.9],[13.0,44.848],[13.2,44.713],[13.4,44.793],[13.452,44.7],[13.472,44.5],[13.6,44.463],[13.8,44.437],[14.0,44.325],[14.01,44.3],[14.0,44.174],[13.994,44.1],[14.0,44.094],[14.01,44.1],[14.2,44.172],[14.378,44.1],[14.4,44.087],[14.558,43.9],[14.502,43.7],[14.6,43.602],[14.8,43.674],[15.0,43.684],[15.016,43.7],[15.085,43.9],[15.2,44.083],[15.368,43.9],[15.4,43.868],[15.432,43.9],[15.6,44.048],[15.731,43.9],[15.75,43.7],[15.8,43.65],[16.0,43.646],[16.2,43.677],[16.362,43.5]]},"properties":{"probabilityThreshold":0.0715,"lengthKm":5065.1,"diagnosticOnly":true}},{"type":"Feature","geometry":{"type":"LineString","coordinates":[[3.683,44.5],[3.8,44.383],[3.917,44.5],[3.8,44.617],[3.703,44.7],[3.6,44.803],[3.497,44.7],[3.6,44.597],[3.683,44.5]]},"properties":{"probabilityThreshold":0.0715,"lengthKm":114.6,"diagnosticOnly":true}},{"type":"Feature","geometry":{"type":"LineString","coordinates":[[15.4,45.075],[15.358,45.1],[15.2,45.213],[15.0,45.283],[14.952,45.3],[14.882,45.5],[14.8,45.582],[14.615,45.7],[14.6,45.715],[14.4,45.79],[14.31,45.7],[14.2,45.563],[14.137,45.5],[14.0,45.375],[13.851,45.5],[13.8,45.551],[13.6,45.628],[13.513,45.7],[13.4,45.813],[13.276,45.9],[13.4,45.994],[13.506,46.1],[13.4,46.206],[13.338,46.3],[13.4,46.463],[13.6,46.388],[13.714,46.3],[13.8,46.214],[14.0,46.258],[14.2,46.2],[14.25,46.1],[14.4,45.95],[14.6,45.966],[14.699,45.9],[14.8,45.799],[15.0,45.72],[15.08,45.7],[15.2,45.582],[15.298,45.5],[15.4,45.344],[15.494,45.3],[15.426,45.1],[15.4,45.075]]},"properties":{"probabilityThreshold":0.0715,"lengthKm":580.2,"diagnosticOnly":true}},{"type":"Feature","geometry":{"type":"LineString","coordinates":[[4.171,45.7],[4.2,45.671],[4.229,45.7],[4.4,45.879],[4.421,45.9],[4.6,46.054],[4.8,46.05],[5.0,46.052],[5.2,46.037],[5.263,46.1],[5.4,46.227],[5.6,46.25],[5.65,46.3],[5.8,46.438],[5.862,46.5],[6.0,46.647],[6.084,46.5],[6.0,46.388],[5.912,46.3],[5.969,46.1],[6.0,46.069],[6.031,46.1],[6.2,46.256],[6.244,46.3],[6.316,46.5],[6.223,46.7],[6.2,46.723],[6.104,46.9],[6.2,46.987],[6.329,46.9],[6.4,46.829],[6.471,46.9],[6.6,46.985],[6.8,47.005],[6.895,47.1],[6.8,47.195],[6.667,47.3],[6.706,47.5],[6.6,47.606],[6.4,47.583],[6.2,47.674],[6.0,47.647],[5.8,47.599],[5.734,47.5],[5.6,47.352],[5.4,47.392],[5.2,47.318],[5.182,47.3],[5.024,47.1],[5.0,47.006],[4.928,47.1],[4.8,47.151],[4.749,47.1],[4.6,46.951],[4.549,46.9],[4.6,46.849],[4.784,46.7],[4.6,46.574],[4.4,46.523],[4.2,46.511],[4.189,46.5],[4.0,46.322],[3.978,46.3],[3.931,46.1],[3.964,45.9],[4.0,45.864],[4.171,45.7]]},"properties":{"probabilityThreshold":0.0715,"lengthKm":926.1,"diagnosticOnly":true}},{"type":"Feature","geometry":{"type":"LineString","coordinates":[[9.6,46.641],[9.477,46.7],[9.474,46.9],[9.6,46.99],[9.8,47.012],[9.932,46.9],[9.92,46.7],[9.8,46.633],[9.6,46.641]]},"properties":{"probabilityThreshold":0.0715,"lengthKm":127.9,"diagnosticOnly":true}},{"type":"Feature","geometry":{"type":"LineString","coordinates":[[17.373,48.3],[17.4,48.273],[17.6,48.227],[17.8,48.233],[18.0,48.18],[18.2,48.23],[18.284,48.3],[18.4,48.482],[18.414,48.5],[18.6,48.611],[18.8,48.668],[19.0,48.607],[19.2,48.7],[19.2,48.7],[19.2,48.7],[19.0,48.793],[18.8,48.732],[18.6,48.789],[18.4,48.82],[18.2,48.841],[18.0,48.841],[17.8,48.805],[17.6,48.726],[17.574,48.7],[17.6,48.674],[17.69,48.5],[17.6,48.373],[17.4,48.327],[17.373,48.3]]},"properties":{"probabilityThreshold":0.0715,"lengthKm":357.8,"diagnosticOnly":true}},{"type":"Feature","geometry":{"type":"LineString","coordinates":[[19.718,48.5],[19.8,48.418],[20.0,48.42],[20.08,48.5],[20.2,48.598],[20.4,48.604],[20.6,48.606],[20.793,48.7],[20.6,48.794],[20.4,48.796],[20.2,48.802],[20.0,48.711],[19.8,48.809],[19.636,48.7],[19.718,48.5]]},"properties":{"probabilityThreshold":0.0715,"lengthKm":220.4,"diagnosticOnly":true}},{"type":"Feature","geometry":{"type":"LineString","coordinates":[[3.0,48.668],[3.2,48.657],[3.4,48.619],[3.6,48.619],[3.8,48.692],[4.0,48.69],[4.2,48.7],[4.2,48.7],[4.2,48.7],[4.0,48.71],[3.8,48.708],[3.6,48.781],[3.4,48.781],[3.2,48.743],[3.0,48.732]]},"properties":{"probabilityThreshold":0.0715,"lengthKm":182.0,"diagnosticOnly":true}},{"type":"Feature","geometry":{"type":"LineString","coordinates":[[4.7,48.7],[4.8,48.672],[5.0,48.626],[5.2,48.583],[5.4,48.582],[5.6,48.574],[5.8,48.581],[6.0,48.584],[6.2,48.598],[6.4,48.583],[6.6,48.638],[6.8,48.615],[7.0,48.596],[7.2,48.68],[7.22,48.7],[7.2,48.72],[7.0,48.804],[6.8,48.785],[6.6,48.762],[6.4,48.817],[6.2,48.802],[6.0,48.816],[5.8,48.819],[5.6,48.826],[5.4,48.818],[5.2,48.817],[5.0,48.774],[4.8,48.728],[4.7,48.7]]},"properties":{"probabilityThreshold":0.0715,"lengthKm":385.9,"diagnosticOnly":true}}],"properties":{"forecastHour":54,"method":"xgboost-dwd-era5-icon2i-v1","threshold":0.07145121517771291,"temporalConfirmation":"2-of-3 adjacent hours","diagnosticOnly":true}}