{"type":"FeatureCollection","features":[{"type":"Feature","geometry":{"type":"LineString","coordinates":[[3.382,38.1],[3.4,38.082],[3.451,38.1],[3.6,38.162],[3.8,38.251],[3.849,38.3],[4.0,38.433],[4.2,38.415],[4.4,38.452],[4.448,38.5],[4.6,38.665],[4.8,38.631],[5.0,38.652],[5.2,38.619],[5.281,38.7],[5.2,38.781],[5.039,38.9],[5.2,39.093],[5.207,39.1],[5.2,39.107],[5.0,39.101],[4.8,39.144],[4.756,39.1],[4.8,39.056],[4.961,38.9],[4.8,38.769],[4.677,38.9],[4.6,38.977],[4.4,39.006],[4.2,38.969],[4.131,38.9],[4.2,38.831],[4.35,38.7],[4.2,38.585],[4.0,38.567],[3.8,38.553],[3.747,38.5],[3.6,38.378],[3.4,38.334],[3.366,38.3],[3.382,38.1]]},"properties":{"probabilityThreshold":0.0715,"lengthKm":573.4,"diagnosticOnly":true}},{"type":"Feature","geometry":{"type":"LineString","coordinates":[[3.0,41.758],[3.2,41.727],[3.305,41.7],[3.4,41.662],[3.6,41.64],[3.738,41.7],[3.8,41.764],[3.868,41.7],[3.8,41.581],[3.777,41.5],[3.8,41.477],[3.863,41.5],[4.0,41.586],[4.164,41.5],[4.2,41.488],[4.258,41.5],[4.4,41.547],[4.6,41.668],[4.799,41.5],[4.8,41.499],[4.801,41.5],[5.0,41.661],[5.039,41.7],[5.2,41.873],[5.227,41.9],[5.4,42.072],[5.428,42.1],[5.6,42.3],[5.6,42.3],[5.685,42.5],[5.6,42.585],[5.4,42.566],[5.334,42.5],[5.357,42.3],[5.2,42.173],[5.0,42.192],[4.8,42.167],[4.6,42.145],[4.4,42.155],[4.345,42.1],[4.2,42.023],[4.0,41.953],[3.8,41.958],[3.675,42.1],[3.6,42.175],[3.4,42.181],[3.2,42.268],[3.0,42.225]]},"properties":{"probabilityThreshold":0.0715,"lengthKm":633.1,"diagnosticOnly":true}},{"type":"Feature","geometry":{"type":"LineString","coordinates":[[5.561,43.9],[5.6,43.861],[5.8,43.855],[6.0,43.818],[6.108,43.9],[6.155,44.1],[6.045,44.3],[6.0,44.345],[5.8,44.315],[5.785,44.3],[5.8,44.285],[5.905,44.1],[5.8,43.945],[5.6,43.939],[5.561,43.9]]},"properties":{"probabilityThreshold":0.0715,"lengthKm":185.8,"diagnosticOnly":true}},{"type":"Feature","geometry":{"type":"LineString","coordinates":[[7.143,44.1],[7.2,44.075],[7.4,44.053],[7.6,43.974],[7.8,44.053],[7.847,44.1],[8.0,44.254],[8.2,44.245],[8.4,44.289],[8.411,44.3],[8.591,44.5],[8.6,44.517],[8.8,44.599],[9.0,44.654],[9.107,44.7],[9.2,44.724],[9.4,44.703],[9.6,44.884],[9.8,44.872],[10.0,44.88],[10.014,44.9],[10.2,44.968],[10.4,44.923],[10.6,45.011],[10.8,45.028],[11.0,45.023],[11.2,45.053],[11.4,45.092],[11.6,45.099],[11.8,45.053],[12.0,44.982],[12.2,45.055],[12.317,45.1],[12.4,45.117],[12.498,45.1],[12.6,45.065],[12.8,44.975],[13.0,44.97],[13.181,44.9],[13.2,44.881],[13.4,44.889],[13.6,44.882],[13.618,44.9],[13.6,44.918],[13.501,45.1],[13.6,45.274],[13.759,45.1],[13.8,45.059],[14.0,45.099],[14.2,45.057],[14.319,45.1],[14.4,45.172],[14.6,45.179],[14.8,45.299],[15.0,45.245],[15.148,45.3],[15.0,45.355],[14.855,45.5],[15.0,45.673],[15.2,45.681],[15.4,45.638],[15.6,45.666],[15.8,45.64],[16.0,45.62],[16.2,45.604],[16.4,45.651],[16.449,45.7],[16.531,45.9],[16.6,46.052],[16.648,46.1],[16.8,46.26],[16.84,46.3],[17.0,46.483],[17.017,46.5],[17.0,46.517],[16.881,46.7],[16.8,46.781],[16.6,46.823],[16.448,46.9],[16.422,47.1],[16.548,47.3],[16.504,47.5],[16.6,47.636],[16.664,47.7],[16.759,47.9],[16.8,48.036],[16.83,48.1],[16.8,48.13],[16.709,48.3],[16.8,48.441],[16.859,48.5],[17.0,48.56],[17.2,48.631],[17.4,48.606],[17.6,48.663],[17.8,48.685],[17.815,48.7],[17.8,48.715],[17.6,48.737],[17.4,48.794],[17.2,48.769],[17.0,48.84],[16.8,48.849],[16.6,48.848],[16.4,48.861],[16.2,48.863],[16.0,48.858],[15.8,48.858],[15.6,48.843],[15.4,48.859],[15.2,48.856],[15.0,48.856],[14.8,48.83],[14.6,48.801],[14.4,48.799],[14.2,48.816],[14.0,48.808],[13.8,48.835],[13.6,48.771],[13.4,48.759],[13.341,48.7],[13.4,48.641],[13.6,48.629],[13.8,48.565],[13.961,48.5],[13.8,48.313],[13.787,48.3],[13.6,48.246],[13.4,48.133],[13.367,48.1],[13.2,47.988],[13.066,48.1],[13.0,48.166],[12.8,48.162],[12.6,48.153],[12.547,48.1],[12.4,47.961],[12.2,47.936],[12.0,48.041],[11.8,47.966],[11.6,48.013],[11.434,48.1],[11.4,48.112],[11.388,48.1],[11.2,47.979],[11.07,48.1],[11.0,48.17],[10.93,48.1],[10.8,47.945],[10.6,47.914],[10.4,47.911],[10.2,47.92],[10.0,47.925],[9.8,47.932],[9.768,47.9],[9.6,47.756],[9.4,47.786],[9.2,47.772],[9.0,47.764],[8.8,47.728],[8.772,47.7],[8.6,47.511],[8.4,47.541],[8.2,47.571],[8.0,47.56],[7.94,47.5],[7.969,47.3],[7.8,47.159],[7.741,47.1],[7.8,47.041],[7.948,46.9],[8.0,46.779],[8.2,46.814],[8.4,46.741],[8.45,46.7],[8.4,46.549],[8.2,46.651],[8.0,46.601],[7.8,46.575],[7.677,46.5],[7.6,46.465],[7.4,46.309],[7.356,46.5],[7.4,46.574],[7.458,46.7],[7.6,46.832],[7.668,46.9],[7.6,46.968],[7.4,47.008],[7.292,46.9],[7.29,46.7],[7.2,46.643],[7.175,46.7],[7.002,46.9],[7.0,46.902],[6.998,46.9],[6.86,46.7],[6.931,46.5],[7.0,46.378],[7.2,46.312],[7.365,46.3],[7.4,46.282],[7.428,46.1],[7.4,46.081],[7.2,46.036],[7.088,46.1],[7.0,46.212],[6.915,46.3],[6.8,46.363],[6.7,46.5],[6.6,46.6],[6.5,46.5],[6.4,46.397],[6.2,46.426],[6.074,46.3],[6.2,46.132],[6.335,46.1],[6.4,46.059],[6.44,46.1],[6.6,46.207],[6.8,46.182],[6.885,46.1],[6.868,45.9],[6.8,45.812],[6.6,45.784],[6.533,45.7],[6.4,45.532],[6.387,45.5],[6.379,45.3],[6.2,45.133],[6.167,45.1],[6.2,45.067],[6.391,44.9],[6.367,44.7],[6.4,44.531],[6.415,44.5],[6.6,44.44],[6.715,44.5],[6.759,44.7],[6.8,44.761],[6.96,44.9],[7.0,44.929],[7.037,44.9],[7.098,44.7],[7.185,44.5],[7.2,44.489],[7.285,44.3],[7.2,44.125],[7.143,44.1]]},"properties":{"probabilityThreshold":0.0715,"lengthKm":3510.1,"diagnosticOnly":true}},{"type":"Feature","geometry":{"type":"LineString","coordinates":[[5.527,45.5],[5.6,45.427],[5.673,45.5],[5.797,45.7],[5.8,45.713],[5.892,45.9],[5.8,45.945],[5.755,45.9],[5.6,45.805],[5.495,45.7],[5.527,45.5]]},"properties":{"probabilityThreshold":0.0715,"lengthKm":134.3,"diagnosticOnly":true}},{"type":"Feature","geometry":{"type":"LineString","coordinates":[[15.4,45.762],[15.275,45.9],[15.4,45.972],[15.6,45.976],[15.8,46.071],[15.829,46.1],[16.0,46.195],[16.137,46.1],[16.121,45.9],[16.0,45.78],[15.8,45.76],[15.6,45.734],[15.4,45.762]]},"properties":{"probabilityThreshold":0.0715,"lengthKm":186.2,"diagnosticOnly":true}},{"type":"Feature","geometry":{"type":"LineString","coordinates":[[9.4,46.073],[9.306,46.1],[9.2,46.245],[9.0,46.127],[8.8,46.227],[8.6,46.228],[8.554,46.3],[8.6,46.338],[8.8,46.434],[8.855,46.5],[9.0,46.562],[9.037,46.5],[9.2,46.323],[9.4,46.351],[9.497,46.3],[9.474,46.1],[9.4,46.073]]},"properties":{"probabilityThreshold":0.0715,"lengthKm":219.0,"diagnosticOnly":true}},{"type":"Feature","geometry":{"type":"LineString","coordinates":[[17.582,46.1],[17.6,46.082],[17.618,46.1],[17.8,46.243],[17.857,46.3],[18.0,46.474],[18.026,46.5],[18.039,46.7],[18.0,46.739],[17.8,46.758],[17.742,46.7],[17.735,46.5],[17.6,46.362],[17.538,46.3],[17.582,46.1]]},"properties":{"probabilityThreshold":0.0715,"lengthKm":181.4,"diagnosticOnly":true}},{"type":"Feature","geometry":{"type":"LineString","coordinates":[[9.2,46.696],[9.193,46.7],[9.0,46.84],[8.8,46.88],[8.6,46.839],[8.549,46.9],[8.6,46.916],[8.8,46.91],[9.0,46.962],[9.2,46.948],[9.274,46.9],[9.324,46.7],[9.2,46.696]]},"properties":{"probabilityThreshold":0.0715,"lengthKm":152.2,"diagnosticOnly":true}},{"type":"Feature","geometry":{"type":"LineString","coordinates":[[9.6,46.824],[9.505,46.9],[9.6,46.969],[9.8,47.036],[9.864,47.1],[10.0,47.188],[10.2,47.201],[10.382,47.1],[10.284,46.9],[10.2,46.807],[10.0,46.819],[9.8,46.763],[9.6,46.824]]},"properties":{"probabilityThreshold":0.0715,"lengthKm":178.1,"diagnosticOnly":true}},{"type":"Feature","geometry":{"type":"LineString","coordinates":[[13.0,46.813],[12.885,46.9],[12.927,47.1],[12.8,47.116],[12.6,47.237],[12.4,47.18],[12.2,47.208],[12.0,47.141],[11.959,47.1],[11.8,47.023],[11.6,47.004],[11.431,47.1],[11.4,47.19],[11.275,47.1],[11.2,47.088],[11.104,47.1],[11.2,47.286],[11.207,47.3],[11.4,47.325],[11.45,47.3],[11.6,47.219],[11.681,47.3],[11.8,47.454],[12.0,47.442],[12.2,47.421],[12.4,47.449],[12.6,47.414],[12.8,47.41],[12.903,47.3],[13.0,47.11],[13.2,47.261],[13.316,47.3],[13.386,47.5],[13.4,47.525],[13.514,47.5],[13.6,47.488],[13.612,47.5],[13.8,47.631],[14.0,47.534],[14.101,47.5],[14.143,47.3],[14.0,47.111],[13.859,47.3],[13.8,47.359],[13.741,47.3],[13.6,47.15],[13.55,47.1],[13.4,46.985],[13.2,46.908],[13.192,46.9],[13.0,46.813]]},"properties":{"probabilityThreshold":0.0715,"lengthKm":690.8,"diagnosticOnly":true}},{"type":"Feature","geometry":{"type":"LineString","coordinates":[[15.0,46.975],[14.87,47.1],[14.8,47.175],[14.683,47.3],[14.6,47.369],[14.4,47.397],[14.227,47.5],[14.4,47.559],[14.6,47.542],[14.8,47.665],[14.835,47.7],[15.0,47.764],[15.2,47.743],[15.271,47.7],[15.4,47.661],[15.439,47.7],[15.6,47.86],[15.64,47.9],[15.8,48.004],[15.991,47.9],[16.0,47.891],[16.077,47.7],[16.084,47.5],[16.0,47.438],[15.862,47.3],[15.8,47.173],[15.6,47.199],[15.4,47.235],[15.2,47.106],[15.184,47.1],[15.0,46.975]]},"properties":{"probabilityThreshold":0.0715,"lengthKm":415.2,"diagnosticOnly":true}}],"properties":{"forecastHour":39,"method":"xgboost-dwd-era5-icon2i-v1","threshold":0.07145121517771291,"temporalConfirmation":"2-of-3 adjacent hours","diagnosticOnly":true}}