{"type":"FeatureCollection","features":[{"type":"Feature","geometry":{"type":"LineString","coordinates":[[3.0,36.162],[3.138,36.3],[3.2,36.339],[3.4,36.414],[3.569,36.3],[3.495,36.1],[3.6,35.995],[3.705,36.1],[3.631,36.3],[3.641,36.5],[3.66,36.7],[3.6,36.76],[3.4,36.849],[3.2,36.853],[3.047,36.7],[3.0,36.661]]},"properties":{"probabilityThreshold":0.0715,"lengthKm":261.4,"diagnosticOnly":true}},{"type":"Feature","geometry":{"type":"LineString","coordinates":[[4.495,36.3],[4.6,36.195],[4.705,36.3],[4.6,36.405],[4.531,36.5],[4.572,36.7],[4.6,36.733],[4.8,36.775],[4.913,36.7],[5.0,36.613],[5.2,36.696],[5.204,36.7],[5.2,36.704],[5.084,36.9],[5.0,36.984],[4.8,37.025],[4.6,37.067],[4.433,36.9],[4.4,36.872],[4.2,36.86],[4.0,36.782],[3.918,36.7],[4.0,36.618],[4.2,36.54],[4.269,36.5],[4.4,36.369],[4.495,36.3]]},"properties":{"probabilityThreshold":0.0715,"lengthKm":368.5,"diagnosticOnly":true}},{"type":"Feature","geometry":{"type":"LineString","coordinates":[[5.532,36.7],[5.6,36.632],[5.8,36.639],[6.0,36.605],[6.095,36.7],[6.0,36.795],[5.8,36.761],[5.6,36.768],[5.532,36.7]]},"properties":{"probabilityThreshold":0.0715,"lengthKm":118.6,"diagnosticOnly":true}},{"type":"Feature","geometry":{"type":"LineString","coordinates":[[3.37,37.5],[3.4,37.491],[3.409,37.5],[3.6,37.633],[3.667,37.7],[3.8,37.827],[3.873,37.9],[4.0,37.993],[4.2,38.051],[4.4,38.05],[4.45,38.1],[4.6,38.231],[4.8,38.205],[5.0,38.256],[5.2,38.295],[5.205,38.3],[5.4,38.446],[5.454,38.5],[5.6,38.599],[5.8,38.668],[5.907,38.7],[6.0,38.721],[6.2,38.803],[6.4,38.828],[6.538,38.9],[6.6,38.931],[6.8,38.94],[6.922,39.1],[6.8,39.222],[6.6,39.216],[6.484,39.1],[6.4,38.972],[6.2,38.997],[6.0,39.017],[5.883,38.9],[5.8,38.732],[5.634,38.9],[5.6,38.934],[5.4,38.924],[5.2,39.018],[5.0,38.956],[4.944,38.9],[4.92,38.7],[4.8,38.574],[4.6,38.552],[4.548,38.5],[4.4,38.366],[4.232,38.5],[4.206,38.7],[4.2,38.706],[4.194,38.7],[4.168,38.5],[4.162,38.3],[4.0,38.207],[3.8,38.18],[3.6,38.189],[3.511,38.1],[3.4,37.979],[3.321,37.9],[3.2,37.764],[3.136,37.7],[3.2,37.575],[3.37,37.5]]},"properties":{"probabilityThreshold":0.0715,"lengthKm":934.9,"diagnosticOnly":true}},{"type":"Feature","geometry":{"type":"LineString","coordinates":[[4.2,41.7],[4.4,41.656],[4.444,41.7],[4.6,41.86],[4.8,41.89],[4.81,41.9],[4.8,41.91],[4.6,41.94],[4.4,41.93],[4.37,41.9],[4.2,41.7]]},"properties":{"probabilityThreshold":0.0715,"lengthKm":128.9,"diagnosticOnly":true}},{"type":"Feature","geometry":{"type":"LineString","coordinates":[[14.151,43.7],[14.2,43.651],[14.249,43.7],[14.4,43.836],[14.566,43.7],[14.6,43.666],[14.8,43.613],[15.0,43.628],[15.2,43.635],[15.4,43.627],[15.6,43.611],[15.8,43.592],[16.0,43.615],[16.2,43.675],[16.225,43.7],[16.4,43.784],[16.553,43.7],[16.6,43.653],[16.647,43.7],[16.676,43.9],[16.8,43.959],[16.899,44.1],[17.0,44.186],[17.2,44.287],[17.35,44.1],[17.35,43.9],[17.4,43.85],[17.45,43.9],[17.45,44.1],[17.6,44.182],[17.754,44.1],[17.8,44.054],[18.0,44.031],[18.069,44.1],[18.098,44.3],[18.2,44.407],[18.4,44.399],[18.501,44.5],[18.6,44.638],[18.662,44.7],[18.702,44.9],[18.8,45.014],[18.886,45.1],[19.0,45.194],[19.2,45.254],[19.246,45.3],[19.4,45.488],[19.412,45.5],[19.4,45.551],[19.2,45.583],[19.023,45.7],[19.0,45.723],[18.825,45.9],[18.871,46.1],[18.826,46.3],[18.8,46.326],[18.774,46.3],[18.6,46.209],[18.491,46.1],[18.4,46.009],[18.234,46.1],[18.4,46.298],[18.402,46.3],[18.6,46.451],[18.649,46.5],[18.6,46.549],[18.4,46.501],[18.399,46.5],[18.2,46.339],[18.0,46.459],[17.894,46.5],[17.8,46.536],[17.6,46.59],[17.451,46.7],[17.4,46.751],[17.2,46.854],[17.0,46.797],[16.8,46.759],[16.741,46.7],[16.6,46.597],[16.4,46.559],[16.2,46.534],[16.166,46.5],[16.0,46.367],[15.8,46.384],[15.6,46.408],[15.4,46.392],[15.308,46.3],[15.2,46.199],[15.132,46.3],[15.2,46.432],[15.268,46.5],[15.2,46.568],[15.132,46.5],[15.0,46.432],[14.883,46.5],[14.886,46.7],[14.8,46.786],[14.714,46.7],[14.6,46.641],[14.456,46.7],[14.4,46.756],[14.288,46.9],[14.2,46.988],[14.037,47.1],[14.029,47.3],[14.0,47.329],[13.8,47.378],[13.628,47.5],[13.6,47.528],[13.4,47.502],[13.204,47.7],[13.4,47.889],[13.6,47.896],[13.604,47.9],[13.6,47.904],[13.4,47.911],[13.2,47.92],[13.125,48.1],[13.0,48.225],[12.8,48.115],[12.785,48.1],[12.6,48.027],[12.401,48.1],[12.4,48.101],[12.2,48.181],[12.119,48.1],[12.059,47.9],[12.091,47.7],[12.2,47.591],[12.4,47.578],[12.6,47.584],[12.717,47.5],[12.691,47.3],[12.6,47.236],[12.4,47.152],[12.348,47.1],[12.2,46.996],[12.104,46.9],[12.0,46.829],[11.8,46.738],[11.6,46.818],[11.482,46.7],[11.4,46.572],[11.298,46.7],[11.2,46.798],[11.0,46.823],[10.8,46.829],[10.6,46.826],[10.4,46.854],[10.316,46.7],[10.4,46.616],[10.538,46.5],[10.4,46.394],[10.244,46.5],[10.2,46.544],[10.0,46.687],[9.8,46.586],[9.6,46.591],[9.4,46.54],[9.2,46.509],[9.191,46.5],[9.087,46.3],[9.0,46.162],[8.8,46.23],[8.6,46.248],[8.4,46.236],[8.2,46.215],[8.0,46.253],[7.8,46.142],[7.6,46.151],[7.549,46.1],[7.6,46.049],[7.674,45.9],[7.6,45.808],[7.492,45.7],[7.4,45.653],[7.247,45.5],[7.2,45.451],[7.049,45.3],[7.0,45.236],[6.864,45.1],[6.8,44.949],[6.751,44.9],[6.8,44.851],[6.861,44.7],[6.877,44.5],[6.8,44.422],[6.678,44.3],[6.786,44.1],[6.8,44.086],[6.814,44.1],[7.0,44.223],[7.121,44.1],[7.2,44.021],[7.279,44.1],[7.2,44.275],[7.174,44.3],[7.2,44.382],[7.4,44.411],[7.6,44.422],[7.8,44.355],[7.867,44.3],[7.8,44.276],[7.683,44.1],[7.8,43.983],[8.0,44.009],[8.091,44.1],[8.2,44.194],[8.4,44.179],[8.6,44.263],[8.637,44.3],[8.8,44.433],[9.0,44.407],[9.2,44.428],[9.326,44.3],[9.4,44.226],[9.6,44.247],[9.653,44.3],[9.6,44.353],[9.414,44.5],[9.4,44.552],[9.368,44.7],[9.4,44.717],[9.449,44.7],[9.6,44.619],[9.8,44.642],[9.858,44.7],[10.0,44.872],[10.028,44.9],[10.2,45.066],[10.234,45.1],[10.2,45.177],[10.0,45.125],[9.975,45.1],[9.8,44.963],[9.612,45.1],[9.6,45.189],[9.588,45.1],[9.4,45.04],[9.26,44.9],[9.2,44.807],[9.032,44.9],[9.15,45.1],[9.102,45.3],[9.2,45.441],[9.304,45.3],[9.4,45.249],[9.562,45.3],[9.404,45.5],[9.4,45.516],[9.2,45.636],[9.0,45.554],[8.969,45.5],[8.945,45.3],[8.9,45.1],[8.8,44.992],[8.638,44.9],[8.8,44.806],[8.836,44.7],[8.8,44.632],[8.6,44.653],[8.518,44.7],[8.4,44.824],[8.338,44.9],[8.22,45.1],[8.327,45.3],[8.2,45.386],[8.115,45.5],[8.2,45.567],[8.4,45.578],[8.6,45.523],[8.65,45.7],[8.8,45.814],[8.948,45.9],[9.0,45.974],[9.133,45.9],[9.2,45.771],[9.4,45.797],[9.6,45.781],[9.676,45.9],[9.8,45.976],[9.961,45.9],[10.0,45.84],[10.019,45.9],[10.2,45.97],[10.392,46.1],[10.4,46.116],[10.464,46.1],[10.6,46.052],[10.8,46.062],[10.828,46.1],[10.896,46.3],[11.0,46.365],[11.2,46.404],[11.315,46.3],[11.4,46.247],[11.441,46.3],[11.6,46.459],[11.8,46.495],[11.805,46.5],[12.0,46.571],[12.07,46.5],[12.0,46.314],[11.986,46.3],[12.0,46.192],[12.015,46.1],[12.0,45.964],[11.99,45.9],[11.971,45.7],[12.0,45.671],[12.029,45.7],[12.2,45.899],[12.4,45.74],[12.6,45.795],[12.8,45.742],[13.0,45.859],[13.008,45.9],[13.2,46.025],[13.239,46.1],[13.302,46.3],[13.4,46.457],[13.6,46.448],[13.737,46.3],[13.8,46.237],[14.0,46.283],[14.2,46.198],[14.307,46.1],[14.4,46.007],[14.6,46.02],[14.727,45.9],[14.8,45.827],[14.97,45.7],[14.8,45.537],[14.763,45.5],[14.8,45.405],[14.989,45.3],[14.842,45.1],[14.8,45.069],[14.741,45.1],[14.6,45.16],[14.415,45.3],[14.4,45.315],[14.2,45.461],[14.071,45.3],[14.0,45.177],[13.933,45.3],[13.8,45.369],[13.649,45.5],[13.6,45.549],[13.4,45.592],[13.262,45.7],[13.2,45.752],[13.061,45.7],[13.0,45.69],[12.871,45.5],[12.8,45.363],[12.741,45.3],[12.8,45.167],[12.987,45.3],[13.0,45.304],[13.019,45.3],[13.2,45.177],[13.228,45.1],[13.313,44.9],[13.2,44.822],[13.135,44.7],[13.2,44.565],[13.291,44.5],[13.35,44.3],[13.2,44.143],[13.157,44.1],[13.0,43.955],[12.812,44.1],[12.8,44.112],[12.788,44.1],[12.6,43.949],[12.551,43.9],[12.6,43.851],[12.8,43.806],[13.0,43.845],[13.2,43.783],[13.4,43.739],[13.6,43.803],[13.8,43.854],[14.0,43.79],[14.151,43.7]]},"properties":{"probabilityThreshold":0.0715,"lengthKm":5414.3,"diagnosticOnly":true}},{"type":"Feature","geometry":{"type":"LineString","coordinates":[[16.4,44.655],[16.312,44.7],[16.4,44.724],[16.565,44.9],[16.6,45.0],[16.716,44.9],[16.605,44.7],[16.6,44.697],[16.4,44.655]]},"properties":{"probabilityThreshold":0.0715,"lengthKm":105.9,"diagnosticOnly":true}},{"type":"Feature","geometry":{"type":"LineString","coordinates":[[18.93,44.7],[19.0,44.63],[19.2,44.689],[19.211,44.7],[19.4,44.859],[19.441,44.9],[19.4,44.941],[19.2,44.935],[19.0,44.955],[18.945,44.9],[18.93,44.7]]},"properties":{"probabilityThreshold":0.0715,"lengthKm":123.6,"diagnosticOnly":true}},{"type":"Feature","geometry":{"type":"LineString","coordinates":[[19.51,45.1],[19.6,45.01],[19.69,45.1],[19.8,45.258],[19.842,45.3],[19.8,45.342],[19.6,45.375],[19.525,45.3],[19.51,45.1]]},"properties":{"probabilityThreshold":0.0715,"lengthKm":103.7,"diagnosticOnly":true}},{"type":"Feature","geometry":{"type":"LineString","coordinates":[[3.94,46.1],[4.0,46.04],[4.06,46.1],[4.2,46.263],[4.4,46.209],[4.6,46.217],[4.683,46.3],[4.8,46.44],[5.0,46.494],[5.2,46.435],[5.265,46.5],[5.2,46.565],[5.06,46.7],[5.013,46.9],[5.037,47.1],[5.163,47.3],[5.2,47.33],[5.292,47.3],[5.4,47.271],[5.56,47.1],[5.6,47.06],[5.64,47.1],[5.8,47.254],[5.975,47.1],[6.0,47.075],[6.025,47.1],[6.2,47.21],[6.348,47.3],[6.4,47.357],[6.532,47.3],[6.6,47.274],[6.626,47.3],[6.693,47.5],[6.6,47.593],[6.471,47.7],[6.6,47.829],[6.671,47.9],[6.632,48.1],[6.6,48.132],[6.568,48.1],[6.4,47.961],[6.2,48.002],[6.024,48.1],[6.0,48.124],[5.976,48.1],[5.8,47.972],[5.6,47.917],[5.583,47.9],[5.4,47.743],[5.2,47.703],[5.197,47.7],[5.0,47.57],[4.8,47.523],[4.777,47.5],[4.6,47.325],[4.575,47.3],[4.4,47.165],[4.2,47.18],[4.12,47.1],[4.105,46.9],[4.2,46.805],[4.332,46.7],[4.2,46.554],[4.146,46.5],[4.0,46.357],[3.8,46.367],[3.733,46.3],[3.8,46.233],[3.94,46.1]]},"properties":{"probabilityThreshold":0.0715,"lengthKm":903.2,"diagnosticOnly":true}},{"type":"Feature","geometry":{"type":"LineString","coordinates":[[7.576,47.3],[7.6,47.276],[7.8,47.262],[7.925,47.3],[7.8,47.338],[7.604,47.5],[7.6,47.504],[7.4,47.507],[7.393,47.5],[7.4,47.493],[7.576,47.3]]},"properties":{"probabilityThreshold":0.0715,"lengthKm":104.9,"diagnosticOnly":true}},{"type":"Feature","geometry":{"type":"LineString","coordinates":[[9.385,47.3],[9.4,47.285],[9.415,47.3],[9.6,47.489],[9.8,47.434],[9.974,47.3],[10.0,47.274],[10.11,47.3],[10.093,47.5],[10.0,47.593],[9.8,47.566],[9.6,47.511],[9.4,47.588],[9.2,47.591],[9.109,47.5],[9.2,47.409],[9.385,47.3]]},"properties":{"probabilityThreshold":0.0715,"lengthKm":218.8,"diagnosticOnly":true}},{"type":"Feature","geometry":{"type":"LineString","coordinates":[[10.302,47.7],[10.4,47.602],[10.498,47.7],[10.4,47.798],[10.317,47.9],[10.2,48.017],[10.083,47.9],[10.2,47.783],[10.302,47.7]]},"properties":{"probabilityThreshold":0.0715,"lengthKm":111.0,"diagnosticOnly":true}},{"type":"Feature","geometry":{"type":"LineString","coordinates":[[10.998,47.7],[11.0,47.698],[11.2,47.681],[11.4,47.636],[11.6,47.681],[11.8,47.65],[11.85,47.7],[11.8,47.75],[11.6,47.719],[11.4,47.764],[11.2,47.719],[11.0,47.702],[10.998,47.7]]},"properties":{"probabilityThreshold":0.0715,"lengthKm":137.9,"diagnosticOnly":true}},{"type":"Feature","geometry":{"type":"LineString","coordinates":[[11.127,48.1],[11.2,48.027],[11.4,47.989],[11.511,48.1],[11.496,48.3],[11.4,48.396],[11.2,48.301],[11.0,48.315],[10.985,48.3],[11.0,48.285],[11.127,48.1]]},"properties":{"probabilityThreshold":0.0715,"lengthKm":134.4,"diagnosticOnly":true}},{"type":"Feature","geometry":{"type":"LineString","coordinates":[[17.382,48.3],[17.4,48.282],[17.6,48.217],[17.8,48.188],[18.0,48.227],[18.2,48.232],[18.268,48.3],[18.24,48.5],[18.4,48.697],[18.418,48.7],[18.4,48.703],[18.2,48.728],[18.0,48.782],[17.8,48.837],[17.6,48.82],[17.48,48.7],[17.6,48.58],[17.749,48.5],[17.6,48.383],[17.4,48.318],[17.382,48.3]]},"properties":{"probabilityThreshold":0.0715,"lengthKm":266.2,"diagnosticOnly":true}},{"type":"Feature","geometry":{"type":"LineString","coordinates":[[4.698,48.7],[4.8,48.598],[5.0,48.578],[5.2,48.587],[5.4,48.585],[5.6,48.587],[5.8,48.591],[6.0,48.606],[6.2,48.586],[6.4,48.609],[6.6,48.606],[6.8,48.614],[7.0,48.633],[7.2,48.604],[7.296,48.7],[7.2,48.796],[7.0,48.767],[6.8,48.786],[6.6,48.794],[6.4,48.791],[6.2,48.814],[6.0,48.794],[5.8,48.809],[5.6,48.813],[5.4,48.815],[5.2,48.813],[5.0,48.822],[4.8,48.802],[4.698,48.7]]},"properties":{"probabilityThreshold":0.0715,"lengthKm":407.8,"diagnosticOnly":true}},{"type":"Feature","geometry":{"type":"LineString","coordinates":[[18.822,48.7],[19.0,48.639],[19.2,48.599],[19.4,48.681],[19.6,48.587],[19.748,48.7],[19.6,48.813],[19.4,48.719],[19.2,48.801],[19.0,48.761],[18.822,48.7]]},"properties":{"probabilityThreshold":0.0715,"lengthKm":163.9,"diagnosticOnly":true}}],"properties":{"forecastHour":51,"method":"xgboost-dwd-era5-icon2i-v1","threshold":0.07145121517771291,"temporalConfirmation":"2-of-3 adjacent hours","diagnosticOnly":true}}