{"type":"FeatureCollection","features":[{"type":"Feature","geometry":{"type":"LineString","coordinates":[[3.0,43.054],[3.182,42.9],[3.2,42.882],[3.218,42.9],[3.258,43.1],[3.4,43.287],[3.413,43.3],[3.4,43.313],[3.2,43.326],[3.0,43.426]]},"properties":{"probabilityThreshold":0.0715,"lengthKm":113.1,"diagnosticOnly":true}},{"type":"Feature","geometry":{"type":"LineString","coordinates":[[3.0,43.854],[3.046,43.9],[3.2,44.032],[3.268,44.1],[3.4,44.228],[3.472,44.3],[3.6,44.425],[3.718,44.3],[3.697,44.1],[3.713,43.9],[3.744,43.7],[3.8,43.644],[3.996,43.5],[4.0,43.496],[4.2,43.465],[4.235,43.5],[4.4,43.556],[4.6,43.563],[4.8,43.634],[4.866,43.7],[5.0,43.81],[5.09,43.9],[5.086,44.1],[5.0,44.186],[4.914,44.1],[4.8,44.026],[4.752,44.1],[4.746,44.3],[4.751,44.5],[4.8,44.569],[4.868,44.5],[5.0,44.368],[5.113,44.3],[5.2,44.213],[5.287,44.3],[5.315,44.5],[5.4,44.699],[5.6,44.589],[5.711,44.7],[5.8,44.86],[5.84,44.9],[5.934,45.1],[6.0,45.189],[6.2,45.169],[6.4,45.168],[6.6,45.136],[6.686,45.1],[6.8,44.986],[6.914,45.1],[6.8,45.214],[6.764,45.3],[6.8,45.37],[6.93,45.5],[7.0,45.589],[7.111,45.7],[7.2,45.821],[7.4,45.804],[7.496,45.9],[7.4,45.996],[7.223,46.1],[7.357,46.3],[7.4,46.479],[7.6,46.364],[7.8,46.438],[8.0,46.441],[8.2,46.422],[8.278,46.5],[8.2,46.578],[8.08,46.7],[8.2,46.754],[8.346,46.9],[8.4,47.028],[8.6,47.033],[8.667,47.1],[8.8,47.235],[8.865,47.3],[9.0,47.437],[9.189,47.3],[9.2,47.289],[9.211,47.3],[9.239,47.5],[9.4,47.641],[9.459,47.7],[9.4,47.759],[9.226,47.9],[9.4,48.049],[9.572,47.9],[9.6,47.872],[9.628,47.9],[9.8,48.009],[9.891,48.1],[10.0,48.266],[10.034,48.3],[10.2,48.423],[10.277,48.5],[10.23,48.7],[10.2,48.73],[10.17,48.7],[10.0,48.554],[9.87,48.7],[9.8,48.77],[9.6,48.748],[9.4,48.807],[9.2,48.826],[9.0,48.812],[8.8,48.729],[8.6,48.7],[8.4,48.813],[8.2,48.844],[8.0,48.84],[7.8,48.844],[7.6,48.845],[7.4,48.851],[7.2,48.857],[7.0,48.834],[6.8,48.826],[6.6,48.806],[6.4,48.746],[6.312,48.7],[6.2,48.557],[6.167,48.5],[6.0,48.374],[5.827,48.3],[5.8,48.292],[5.6,48.155],[5.537,48.1],[5.4,47.995],[5.288,47.9],[5.2,47.814],[5.0,47.762],[4.934,47.7],[4.8,47.511],[4.778,47.5],[4.6,47.306],[4.591,47.3],[4.4,47.169],[4.336,47.1],[4.278,46.9],[4.2,46.797],[4.045,46.9],[4.0,46.915],[3.985,46.9],[4.0,46.703],[4.001,46.7],[4.0,46.7],[3.924,46.5],[3.8,46.404],[3.696,46.3],[3.6,46.156],[3.481,46.3],[3.4,46.496],[3.2,46.448],[3.0,46.365]]},"properties":{"probabilityThreshold":0.0715,"lengthKm":2173.8,"diagnosticOnly":true}},{"type":"Feature","geometry":{"type":"LineString","coordinates":[[5.895,44.5],[6.0,44.395],[6.2,44.418],[6.282,44.5],[6.4,44.57],[6.53,44.7],[6.405,44.9],[6.4,44.905],[6.2,45.067],[6.033,44.9],[6.2,44.733],[6.27,44.7],[6.2,44.582],[6.0,44.605],[5.895,44.5]]},"properties":{"probabilityThreshold":0.0715,"lengthKm":216.6,"diagnosticOnly":true}},{"type":"Feature","geometry":{"type":"LineString","coordinates":[[3.8,44.818],[3.658,44.9],[3.6,44.958],[3.47,45.1],[3.6,45.235],[3.773,45.1],[3.8,45.073],[3.893,45.1],[4.0,45.116],[4.2,45.156],[4.256,45.1],[4.2,45.072],[4.0,45.008],[3.965,44.9],[3.8,44.818]]},"properties":{"probabilityThreshold":0.0715,"lengthKm":174.2,"diagnosticOnly":true}},{"type":"Feature","geometry":{"type":"LineString","coordinates":[[16.794,47.7],[16.8,47.694],[16.806,47.7],[16.87,47.9],[17.0,48.081],[17.019,48.1],[17.0,48.201],[16.8,48.154],[16.746,48.1],[16.73,47.9],[16.794,47.7]]},"properties":{"probabilityThreshold":0.0715,"lengthKm":128.0,"diagnosticOnly":true}}],"properties":{"forecastHour":21,"method":"xgboost-dwd-era5-icon2i-v1","threshold":0.07145121517771291,"temporalConfirmation":"2-of-3 adjacent hours","diagnosticOnly":true}}