{"type":"FeatureCollection","features":[{"type":"Feature","geometry":{"type":"LineString","coordinates":[[20.49,41.7],[20.6,41.59],[20.71,41.7],[20.8,41.879],[20.821,41.9],[21.0,42.026],[21.141,41.9],[21.2,41.841],[21.4,41.808],[21.585,41.7],[21.6,41.685],[21.615,41.7],[21.701,41.9],[21.711,42.1],[21.651,42.3],[21.8,42.412],[21.888,42.5],[21.858,42.7],[21.8,42.758],[21.693,42.9],[21.8,43.043],[21.857,43.1],[21.814,43.3],[21.8,43.314],[21.786,43.3],[21.6,43.159],[21.4,43.205],[21.265,43.3],[21.2,43.365],[21.135,43.3],[21.0,43.204],[20.892,43.3],[20.8,43.392],[20.6,43.408],[20.4,43.362],[20.2,43.363],[20.009,43.5],[20.0,43.509],[19.8,43.533],[19.6,43.56],[19.45,43.7],[19.45,43.9],[19.475,44.1],[19.454,44.3],[19.4,44.354],[19.346,44.3],[19.2,44.153],[19.035,44.3],[19.0,44.335],[18.8,44.352],[18.6,44.391],[18.415,44.5],[18.4,44.515],[18.2,44.535],[18.058,44.7],[18.012,44.9],[18.0,44.912],[17.988,44.9],[17.942,44.7],[17.8,44.594],[17.674,44.7],[17.628,44.9],[17.6,44.928],[17.572,44.9],[17.4,44.799],[17.223,44.9],[17.263,45.1],[17.26,45.3],[17.215,45.5],[17.2,45.515],[17.0,45.504],[16.996,45.5],[17.0,45.496],[17.14,45.3],[17.137,45.1],[17.0,44.97],[16.911,45.1],[16.8,45.211],[16.659,45.3],[16.6,45.359],[16.4,45.398],[16.2,45.375],[16.0,45.361],[15.81,45.5],[15.8,45.51],[15.6,45.511],[15.4,45.558],[15.2,45.554],[15.046,45.7],[15.0,45.746],[14.826,45.9],[14.8,45.926],[14.6,45.932],[14.4,45.962],[14.2,45.913],[14.073,46.1],[14.0,46.173],[13.8,46.115],[13.785,46.1],[13.6,45.953],[13.4,45.998],[13.302,45.9],[13.304,45.7],[13.4,45.604],[13.6,45.606],[13.694,45.7],[13.8,45.863],[14.0,45.854],[14.142,45.7],[14.158,45.5],[14.2,45.458],[14.242,45.5],[14.4,45.654],[14.6,45.656],[14.8,45.697],[14.91,45.5],[14.8,45.393],[14.707,45.3],[14.8,45.207],[14.974,45.1],[15.0,45.074],[15.157,44.9],[15.2,44.857],[15.283,44.7],[15.4,44.583],[15.6,44.587],[15.73,44.5],[15.8,44.43],[16.0,44.386],[16.2,44.372],[16.4,44.38],[16.501,44.3],[16.4,44.178],[16.322,44.1],[16.4,44.022],[16.6,44.016],[16.684,44.1],[16.8,44.21],[16.883,44.1],[16.997,43.9],[17.0,43.897],[17.003,43.9],[17.2,44.027],[17.363,43.9],[17.2,43.738],[17.162,43.7],[17.2,43.662],[17.4,43.562],[17.538,43.7],[17.6,43.777],[17.725,43.7],[17.8,43.625],[17.932,43.5],[17.8,43.307],[17.793,43.3],[17.8,43.293],[18.0,43.27],[18.2,43.251],[18.4,43.208],[18.492,43.3],[18.469,43.5],[18.6,43.581],[18.794,43.5],[18.701,43.3],[18.707,43.1],[18.8,43.007],[19.0,43.051],[19.2,43.014],[19.4,42.956],[19.6,42.97],[19.754,42.9],[19.8,42.879],[19.851,42.9],[20.0,42.981],[20.068,42.9],[20.0,42.765],[19.972,42.7],[19.892,42.5],[20.0,42.392],[20.08,42.3],[20.2,42.18],[20.4,42.185],[20.6,42.157],[20.745,42.1],[20.6,41.903],[20.597,41.9],[20.49,41.7]]},"properties":{"probabilityThreshold":0.0715,"lengthKm":2704.9,"diagnosticOnly":true}},{"type":"Feature","geometry":{"type":"LineString","coordinates":[[19.148,42.1],[19.2,42.048],[19.252,42.1],[19.32,42.3],[19.2,42.42],[19.06,42.5],[19.0,42.56],[18.94,42.5],[18.924,42.3],[19.0,42.224],[19.148,42.1]]},"properties":{"probabilityThreshold":0.0715,"lengthKm":135.7,"diagnosticOnly":true}},{"type":"Feature","geometry":{"type":"LineString","coordinates":[[20.173,43.7],[20.2,43.673],[20.4,43.699],[20.401,43.7],[20.6,43.857],[20.643,43.9],[20.6,43.943],[20.4,43.975],[20.2,43.975],[20.071,44.1],[20.0,44.171],[19.8,44.187],[19.713,44.1],[19.718,43.9],[19.8,43.818],[20.0,43.805],[20.173,43.7]]},"properties":{"probabilityThreshold":0.0715,"lengthKm":210.5,"diagnosticOnly":true}},{"type":"Feature","geometry":{"type":"LineString","coordinates":[[20.938,44.1],[21.0,44.038],[21.2,44.097],[21.203,44.1],[21.4,44.26],[21.44,44.3],[21.4,44.34],[21.2,44.34],[21.16,44.3],[21.0,44.162],[20.938,44.1]]},"properties":{"probabilityThreshold":0.0715,"lengthKm":110.4,"diagnosticOnly":true}},{"type":"Feature","geometry":{"type":"LineString","coordinates":[[21.731,44.9],[21.8,44.831],[21.869,44.9],[21.914,45.1],[21.863,45.3],[21.904,45.5],[21.8,45.604],[21.607,45.5],[21.6,45.495],[21.4,45.422],[21.278,45.3],[21.4,45.178],[21.6,45.179],[21.686,45.1],[21.731,44.9]]},"properties":{"probabilityThreshold":0.0715,"lengthKm":219.7,"diagnosticOnly":true}},{"type":"Feature","geometry":{"type":"LineString","coordinates":[[21.728,45.9],[21.8,45.828],[21.872,45.9],[21.956,46.1],[21.971,46.3],[21.97,46.5],[21.973,46.7],[21.971,46.9],[21.971,47.1],[21.967,47.3],[21.877,47.5],[21.8,47.577],[21.6,47.599],[21.4,47.512],[21.2,47.535],[21.147,47.7],[21.2,47.81],[21.29,47.9],[21.332,48.1],[21.2,48.232],[21.039,48.3],[21.0,48.339],[20.961,48.3],[20.8,48.168],[20.732,48.1],[20.8,48.032],[20.857,47.9],[20.853,47.7],[20.987,47.5],[21.0,47.487],[21.139,47.3],[21.2,47.239],[21.235,47.1],[21.254,46.9],[21.322,46.7],[21.297,46.5],[21.29,46.3],[21.4,46.19],[21.578,46.1],[21.6,46.078],[21.728,45.9]]},"properties":{"probabilityThreshold":0.0715,"lengthKm":658.7,"diagnosticOnly":true}},{"type":"Feature","geometry":{"type":"LineString","coordinates":[[12.725,46.9],[12.8,46.825],[13.0,46.746],[13.079,46.9],[13.0,46.979],[12.922,47.1],[12.8,47.222],[12.678,47.1],[12.725,46.9]]},"properties":{"probabilityThreshold":0.0715,"lengthKm":125.9,"diagnosticOnly":true}}],"properties":{"forecastHour":69,"method":"xgboost-dwd-era5-icon2i-v1","threshold":0.07145121517771291,"temporalConfirmation":"2-of-3 adjacent hours","diagnosticOnly":true}}