{"type":"FeatureCollection","features":[{"type":"Feature","geometry":{"type":"LineString","coordinates":[[3.75,42.5],[3.8,42.45],[4.0,42.433],[4.067,42.5],[4.0,42.567],[3.833,42.7],[3.857,42.9],[4.0,42.988],[4.094,42.9],[4.157,42.7],[4.2,42.657],[4.4,42.685],[4.458,42.7],[4.6,42.738],[4.8,42.81],[5.0,42.87],[5.03,42.9],[5.077,43.1],[5.2,43.259],[5.4,43.286],[5.6,43.279],[5.621,43.3],[5.6,43.321],[5.45,43.5],[5.4,43.55],[5.205,43.7],[5.2,43.705],[5.103,43.9],[5.2,44.095],[5.205,44.1],[5.2,44.111],[5.0,44.184],[4.856,44.3],[5.0,44.474],[5.2,44.403],[5.255,44.5],[5.375,44.7],[5.4,44.71],[5.411,44.7],[5.6,44.556],[5.8,44.549],[5.913,44.5],[5.99,44.3],[6.0,44.236],[6.01,44.3],[6.087,44.5],[6.0,44.587],[5.951,44.7],[6.0,44.855],[6.092,44.9],[6.2,44.936],[6.244,44.9],[6.236,44.7],[6.4,44.536],[6.49,44.5],[6.6,44.39],[6.71,44.5],[6.6,44.61],[6.564,44.7],[6.6,44.857],[6.643,44.9],[6.8,44.969],[6.998,44.9],[6.8,44.7],[6.8,44.7],[6.8,44.7],[7.0,44.633],[7.2,44.667],[7.233,44.7],[7.4,44.867],[7.433,44.9],[7.6,45.037],[7.663,45.1],[7.8,45.236],[8.0,45.294],[8.006,45.3],[8.2,45.44],[8.4,45.417],[8.483,45.5],[8.6,45.62],[8.68,45.7],[8.8,45.775],[9.0,45.83],[9.07,45.9],[9.2,46.013],[9.4,46.034],[9.6,46.059],[9.641,46.1],[9.675,46.3],[9.8,46.4],[10.0,46.392],[10.108,46.5],[10.2,46.7],[10.4,46.573],[10.527,46.7],[10.436,46.9],[10.453,47.1],[10.6,47.236],[10.718,47.1],[10.745,46.9],[10.8,46.845],[10.984,46.7],[11.0,46.684],[11.016,46.7],[11.031,46.9],[11.2,47.039],[11.261,47.1],[11.2,47.161],[11.009,47.3],[11.2,47.377],[11.4,47.477],[11.423,47.5],[11.539,47.7],[11.6,47.766],[11.8,47.758],[11.937,47.7],[11.984,47.5],[12.0,47.484],[12.016,47.5],[12.2,47.675],[12.225,47.7],[12.2,47.725],[12.057,47.9],[12.2,47.966],[12.355,47.9],[12.4,47.855],[12.6,47.882],[12.8,47.868],[12.832,47.9],[13.0,48.082],[13.018,48.1],[13.2,48.277],[13.223,48.3],[13.4,48.392],[13.6,48.467],[13.633,48.5],[13.8,48.669],[14.0,48.644],[14.056,48.7],[14.0,48.756],[13.8,48.731],[13.6,48.801],[13.4,48.788],[13.2,48.827],[13.0,48.816],[12.8,48.842],[12.6,48.804],[12.4,48.82],[12.2,48.821],[12.0,48.842],[11.8,48.848],[11.6,48.853],[11.4,48.853],[11.2,48.847],[11.0,48.852],[10.8,48.861],[10.6,48.862],[10.4,48.861],[10.2,48.815],[10.0,48.818],[9.8,48.853],[9.6,48.831],[9.4,48.826],[9.2,48.833],[9.0,48.846],[8.8,48.807],[8.6,48.81],[8.4,48.812],[8.2,48.783],[8.0,48.841],[7.8,48.861],[7.6,48.84],[7.4,48.813],[7.2,48.771],[7.0,48.803],[6.8,48.711],[6.789,48.7],[6.8,48.689],[7.0,48.597],[7.125,48.5],[7.0,48.399],[6.8,48.307],[6.793,48.3],[6.6,48.177],[6.523,48.1],[6.4,48.034],[6.266,47.9],[6.2,47.825],[6.0,47.834],[5.8,47.763],[5.737,47.7],[5.6,47.649],[5.4,47.545],[5.355,47.5],[5.2,47.384],[5.0,47.379],[4.921,47.3],[4.8,47.23],[4.6,47.122],[4.578,47.1],[4.575,46.9],[4.6,46.875],[4.706,46.7],[4.8,46.551],[4.979,46.7],[4.988,46.9],[5.0,46.904],[5.2,47.016],[5.4,46.955],[5.517,46.9],[5.436,46.7],[5.4,46.613],[5.2,46.574],[5.133,46.5],[5.2,46.474],[5.4,46.401],[5.462,46.5],[5.6,46.577],[5.675,46.7],[5.8,46.796],[5.961,46.9],[6.0,46.957],[6.08,46.9],[6.0,46.776],[5.972,46.7],[6.0,46.638],[6.048,46.5],[6.0,46.457],[5.819,46.3],[5.8,46.288],[5.6,46.235],[5.4,46.215],[5.362,46.1],[5.2,45.942],[5.11,45.9],[5.0,45.827],[4.927,45.7],[4.8,45.516],[4.6,45.578],[4.457,45.5],[4.459,45.3],[4.4,45.279],[4.2,45.266],[4.162,45.3],[4.0,45.427],[3.8,45.418],[3.682,45.3],[3.8,45.182],[3.93,45.1],[3.864,44.9],[3.911,44.7],[3.93,44.5],[3.8,44.429],[3.752,44.3],[3.8,44.235],[3.887,44.1],[3.8,44.031],[3.689,43.9],[3.687,43.7],[3.6,43.528],[3.572,43.5],[3.6,43.472],[3.708,43.3],[3.6,43.212],[3.415,43.3],[3.4,43.315],[3.2,43.339],[3.161,43.3],[3.2,43.261],[3.329,43.1],[3.4,43.029],[3.546,42.9],[3.6,42.846],[3.767,42.7],[3.75,42.5]]},"properties":{"probabilityThreshold":0.0715,"lengthKm":3822.1,"diagnosticOnly":true}},{"type":"Feature","geometry":{"type":"LineString","coordinates":[[3.0,44.626],[3.189,44.5],[3.2,44.478],[3.4,44.302],[3.467,44.5],[3.454,44.7],[3.4,44.891],[3.392,44.9],[3.2,45.015],[3.0,45.025]]},"properties":{"probabilityThreshold":0.0715,"lengthKm":151.0,"diagnosticOnly":true}},{"type":"Feature","geometry":{"type":"LineString","coordinates":[[18.307,46.3],[18.4,46.207],[18.493,46.3],[18.452,46.5],[18.6,46.604],[18.8,46.597],[18.903,46.7],[19.0,46.791],[19.109,46.9],[19.2,47.003],[19.4,47.074],[19.426,47.1],[19.487,47.3],[19.493,47.5],[19.49,47.7],[19.6,47.892],[19.608,47.9],[19.647,48.1],[19.675,48.3],[19.652,48.5],[19.6,48.628],[19.508,48.7],[19.4,48.737],[19.2,48.709],[19.0,48.762],[18.8,48.759],[18.741,48.7],[18.6,48.546],[18.554,48.5],[18.6,48.454],[18.73,48.3],[18.702,48.1],[18.8,48.002],[18.936,47.9],[18.926,47.7],[18.889,47.5],[18.901,47.3],[18.8,47.162],[18.738,47.1],[18.6,46.955],[18.545,46.9],[18.4,46.763],[18.337,46.7],[18.2,46.545],[18.155,46.5],[18.2,46.455],[18.307,46.3]]},"properties":{"probabilityThreshold":0.0715,"lengthKm":698.0,"diagnosticOnly":true}},{"type":"Feature","geometry":{"type":"LineString","coordinates":[[16.542,47.5],[16.6,47.442],[16.658,47.5],[16.659,47.7],[16.8,47.855],[16.938,47.7],[17.0,47.638],[17.062,47.7],[17.2,47.876],[17.305,47.9],[17.4,47.922],[17.5,48.1],[17.6,48.274],[17.626,48.3],[17.798,48.5],[17.6,48.564],[17.402,48.7],[17.4,48.702],[17.2,48.741],[17.0,48.757],[16.943,48.7],[16.8,48.585],[16.715,48.5],[16.714,48.3],[16.721,48.1],[16.6,47.901],[16.599,47.9],[16.4,47.703],[16.397,47.7],[16.4,47.697],[16.542,47.5]]},"properties":{"probabilityThreshold":0.0715,"lengthKm":425.7,"diagnosticOnly":true}}],"properties":{"forecastHour":27,"method":"xgboost-dwd-era5-icon2i-v1","threshold":0.07145121517771291,"temporalConfirmation":"2-of-3 adjacent hours","diagnosticOnly":true}}