{"type":"FeatureCollection","features":[{"type":"Feature","geometry":{"type":"LineString","coordinates":[[3.873,37.3],[4.0,37.247],[4.053,37.3],[4.2,37.48],[4.4,37.43],[4.464,37.3],[4.6,37.164],[4.8,37.154],[5.0,37.133],[5.167,37.3],[5.082,37.5],[5.0,37.582],[4.8,37.636],[4.686,37.7],[4.6,37.75],[4.4,37.756],[4.2,37.716],[4.167,37.7],[4.0,37.547],[3.967,37.5],[3.873,37.3]]},"properties":{"probabilityThreshold":0.0715,"lengthKm":323.0,"diagnosticOnly":true}},{"type":"Feature","geometry":{"type":"LineString","coordinates":[[4.741,38.5],[4.8,38.476],[4.947,38.5],[5.0,38.574],[5.021,38.5],[5.2,38.442],[5.4,38.376],[5.6,38.397],[5.703,38.5],[5.8,38.595],[6.0,38.602],[6.2,38.654],[6.246,38.7],[6.2,38.758],[6.0,38.842],[5.8,38.805],[5.656,38.7],[5.6,38.642],[5.4,38.624],[5.207,38.7],[5.2,38.71],[5.0,38.748],[4.924,38.7],[4.8,38.6],[4.741,38.5]]},"properties":{"probabilityThreshold":0.0715,"lengthKm":322.0,"diagnosticOnly":true}},{"type":"Feature","geometry":{"type":"LineString","coordinates":[[4.188,38.9],[4.2,38.888],[4.4,38.81],[4.6,38.778],[4.722,38.9],[4.6,39.022],[4.4,38.973],[4.2,38.912],[4.188,38.9]]},"properties":{"probabilityThreshold":0.0715,"lengthKm":111.3,"diagnosticOnly":true}},{"type":"Feature","geometry":{"type":"LineString","coordinates":[[5.197,39.1],[5.2,39.096],[5.4,39.008],[5.6,38.981],[5.8,39.035],[6.0,39.064],[6.016,39.1],[6.0,39.116],[5.8,39.165],[5.6,39.169],[5.4,39.161],[5.2,39.103],[5.197,39.1]]},"properties":{"probabilityThreshold":0.0715,"lengthKm":151.6,"diagnosticOnly":true}},{"type":"Feature","geometry":{"type":"LineString","coordinates":[[4.107,41.1],[4.2,41.007],[4.4,41.026],[4.474,41.1],[4.6,41.256],[4.776,41.1],[4.8,41.076],[4.824,41.1],[4.825,41.3],[5.0,41.387],[5.2,41.411],[5.289,41.5],[5.4,41.602],[5.498,41.7],[5.6,41.849],[5.651,41.9],[5.6,41.951],[5.4,41.971],[5.2,41.976],[5.0,41.965],[4.8,41.953],[4.6,41.965],[4.4,41.984],[4.262,42.1],[4.2,42.162],[4.0,42.189],[3.8,42.213],[3.686,42.3],[3.6,42.386],[3.4,42.34],[3.2,42.383],[3.117,42.3],[3.137,42.1],[3.2,42.037],[3.371,41.9],[3.2,41.738],[3.162,41.7],[3.2,41.662],[3.322,41.5],[3.4,41.422],[3.6,41.425],[3.8,41.431],[3.902,41.3],[4.0,41.202],[4.107,41.1]]},"properties":{"probabilityThreshold":0.0715,"lengthKm":644.4,"diagnosticOnly":true}},{"type":"Feature","geometry":{"type":"LineString","coordinates":[[15.159,43.7],[15.2,43.659],[15.241,43.7],[15.4,43.863],[15.6,43.824],[15.8,43.864],[15.836,43.9],[15.8,43.936],[15.6,43.976],[15.502,44.1],[15.6,44.224],[15.8,44.219],[16.0,44.271],[16.029,44.3],[16.2,44.447],[16.253,44.5],[16.4,44.67],[16.6,44.681],[16.619,44.7],[16.612,44.9],[16.6,45.01],[16.4,44.951],[16.349,44.9],[16.2,44.706],[16.0,44.735],[15.965,44.7],[15.8,44.589],[15.718,44.7],[15.697,44.9],[15.8,45.083],[15.817,45.1],[15.8,45.117],[15.61,45.1],[15.6,45.099],[15.4,45.0],[15.2,45.003],[15.0,45.016],[14.866,45.1],[14.912,45.3],[15.0,45.353],[15.2,45.316],[15.34,45.3],[15.4,45.285],[15.6,45.106],[15.626,45.3],[15.8,45.378],[15.912,45.3],[16.0,45.212],[16.088,45.3],[16.2,45.45],[16.4,45.4],[16.6,45.368],[16.795,45.3],[16.8,45.295],[17.0,45.288],[17.2,45.202],[17.4,45.186],[17.6,45.273],[17.8,45.238],[18.0,45.273],[18.027,45.3],[18.0,45.327],[17.8,45.442],[17.6,45.327],[17.468,45.5],[17.541,45.7],[17.6,45.788],[17.766,45.7],[17.8,45.683],[18.0,45.657],[18.121,45.5],[18.2,45.421],[18.4,45.359],[18.6,45.481],[18.619,45.5],[18.627,45.7],[18.6,45.727],[18.412,45.9],[18.4,45.912],[18.2,45.916],[18.0,45.932],[17.86,46.1],[18.0,46.274],[18.026,46.3],[18.006,46.5],[18.0,46.506],[17.967,46.5],[17.8,46.358],[17.743,46.3],[17.6,46.263],[17.4,46.143],[17.271,46.1],[17.369,45.9],[17.2,45.815],[17.064,45.9],[17.072,46.1],[17.017,46.3],[17.0,46.317],[16.915,46.3],[16.922,46.1],[16.8,46.066],[16.6,46.083],[16.4,46.082],[16.379,46.1],[16.2,46.282],[16.0,46.269],[15.976,46.3],[16.0,46.345],[16.141,46.5],[16.027,46.7],[16.0,46.727],[15.973,46.7],[15.8,46.529],[15.771,46.5],[15.6,46.411],[15.483,46.5],[15.4,46.583],[15.279,46.7],[15.2,46.779],[15.092,46.9],[15.0,46.992],[14.8,46.946],[14.658,47.1],[14.6,47.158],[14.503,47.3],[14.6,47.403],[14.697,47.5],[14.8,47.65],[14.85,47.7],[15.0,47.817],[15.167,47.7],[15.2,47.667],[15.233,47.7],[15.249,47.9],[15.4,48.059],[15.6,48.056],[15.644,48.1],[15.6,48.144],[15.4,48.141],[15.201,48.3],[15.2,48.301],[15.0,48.318],[14.982,48.3],[14.8,48.183],[14.6,48.127],[14.4,48.128],[14.2,48.144],[14.0,48.108],[13.8,48.148],[13.752,48.1],[13.6,48.012],[13.4,47.974],[13.2,48.006],[13.0,47.999],[12.8,48.031],[12.6,48.013],[12.4,48.007],[12.2,48.0],[12.0,48.005],[11.8,47.921],[11.779,47.9],[11.6,47.74],[11.4,47.762],[11.2,47.75],[11.0,47.717],[10.983,47.7],[10.8,47.507],[10.793,47.5],[10.6,47.391],[10.4,47.341],[10.23,47.5],[10.226,47.7],[10.2,47.74],[10.174,47.7],[10.0,47.535],[9.965,47.5],[9.884,47.3],[9.8,47.241],[9.6,47.249],[9.4,47.168],[9.2,47.115],[9.185,47.1],[9.064,46.9],[9.0,46.822],[8.923,46.9],[8.8,47.023],[8.677,46.9],[8.8,46.777],[8.878,46.7],[8.884,46.5],[9.0,46.384],[9.167,46.3],[9.2,46.183],[9.222,46.1],[9.2,46.088],[9.0,46.078],[8.982,46.1],[8.8,46.185],[8.6,46.233],[8.4,46.16],[8.208,46.3],[8.2,46.313],[8.0,46.306],[7.994,46.3],[7.8,46.218],[7.6,46.136],[7.47,46.3],[7.4,46.37],[7.2,46.36],[7.14,46.3],[7.2,46.24],[7.336,46.1],[7.4,46.036],[7.491,45.9],[7.6,45.791],[7.709,45.9],[7.8,45.982],[7.844,45.9],[7.868,45.7],[7.8,45.572],[7.6,45.623],[7.4,45.593],[7.307,45.5],[7.209,45.3],[7.4,45.197],[7.564,45.1],[7.4,45.041],[7.2,44.965],[7.0,45.047],[6.853,44.9],[7.0,44.753],[7.044,44.7],[7.163,44.5],[7.136,44.3],[7.2,44.236],[7.303,44.1],[7.4,44.003],[7.497,44.1],[7.6,44.181],[7.8,44.151],[8.0,44.154],[8.2,44.267],[8.4,44.152],[8.6,44.18],[8.753,44.3],[8.8,44.367],[8.869,44.3],[9.0,44.208],[9.2,44.214],[9.307,44.1],[9.4,44.007],[9.493,44.1],[9.6,44.24],[9.8,44.241],[9.859,44.3],[9.865,44.5],[9.816,44.7],[9.8,44.716],[9.784,44.7],[9.6,44.606],[9.511,44.7],[9.4,44.896],[9.369,44.9],[9.309,45.1],[9.4,45.159],[9.569,45.1],[9.6,45.015],[9.8,45.006],[10.0,45.055],[10.045,45.1],[10.2,45.226],[10.28,45.1],[10.4,44.98],[10.6,45.031],[10.7,44.9],[10.6,44.751],[10.549,44.7],[10.6,44.649],[10.8,44.609],[11.0,44.63],[11.07,44.7],[11.078,44.9],[11.2,45.055],[11.323,44.9],[11.4,44.823],[11.477,44.9],[11.6,44.94],[11.8,44.953],[11.985,44.9],[12.0,44.885],[12.144,44.7],[12.2,44.644],[12.256,44.7],[12.4,44.76],[12.6,44.777],[12.735,44.7],[12.6,44.553],[12.4,44.573],[12.327,44.5],[12.4,44.427],[12.6,44.447],[12.8,44.432],[12.935,44.3],[12.8,44.197],[12.703,44.1],[12.8,44.003],[12.979,44.1],[13.0,44.138],[13.046,44.1],[13.2,44.045],[13.255,44.1],[13.4,44.217],[13.585,44.1],[13.6,44.085],[13.8,44.035],[14.0,44.084],[14.2,44.065],[14.235,44.1],[14.4,44.228],[14.6,44.279],[14.74,44.1],[14.8,44.04],[14.922,43.9],[15.0,43.822],[15.159,43.7]]},"properties":{"probabilityThreshold":0.0715,"lengthKm":4536.2,"diagnosticOnly":true}},{"type":"Feature","geometry":{"type":"LineString","coordinates":[[11.2,46.541],[11.172,46.7],[11.149,46.9],[11.2,46.998],[11.302,47.1],[11.4,47.187],[11.513,47.3],[11.454,47.5],[11.6,47.66],[11.8,47.626],[12.0,47.61],[12.152,47.5],[12.2,47.452],[12.248,47.5],[12.4,47.58],[12.515,47.5],[12.6,47.415],[12.8,47.382],[12.917,47.3],[12.8,47.193],[12.6,47.103],[12.4,47.184],[12.2,47.156],[12.144,47.1],[12.0,46.992],[11.8,46.945],[11.755,46.9],[11.6,46.758],[11.436,46.9],[11.4,46.936],[11.364,46.9],[11.387,46.7],[11.2,46.541]]},"properties":{"probabilityThreshold":0.0715,"lengthKm":468.5,"diagnosticOnly":true}},{"type":"Feature","geometry":{"type":"LineString","coordinates":[[16.844,46.9],[17.0,46.893],[17.007,46.9],[17.056,47.1],[17.2,47.201],[17.299,47.3],[17.2,47.399],[17.058,47.5],[17.02,47.7],[17.0,47.72],[16.8,47.715],[16.785,47.7],[16.784,47.5],[16.8,47.484],[16.935,47.3],[16.867,47.1],[16.844,46.9]]},"properties":{"probabilityThreshold":0.0715,"lengthKm":226.8,"diagnosticOnly":true}},{"type":"Feature","geometry":{"type":"LineString","coordinates":[[16.369,47.7],[16.4,47.669],[16.431,47.7],[16.422,47.9],[16.6,48.048],[16.652,48.1],[16.6,48.152],[16.4,48.106],[16.2,48.121],[16.0,48.134],[15.966,48.1],[15.894,47.9],[16.0,47.794],[16.2,47.821],[16.369,47.7]]},"properties":{"probabilityThreshold":0.0715,"lengthKm":186.2,"diagnosticOnly":true}},{"type":"Feature","geometry":{"type":"LineString","coordinates":[[18.197,48.5],[18.2,48.499],[18.201,48.5],[18.4,48.596],[18.6,48.607],[18.8,48.597],[19.0,48.7],[18.8,48.803],[18.6,48.793],[18.4,48.804],[18.2,48.799],[18.0,48.796],[17.8,48.796],[17.6,48.749],[17.4,48.734],[17.235,48.7],[17.4,48.666],[17.6,48.651],[17.8,48.604],[18.0,48.547],[18.197,48.5]]},"properties":{"probabilityThreshold":0.0715,"lengthKm":276.3,"diagnosticOnly":true}},{"type":"Feature","geometry":{"type":"LineString","coordinates":[[19.001,48.7],[19.2,48.627],[19.4,48.596],[19.6,48.613],[19.8,48.638],[19.862,48.7],[19.8,48.762],[19.6,48.787],[19.4,48.804],[19.2,48.773],[19.001,48.7]]},"properties":{"probabilityThreshold":0.0715,"lengthKm":139.6,"diagnosticOnly":true}}],"properties":{"forecastHour":45,"method":"xgboost-dwd-era5-icon2i-v1","threshold":0.07145121517771291,"temporalConfirmation":"2-of-3 adjacent hours","diagnosticOnly":true}}