{"type":"FeatureCollection","features":[{"type":"Feature","geometry":{"type":"LineString","coordinates":[[20.537,41.7],[20.6,41.637],[20.663,41.7],[20.8,41.794],[20.906,41.9],[21.0,41.981],[21.138,41.9],[21.2,41.838],[21.4,41.822],[21.561,41.7],[21.6,41.661],[21.639,41.7],[21.628,41.9],[21.678,42.1],[21.629,42.3],[21.8,42.472],[21.828,42.5],[21.821,42.7],[21.8,42.721],[21.66,42.9],[21.8,43.033],[21.867,43.1],[21.869,43.3],[21.8,43.369],[21.731,43.3],[21.6,43.206],[21.4,43.102],[21.23,43.3],[21.2,43.33],[21.17,43.3],[21.0,43.203],[20.858,43.3],[20.8,43.358],[20.6,43.406],[20.494,43.3],[20.591,43.1],[20.6,43.091],[20.8,43.01],[21.0,42.997],[21.166,42.9],[21.0,42.755],[20.8,42.723],[20.777,42.7],[20.6,42.569],[20.531,42.5],[20.4,42.32],[20.243,42.5],[20.2,42.543],[20.0,42.53],[19.97,42.5],[20.0,42.47],[20.197,42.3],[20.2,42.297],[20.4,42.28],[20.6,42.224],[20.676,42.3],[20.8,42.415],[20.964,42.3],[20.8,42.186],[20.714,42.1],[20.6,42.027],[20.473,41.9],[20.537,41.7]]},"properties":{"probabilityThreshold":0.0715,"lengthKm":894.4,"diagnosticOnly":true}},{"type":"Feature","geometry":{"type":"LineString","coordinates":[[18.752,43.1],[18.8,43.052],[19.0,43.031],[19.2,43.035],[19.265,43.1],[19.4,43.204],[19.496,43.3],[19.6,43.431],[19.752,43.3],[19.8,43.252],[19.972,43.1],[20.0,43.072],[20.2,42.982],[20.318,43.1],[20.22,43.3],[20.2,43.32],[20.09,43.5],[20.0,43.59],[19.8,43.611],[19.6,43.569],[19.463,43.7],[19.484,43.9],[19.447,44.1],[19.423,44.3],[19.4,44.323],[19.377,44.3],[19.2,44.156],[19.025,44.3],[19.0,44.325],[18.8,44.367],[18.6,44.358],[18.411,44.5],[18.4,44.511],[18.2,44.555],[18.0,44.556],[17.8,44.511],[17.6,44.507],[17.4,44.506],[17.2,44.509],[17.0,44.515],[16.985,44.5],[17.0,44.485],[17.2,44.491],[17.4,44.494],[17.6,44.493],[17.789,44.3],[17.8,44.289],[18.0,44.256],[18.102,44.1],[18.2,44.002],[18.394,43.9],[18.38,43.7],[18.2,43.536],[18.033,43.7],[18.0,43.733],[17.838,43.9],[17.8,43.938],[17.6,43.929],[17.571,43.9],[17.6,43.871],[17.718,43.7],[17.8,43.618],[17.883,43.5],[17.8,43.306],[17.794,43.3],[17.8,43.294],[18.0,43.226],[18.2,43.284],[18.4,43.262],[18.438,43.3],[18.503,43.5],[18.6,43.622],[18.696,43.5],[18.686,43.3],[18.752,43.1]]},"properties":{"probabilityThreshold":0.0715,"lengthKm":1078.9,"diagnosticOnly":true}},{"type":"Feature","geometry":{"type":"LineString","coordinates":[[20.122,43.7],[20.2,43.622],[20.4,43.625],[20.475,43.7],[20.6,43.807],[20.693,43.9],[20.6,43.993],[20.4,43.975],[20.2,43.952],[20.05,44.1],[20.0,44.15],[19.8,44.161],[19.739,44.1],[19.711,43.9],[19.8,43.811],[20.0,43.821],[20.122,43.7]]},"properties":{"probabilityThreshold":0.0715,"lengthKm":228.6,"diagnosticOnly":true}},{"type":"Feature","geometry":{"type":"LineString","coordinates":[[20.906,44.1],[21.0,44.006],[21.2,44.08],[21.22,44.1],[21.4,44.254],[21.446,44.3],[21.4,44.346],[21.2,44.389],[21.111,44.3],[21.0,44.194],[20.906,44.1]]},"properties":{"probabilityThreshold":0.0715,"lengthKm":124.6,"diagnosticOnly":true}},{"type":"Feature","geometry":{"type":"LineString","coordinates":[[21.717,44.9],[21.8,44.817],[21.883,44.9],[21.935,45.1],[21.903,45.3],[21.927,45.5],[21.8,45.627],[21.673,45.5],[21.6,45.317],[21.4,45.349],[21.351,45.3],[21.4,45.251],[21.6,45.283],[21.665,45.1],[21.717,44.9]]},"properties":{"probabilityThreshold":0.0715,"lengthKm":233.9,"diagnosticOnly":true}},{"type":"Feature","geometry":{"type":"LineString","coordinates":[[21.751,45.9],[21.8,45.851],[21.849,45.9],[21.928,46.1],[21.923,46.3],[21.915,46.5],[21.906,46.7],[21.852,46.9],[21.834,47.1],[21.8,47.134],[21.766,47.1],[21.748,46.9],[21.694,46.7],[21.685,46.5],[21.677,46.3],[21.6,46.133],[21.567,46.1],[21.6,46.067],[21.751,45.9]]},"properties":{"probabilityThreshold":0.0715,"lengthKm":295.3,"diagnosticOnly":true}}],"properties":{"forecastHour":72,"method":"xgboost-dwd-era5-icon2i-v1","threshold":0.07145121517771291,"temporalConfirmation":"2-of-3 adjacent hours","diagnosticOnly":true}}