{"type":"FeatureCollection","features":[{"type":"Feature","geometry":{"type":"LineString","coordinates":[[3.0,36.838],[3.118,36.7],[3.2,36.618],[3.282,36.7],[3.4,36.81],[3.6,36.775],[3.725,36.9],[3.8,36.963],[3.976,36.9],[4.0,36.876],[4.175,36.7],[4.2,36.675],[4.225,36.7],[4.4,36.8],[4.5,36.9],[4.449,37.1],[4.4,37.149],[4.31,37.3],[4.2,37.41],[4.09,37.3],[4.0,37.235],[3.95,37.3],[3.949,37.5],[3.955,37.7],[4.0,37.749],[4.2,37.828],[4.272,37.9],[4.2,37.972],[4.0,38.051],[3.864,38.1],[3.8,38.164],[3.6,38.162],[3.4,38.1],[3.2,38.139],[3.161,38.1],[3.0,37.947]]},"properties":{"probabilityThreshold":0.0715,"lengthKm":502.6,"diagnosticOnly":true}},{"type":"Feature","geometry":{"type":"LineString","coordinates":[[6.341,37.3],[6.4,37.241],[6.459,37.3],[6.6,37.429],[6.671,37.5],[6.661,37.7],[6.6,37.761],[6.539,37.7],[6.4,37.586],[6.314,37.5],[6.341,37.3]]},"properties":{"probabilityThreshold":0.0715,"lengthKm":137.1,"diagnosticOnly":true}},{"type":"Feature","geometry":{"type":"LineString","coordinates":[[6.735,37.9],[6.8,37.835],[7.0,37.87],[7.2,37.894],[7.203,37.9],[7.4,38.028],[7.472,38.1],[7.4,38.172],[7.2,38.164],[7.136,38.1],[7.0,37.93],[6.8,37.965],[6.735,37.9]]},"properties":{"probabilityThreshold":0.0715,"lengthKm":164.3,"diagnosticOnly":true}},{"type":"Feature","geometry":{"type":"LineString","coordinates":[[13.159,44.1],[13.2,44.059],[13.4,44.01],[13.49,44.1],[13.4,44.19],[13.257,44.3],[13.2,44.357],[13.143,44.3],[13.159,44.1]]},"properties":{"probabilityThreshold":0.0715,"lengthKm":101.3,"diagnosticOnly":true}},{"type":"Feature","geometry":{"type":"LineString","coordinates":[[13.363,44.7],[13.4,44.663],[13.516,44.7],[13.421,44.9],[13.519,45.1],[13.4,45.171],[13.329,45.1],[13.379,44.9],[13.363,44.7]]},"properties":{"probabilityThreshold":0.0715,"lengthKm":128.5,"diagnosticOnly":true}},{"type":"Feature","geometry":{"type":"LineString","coordinates":[[12.77,45.5],[12.8,45.47],[13.0,45.458],[13.138,45.5],[13.2,45.55],[13.254,45.7],[13.349,45.9],[13.2,45.953],[13.107,46.1],[13.2,46.183],[13.25,46.3],[13.2,46.35],[13.0,46.302],[12.981,46.3],[12.8,46.278],[12.73,46.3],[12.6,46.324],[12.418,46.3],[12.4,46.29],[12.241,46.3],[12.2,46.301],[12.0,46.307],[11.975,46.3],[11.8,46.219],[11.6,46.139],[11.4,46.121],[11.379,46.1],[11.4,46.079],[11.6,46.061],[11.8,46.047],[12.0,46.073],[12.081,46.1],[12.2,46.297],[12.292,46.1],[12.379,45.9],[12.4,45.879],[12.574,45.9],[12.6,45.911],[12.8,45.9],[12.8,45.9],[12.851,45.7],[12.8,45.613],[12.77,45.5]]},"properties":{"probabilityThreshold":0.0715,"lengthKm":497.7,"diagnosticOnly":true}},{"type":"Feature","geometry":{"type":"LineString","coordinates":[[8.564,46.1],[8.6,46.064],[8.697,46.1],[8.8,46.213],[8.83,46.3],[8.8,46.33],[8.688,46.5],[8.686,46.7],[8.8,46.894],[8.888,46.7],[8.958,46.5],[9.0,46.458],[9.2,46.474],[9.4,46.435],[9.6,46.449],[9.8,46.476],[9.824,46.5],[9.849,46.7],[9.8,46.749],[9.7,46.9],[9.8,46.993],[10.0,47.053],[10.2,47.008],[10.292,47.1],[10.4,47.258],[10.442,47.3],[10.4,47.342],[10.2,47.302],[10.198,47.3],[10.0,47.147],[9.8,47.207],[9.6,47.205],[9.4,47.195],[9.2,47.175],[9.141,47.3],[9.0,47.344],[8.956,47.3],[8.8,47.144],[8.67,47.3],[8.6,47.37],[8.53,47.3],[8.4,47.187],[8.313,47.1],[8.2,47.019],[8.005,47.1],[8.033,47.3],[8.0,47.333],[7.967,47.3],[7.995,47.1],[7.8,46.939],[7.603,47.1],[7.6,47.103],[7.597,47.1],[7.578,46.9],[7.6,46.878],[7.8,46.861],[7.923,46.7],[8.0,46.623],[8.077,46.7],[8.2,46.781],[8.4,46.826],[8.514,46.7],[8.512,46.5],[8.4,46.382],[8.318,46.3],[8.4,46.218],[8.564,46.1]]},"properties":{"probabilityThreshold":0.0715,"lengthKm":914.5,"diagnosticOnly":true}},{"type":"Feature","geometry":{"type":"LineString","coordinates":[[6.932,46.5],[7.0,46.432],[7.2,46.467],[7.4,46.449],[7.451,46.5],[7.485,46.7],[7.4,46.785],[7.2,46.78],[7.0,46.719],[6.8,46.701],[6.799,46.7],[6.8,46.699],[6.932,46.5]]},"properties":{"probabilityThreshold":0.0715,"lengthKm":152.8,"diagnosticOnly":true}},{"type":"Feature","geometry":{"type":"LineString","coordinates":[[10.502,47.1],[10.6,47.002],[10.8,47.04],[10.86,47.1],[11.0,47.227],[11.073,47.3],[11.0,47.373],[10.8,47.323],[10.777,47.3],[10.6,47.198],[10.502,47.1]]},"properties":{"probabilityThreshold":0.0715,"lengthKm":123.9,"diagnosticOnly":true}}],"properties":{"forecastHour":12,"method":"xgboost-dwd-era5-icon2i-v1","threshold":0.07145121517771291,"temporalConfirmation":"2-of-3 adjacent hours","diagnosticOnly":true}}