{"type":"FeatureCollection","features":[{"type":"Feature","geometry":{"type":"LineString","coordinates":[[12.997,45.9],[13.0,45.897],[13.003,45.9],[13.2,45.978],[13.4,45.969],[13.555,45.9],[13.6,45.855],[13.645,45.9],[13.8,45.973],[14.0,45.994],[14.2,46.086],[14.214,46.1],[14.4,46.194],[14.507,46.1],[14.6,46.007],[14.8,45.957],[15.0,45.97],[15.135,45.9],[15.2,45.835],[15.4,45.82],[15.6,45.832],[15.8,45.837],[16.0,45.885],[16.015,45.9],[16.2,46.059],[16.4,46.073],[16.427,46.1],[16.4,46.127],[16.2,46.141],[16.0,46.186],[15.8,46.189],[15.6,46.175],[15.481,46.3],[15.4,46.381],[15.328,46.5],[15.4,46.594],[15.533,46.5],[15.6,46.433],[15.8,46.484],[15.816,46.5],[16.0,46.562],[16.2,46.595],[16.305,46.7],[16.2,46.805],[16.141,46.9],[16.0,47.041],[15.879,47.1],[15.8,47.179],[15.6,47.228],[15.4,47.215],[15.2,47.244],[15.0,47.199],[14.901,47.1],[14.8,47.04],[14.697,47.1],[14.6,47.197],[14.42,47.3],[14.4,47.32],[14.38,47.3],[14.274,47.1],[14.2,47.025],[14.102,47.1],[14.038,47.3],[14.109,47.5],[14.2,47.573],[14.4,47.58],[14.52,47.7],[14.6,47.864],[14.8,47.862],[14.838,47.9],[15.0,48.0],[15.2,47.9],[15.2,47.9],[15.4,47.888],[15.6,47.883],[15.8,47.872],[16.0,47.837],[16.2,47.864],[16.253,47.9],[16.249,48.1],[16.2,48.149],[16.0,48.154],[15.8,48.171],[15.6,48.118],[15.4,48.158],[15.2,48.175],[15.0,48.2],[14.8,48.146],[14.754,48.1],[14.6,47.936],[14.4,47.959],[14.2,47.904],[14.196,47.9],[14.0,47.82],[13.88,47.7],[13.8,47.601],[13.699,47.5],[13.762,47.3],[13.8,47.262],[13.898,47.1],[13.921,46.9],[13.8,46.79],[13.723,46.9],[13.714,47.1],[13.6,47.214],[13.486,47.1],[13.4,47.031],[13.2,46.926],[13.174,46.9],[13.2,46.874],[13.4,46.769],[13.6,46.777],[13.71,46.7],[13.679,46.5],[13.6,46.432],[13.4,46.41],[13.248,46.5],[13.2,46.548],[13.152,46.5],[13.0,46.45],[12.831,46.5],[12.8,46.531],[12.769,46.5],[12.8,46.469],[12.85,46.3],[12.914,46.1],[12.997,45.9]]},"properties":{"probabilityThreshold":0.0715,"lengthKm":1677.1,"diagnosticOnly":true}},{"type":"Feature","geometry":{"type":"LineString","coordinates":[[16.793,46.1],[16.8,46.093],[16.807,46.1],[17.0,46.276],[17.2,46.237],[17.263,46.3],[17.4,46.489],[17.499,46.3],[17.552,46.1],[17.6,46.052],[17.648,46.1],[17.8,46.197],[17.903,46.3],[17.833,46.5],[17.8,46.533],[17.6,46.513],[17.4,46.511],[17.2,46.579],[17.121,46.5],[17.0,46.324],[16.8,46.305],[16.6,46.364],[16.536,46.3],[16.6,46.236],[16.793,46.1]]},"properties":{"probabilityThreshold":0.0715,"lengthKm":339.8,"diagnosticOnly":true}},{"type":"Feature","geometry":{"type":"LineString","coordinates":[[12.59,46.9],[12.6,46.89],[12.8,46.829],[12.871,46.9],[12.91,47.1],[13.0,47.242],[13.2,47.21],[13.342,47.3],[13.306,47.5],[13.4,47.541],[13.533,47.7],[13.6,47.863],[13.8,47.882],[13.818,47.9],[13.8,47.918],[13.6,47.937],[13.563,47.9],[13.4,47.833],[13.267,47.7],[13.2,47.572],[13.0,47.576],[12.813,47.5],[12.8,47.492],[12.793,47.5],[12.614,47.7],[12.6,47.714],[12.4,47.804],[12.292,47.9],[12.4,48.091],[12.409,48.1],[12.4,48.109],[12.2,48.179],[12.0,48.155],[11.945,48.1],[11.916,47.9],[11.8,47.729],[11.771,47.7],[11.754,47.5],[11.8,47.454],[12.0,47.416],[12.148,47.3],[12.2,47.248],[12.252,47.3],[12.285,47.5],[12.4,47.596],[12.495,47.5],[12.6,47.395],[12.703,47.3],[12.6,47.171],[12.529,47.1],[12.59,46.9]]},"properties":{"probabilityThreshold":0.0715,"lengthKm":656.9,"diagnosticOnly":true}},{"type":"Feature","geometry":{"type":"LineString","coordinates":[[17.534,47.3],[17.6,47.234],[17.666,47.3],[17.691,47.5],[17.8,47.637],[17.863,47.7],[17.8,47.763],[17.6,47.784],[17.4,47.808],[17.2,47.806],[17.094,47.7],[17.2,47.594],[17.4,47.592],[17.509,47.5],[17.534,47.3]]},"properties":{"probabilityThreshold":0.0715,"lengthKm":198.0,"diagnosticOnly":true}},{"type":"Feature","geometry":{"type":"LineString","coordinates":[[19.307,47.5],[19.4,47.407],[19.6,47.424],[19.676,47.5],[19.642,47.7],[19.6,47.742],[19.558,47.7],[19.4,47.593],[19.307,47.5]]},"properties":{"probabilityThreshold":0.0715,"lengthKm":100.5,"diagnosticOnly":true}},{"type":"Feature","geometry":{"type":"LineString","coordinates":[[16.889,48.1],[17.0,47.989],[17.2,48.0],[17.4,47.985],[17.515,48.1],[17.4,48.215],[17.2,48.2],[17.0,48.211],[16.889,48.1]]},"properties":{"probabilityThreshold":0.0715,"lengthKm":120.1,"diagnosticOnly":true}},{"type":"Feature","geometry":{"type":"LineString","coordinates":[[19.397,48.5],[19.4,48.497],[19.403,48.5],[19.4,48.503],[19.359,48.7],[19.2,48.859],[19.0,48.85],[18.8,48.848],[18.6,48.843],[18.4,48.789],[18.2,48.779],[18.121,48.7],[18.2,48.621],[18.4,48.611],[18.6,48.557],[18.8,48.552],[19.0,48.55],[19.2,48.541],[19.397,48.5]]},"properties":{"probabilityThreshold":0.0715,"lengthKm":229.8,"diagnosticOnly":true}},{"type":"Feature","geometry":{"type":"LineString","coordinates":[[19.71,48.7],[19.8,48.61],[20.0,48.634],[20.2,48.607],[20.4,48.582],[20.6,48.682],[20.618,48.7],[20.6,48.718],[20.4,48.818],[20.2,48.793],[20.0,48.766],[19.8,48.79],[19.71,48.7]]},"properties":{"probabilityThreshold":0.0715,"lengthKm":155.4,"diagnosticOnly":true}}],"properties":{"forecastHour":60,"method":"xgboost-dwd-era5-icon2i-v1","threshold":0.07145121517771291,"temporalConfirmation":"2-of-3 adjacent hours","diagnosticOnly":true}}