{"type":"FeatureCollection","features":[{"type":"Feature","geometry":{"type":"LineString","coordinates":[[3.0,36.565],[3.047,36.5],[3.2,36.347],[3.353,36.5],[3.4,36.571],[3.6,36.559],[3.741,36.7],[3.666,36.9],[3.8,36.987],[3.866,36.9],[3.852,36.7],[3.868,36.5],[4.0,36.368],[4.132,36.5],[4.2,36.563],[4.337,36.7],[4.4,36.808],[4.6,36.78],[4.792,36.7],[4.8,36.692],[4.808,36.7],[4.923,36.9],[5.0,36.958],[5.084,36.9],[5.121,36.7],[5.2,36.621],[5.279,36.7],[5.316,36.9],[5.4,36.982],[5.518,37.1],[5.6,37.196],[5.704,37.3],[5.8,37.446],[6.0,37.45],[6.05,37.5],[6.2,37.697],[6.254,37.5],[6.336,37.3],[6.4,37.236],[6.464,37.3],[6.6,37.353],[6.795,37.3],[6.8,37.295],[6.805,37.3],[6.8,37.305],[6.747,37.5],[6.8,37.608],[7.0,37.665],[7.2,37.659],[7.241,37.7],[7.2,37.772],[7.0,37.763],[6.8,37.835],[6.6,37.811],[6.466,37.7],[6.4,37.687],[6.217,37.7],[6.2,37.703],[6.0,37.799],[5.905,37.9],[5.8,38.005],[5.6,38.007],[5.481,37.9],[5.4,37.872],[5.28,37.7],[5.2,37.613],[5.0,37.661],[4.91,37.5],[4.8,37.401],[4.6,37.339],[4.4,37.376],[4.2,37.308],[4.169,37.3],[4.0,37.285],[3.98,37.3],[3.82,37.5],[3.8,37.51],[3.6,37.536],[3.4,37.566],[3.2,37.635],[3.036,37.7],[3.0,37.741]]},"properties":{"probabilityThreshold":0.0715,"lengthKm":1184.9,"diagnosticOnly":true}},{"type":"Feature","geometry":{"type":"LineString","coordinates":[[9.213,39.5],[9.4,39.439],[9.461,39.5],[9.6,39.693],[9.607,39.7],[9.8,39.863],[9.964,39.7],[10.0,39.64],[10.148,39.7],[10.2,39.738],[10.25,39.9],[10.4,40.056],[10.444,40.1],[10.4,40.144],[10.2,40.186],[10.151,40.1],[10.0,39.917],[9.8,40.012],[9.6,39.984],[9.4,39.943],[9.357,39.9],[9.357,39.7],[9.213,39.5]]},"properties":{"probabilityThreshold":0.0715,"lengthKm":339.2,"diagnosticOnly":true}},{"type":"Feature","geometry":{"type":"LineString","coordinates":[[6.511,44.3],[6.6,44.211],[6.689,44.3],[6.644,44.5],[6.6,44.544],[6.563,44.7],[6.4,44.863],[6.237,44.7],[6.4,44.537],[6.556,44.5],[6.511,44.3]]},"properties":{"probabilityThreshold":0.0715,"lengthKm":172.0,"diagnosticOnly":true}},{"type":"Feature","geometry":{"type":"LineString","coordinates":[[13.918,44.7],[14.0,44.63],[14.126,44.7],[14.022,44.9],[14.0,44.922],[13.8,44.965],[13.735,44.9],[13.8,44.824],[13.918,44.7]]},"properties":{"probabilityThreshold":0.0715,"lengthKm":101.1,"diagnosticOnly":true}},{"type":"Feature","geometry":{"type":"LineString","coordinates":[[6.831,44.9],[7.0,44.884],[7.2,44.779],[7.321,44.9],[7.261,45.1],[7.4,45.265],[7.435,45.3],[7.4,45.335],[7.2,45.354],[7.0,45.386],[6.8,45.368],[6.732,45.3],[6.8,45.232],[6.956,45.1],[6.831,44.9]]},"properties":{"probabilityThreshold":0.0715,"lengthKm":212.2,"diagnosticOnly":true}},{"type":"Feature","geometry":{"type":"LineString","coordinates":[[12.788,45.5],[12.8,45.488],[13.0,45.496],[13.2,45.416],[13.333,45.5],[13.2,45.623],[13.0,45.525],[12.89,45.7],[13.0,45.745],[13.2,45.78],[13.281,45.9],[13.2,45.981],[13.086,46.1],[13.2,46.242],[13.258,46.3],[13.2,46.358],[13.0,46.403],[12.897,46.3],[12.914,46.1],[12.8,45.992],[12.6,46.075],[12.557,46.1],[12.6,46.119],[12.693,46.3],[12.6,46.393],[12.4,46.378],[12.2,46.393],[12.0,46.377],[11.8,46.344],[11.756,46.3],[11.6,46.162],[11.4,46.117],[11.2,46.112],[11.188,46.1],[11.2,46.088],[11.4,46.083],[11.6,46.038],[11.8,46.02],[12.0,46.016],[12.2,46.071],[12.4,45.953],[12.432,45.9],[12.6,45.82],[12.78,45.7],[12.788,45.5]]},"properties":{"probabilityThreshold":0.0715,"lengthKm":620.0,"diagnosticOnly":true}},{"type":"Feature","geometry":{"type":"LineString","coordinates":[[6.769,45.9],[6.8,45.869],[6.831,45.9],[6.879,46.1],[7.0,46.288],[7.19,46.1],[7.2,46.09],[7.4,46.021],[7.6,46.056],[7.8,46.07],[7.993,45.9],[8.0,45.893],[8.027,45.9],[8.014,46.1],[8.2,46.189],[8.324,46.1],[8.4,46.024],[8.594,45.9],[8.6,45.894],[8.606,45.9],[8.8,46.062],[9.0,46.068],[9.2,46.072],[9.228,46.1],[9.2,46.128],[9.0,46.161],[8.83,46.3],[8.8,46.314],[8.625,46.5],[8.679,46.7],[8.8,46.809],[8.942,46.7],[8.918,46.5],[9.0,46.377],[9.2,46.481],[9.219,46.5],[9.219,46.7],[9.4,46.812],[9.6,46.893],[9.607,46.9],[9.8,47.041],[9.859,47.1],[9.8,47.159],[9.6,47.127],[9.4,47.146],[9.217,47.3],[9.2,47.317],[9.183,47.3],[9.0,47.102],[8.998,47.1],[8.8,46.991],[8.621,47.1],[8.6,47.138],[8.556,47.1],[8.4,46.977],[8.2,47.068],[8.144,47.1],[8.195,47.3],[8.2,47.311],[8.321,47.5],[8.2,47.541],[8.0,47.528],[7.972,47.5],[7.8,47.373],[7.6,47.356],[7.544,47.3],[7.4,47.2],[7.213,47.3],[7.2,47.313],[7.187,47.3],[7.162,47.1],[7.2,47.062],[7.341,46.9],[7.2,46.791],[7.018,46.9],[7.0,46.918],[6.824,47.1],[6.803,47.3],[6.8,47.303],[6.797,47.3],[6.776,47.1],[6.6,46.948],[6.449,47.1],[6.4,47.149],[6.351,47.1],[6.2,46.972],[6.0,46.971],[5.929,46.9],[5.939,46.7],[5.992,46.5],[6.0,46.492],[6.008,46.5],[6.061,46.7],[6.2,46.828],[6.4,46.83],[6.6,46.852],[6.716,46.7],[6.738,46.5],[6.781,46.3],[6.721,46.1],[6.769,45.9]]},"properties":{"probabilityThreshold":0.0715,"lengthKm":1381.5,"diagnosticOnly":true}},{"type":"Feature","geometry":{"type":"LineString","coordinates":[[7.6,46.144],[7.43,46.3],[7.6,46.389],[7.711,46.5],[7.8,46.623],[8.0,46.59],[8.2,46.595],[8.305,46.7],[8.4,46.859],[8.521,46.7],[8.575,46.5],[8.4,46.389],[8.2,46.411],[8.0,46.356],[7.944,46.3],[7.8,46.13],[7.6,46.144]]},"properties":{"probabilityThreshold":0.0715,"lengthKm":269.9,"diagnosticOnly":true}},{"type":"Feature","geometry":{"type":"LineString","coordinates":[[5.578,48.7],[5.6,48.678],[5.8,48.61],[6.0,48.619],[6.2,48.605],[6.295,48.7],[6.2,48.795],[6.0,48.781],[5.8,48.79],[5.6,48.722],[5.578,48.7]]},"properties":{"probabilityThreshold":0.0715,"lengthKm":123.0,"diagnosticOnly":true}}],"properties":{"forecastHour":9,"method":"xgboost-dwd-era5-icon2i-v1","threshold":0.07145121517771291,"temporalConfirmation":"2-of-3 adjacent hours","diagnosticOnly":true}}