{"type":"FeatureCollection","features":[{"type":"Feature","geometry":{"type":"LineString","coordinates":[[3.827,37.3],[4.0,37.127],[4.173,37.3],[4.2,37.411],[4.4,37.338],[4.6,37.354],[4.746,37.5],[4.775,37.7],[4.6,37.875],[4.4,37.864],[4.2,37.869],[4.031,37.7],[4.0,37.669],[3.958,37.7],[3.8,37.858],[3.642,37.7],[3.6,37.637],[3.463,37.5],[3.6,37.363],[3.737,37.5],[3.8,37.542],[3.831,37.5],[3.827,37.3]]},"properties":{"probabilityThreshold":0.0715,"lengthKm":380.6,"diagnosticOnly":true}},{"type":"Feature","geometry":{"type":"LineString","coordinates":[[3.0,38.45],[3.2,38.417],[3.279,38.3],[3.271,38.1],[3.4,37.971],[3.529,38.1],[3.6,38.17],[3.8,38.193],[3.907,38.3],[4.0,38.432],[4.2,38.397],[4.4,38.39],[4.512,38.3],[4.597,38.1],[4.6,38.097],[4.603,38.1],[4.688,38.3],[4.8,38.373],[4.927,38.5],[5.0,38.574],[5.2,38.565],[5.335,38.7],[5.4,38.811],[5.6,38.76],[5.74,38.9],[5.8,38.974],[5.922,38.9],[6.0,38.822],[6.078,38.9],[6.2,39.057],[6.243,39.1],[6.4,39.181],[6.519,39.3],[6.4,39.419],[6.2,39.357],[6.045,39.3],[6.0,39.275],[5.8,39.226],[5.666,39.3],[5.6,39.366],[5.534,39.3],[5.4,39.183],[5.2,39.187],[5.0,39.174],[4.8,39.165],[4.735,39.1],[4.8,39.035],[4.891,38.9],[4.8,38.831],[4.614,38.9],[4.6,38.914],[4.4,38.95],[4.2,38.933],[4.162,38.9],[4.2,38.881],[4.341,38.7],[4.2,38.603],[4.0,38.568],[3.8,38.525],[3.775,38.5],[3.6,38.43],[3.4,38.421],[3.283,38.5],[3.2,38.583],[3.0,38.55]]},"properties":{"probabilityThreshold":0.0715,"lengthKm":921.4,"diagnosticOnly":true}},{"type":"Feature","geometry":{"type":"LineString","coordinates":[[3.0,41.787],[3.116,41.7],[3.2,41.616],[3.4,41.603],[3.539,41.5],[3.6,41.439],[3.8,41.408],[4.0,41.348],[4.2,41.367],[4.4,41.418],[4.482,41.5],[4.6,41.627],[4.8,41.54],[5.0,41.671],[5.029,41.7],[5.2,41.821],[5.4,41.844],[5.456,41.9],[5.4,41.956],[5.207,42.1],[5.2,42.107],[5.193,42.1],[5.0,41.962],[4.8,41.921],[4.701,41.9],[4.6,41.866],[4.474,41.9],[4.4,41.928],[4.221,42.1],[4.2,42.109],[4.0,42.18],[3.8,42.184],[3.689,42.3],[3.6,42.389],[3.4,42.369],[3.2,42.33],[3.17,42.3],[3.0,42.217]]},"properties":{"probabilityThreshold":0.0715,"lengthKm":504.4,"diagnosticOnly":true}},{"type":"Feature","geometry":{"type":"LineString","coordinates":[[7.365,44.1],[7.4,44.065],[7.6,43.997],[7.703,44.1],[7.8,44.139],[8.0,44.149],[8.2,44.208],[8.4,44.195],[8.6,44.218],[8.682,44.3],[8.8,44.428],[8.926,44.3],[9.0,44.226],[9.2,44.226],[9.337,44.1],[9.4,44.037],[9.463,44.1],[9.6,44.274],[9.626,44.3],[9.662,44.5],[9.6,44.562],[9.538,44.5],[9.4,44.345],[9.226,44.5],[9.4,44.606],[9.494,44.7],[9.6,44.75],[9.8,44.774],[10.0,44.882],[10.018,44.9],[10.2,44.932],[10.4,44.933],[10.6,44.939],[10.663,44.9],[10.6,44.755],[10.545,44.7],[10.6,44.645],[10.8,44.68],[10.82,44.7],[11.0,44.841],[11.059,44.9],[11.2,44.94],[11.4,44.935],[11.6,44.942],[11.8,44.972],[12.0,45.023],[12.166,45.1],[12.2,45.112],[12.212,45.1],[12.2,45.024],[12.165,44.9],[12.2,44.865],[12.235,44.9],[12.4,44.964],[12.569,44.9],[12.6,44.869],[12.8,44.859],[12.972,44.7],[13.0,44.672],[13.2,44.612],[13.4,44.627],[13.6,44.681],[13.8,44.666],[14.0,44.677],[14.023,44.7],[14.2,44.878],[14.36,44.7],[14.4,44.66],[14.536,44.5],[14.6,44.436],[14.664,44.5],[14.8,44.617],[14.969,44.5],[15.0,44.469],[15.2,44.462],[15.238,44.5],[15.251,44.7],[15.294,44.9],[15.328,45.1],[15.4,45.201],[15.6,45.219],[15.681,45.3],[15.8,45.379],[15.911,45.3],[16.0,45.211],[16.089,45.3],[16.2,45.398],[16.4,45.427],[16.6,45.473],[16.729,45.3],[16.8,45.229],[17.0,45.21],[17.2,45.235],[17.4,45.215],[17.6,45.218],[17.682,45.3],[17.6,45.382],[17.4,45.385],[17.261,45.5],[17.4,45.609],[17.491,45.7],[17.6,45.848],[17.755,45.7],[17.8,45.655],[17.845,45.7],[18.0,45.876],[18.154,45.7],[18.2,45.654],[18.246,45.7],[18.232,45.9],[18.2,45.932],[18.0,45.924],[17.837,46.1],[17.812,46.3],[18.0,46.384],[18.116,46.5],[18.062,46.7],[18.0,46.762],[17.8,46.73],[17.77,46.7],[17.731,46.5],[17.6,46.42],[17.48,46.3],[17.4,46.198],[17.302,46.1],[17.373,45.9],[17.2,45.79],[17.0,45.701],[16.854,45.9],[16.8,45.954],[16.663,46.1],[16.8,46.218],[17.0,46.148],[17.041,46.3],[17.007,46.5],[17.0,46.507],[16.856,46.7],[16.8,46.756],[16.6,46.753],[16.44,46.9],[16.551,47.1],[16.511,47.3],[16.44,47.5],[16.6,47.575],[16.734,47.5],[16.8,47.434],[16.936,47.3],[16.954,47.1],[17.0,47.054],[17.046,47.1],[17.064,47.3],[17.06,47.5],[17.078,47.7],[17.0,47.778],[16.8,47.814],[16.708,47.9],[16.8,48.051],[16.849,48.1],[16.8,48.149],[16.6,48.109],[16.457,48.3],[16.6,48.414],[16.8,48.442],[16.858,48.5],[17.0,48.636],[17.2,48.673],[17.4,48.588],[17.6,48.641],[17.8,48.606],[18.0,48.614],[18.087,48.5],[18.2,48.387],[18.313,48.5],[18.4,48.64],[18.6,48.634],[18.8,48.675],[18.825,48.7],[18.8,48.725],[18.6,48.766],[18.4,48.76],[18.2,48.813],[18.0,48.786],[17.8,48.794],[17.6,48.759],[17.4,48.812],[17.2,48.721],[17.0,48.764],[16.8,48.736],[16.6,48.804],[16.4,48.811],[16.2,48.779],[16.0,48.786],[15.8,48.773],[15.6,48.793],[15.4,48.813],[15.2,48.836],[15.0,48.823],[14.8,48.826],[14.6,48.757],[14.543,48.7],[14.6,48.643],[14.774,48.5],[14.8,48.474],[14.826,48.5],[15.0,48.577],[15.135,48.5],[15.0,48.358],[14.942,48.3],[14.8,48.241],[14.6,48.21],[14.4,48.144],[14.2,48.126],[14.0,48.178],[13.822,48.1],[14.0,47.954],[14.076,47.9],[14.0,47.882],[13.8,47.892],[13.715,47.9],[13.6,47.917],[13.535,47.9],[13.4,47.869],[13.2,47.878],[13.0,47.874],[12.8,47.891],[12.781,47.9],[12.6,47.99],[12.4,47.979],[12.2,47.952],[12.0,48.008],[11.8,48.004],[11.6,47.97],[11.415,48.1],[11.4,48.115],[11.385,48.1],[11.2,48.01],[11.0,48.002],[10.8,47.967],[10.6,47.975],[10.4,47.984],[10.2,47.952],[10.148,47.9],[10.0,47.775],[9.8,47.775],[9.725,47.7],[9.6,47.548],[9.4,47.585],[9.2,47.58],[9.0,47.541],[8.959,47.5],[8.8,47.336],[8.764,47.3],[8.6,47.182],[8.4,47.181],[8.2,47.15],[8.0,47.13],[7.97,47.1],[7.947,46.9],[7.955,46.7],[8.0,46.655],[8.099,46.5],[8.0,46.362],[7.8,46.431],[7.646,46.5],[7.6,46.546],[7.538,46.7],[7.4,46.838],[7.262,46.7],[7.2,46.584],[7.0,46.645],[6.855,46.5],[6.8,46.464],[6.6,46.485],[6.4,46.411],[6.2,46.306],[6.194,46.3],[6.2,46.294],[6.29,46.1],[6.4,45.99],[6.51,46.1],[6.6,46.146],[6.681,46.1],[6.8,45.981],[6.919,46.1],[6.964,46.3],[7.0,46.355],[7.128,46.3],[7.2,46.228],[7.279,46.1],[7.2,46.036],[7.064,45.9],[7.2,45.764],[7.297,45.7],[7.2,45.64],[7.022,45.5],[7.038,45.3],[7.2,45.138],[7.239,45.1],[7.2,45.061],[7.0,44.904],[6.8,45.059],[6.6,45.067],[6.463,45.1],[6.51,45.3],[6.6,45.391],[6.65,45.3],[6.8,45.15],[6.95,45.3],[6.8,45.45],[6.709,45.5],[6.6,45.609],[6.4,45.632],[6.268,45.5],[6.29,45.3],[6.337,45.1],[6.4,45.033],[6.431,44.9],[6.48,44.7],[6.6,44.58],[6.72,44.7],[6.8,44.741],[7.0,44.896],[7.031,44.7],[7.058,44.5],[7.2,44.358],[7.257,44.3],[7.365,44.1]]},"properties":{"probabilityThreshold":0.0715,"lengthKm":4692.1,"diagnosticOnly":true}},{"type":"Feature","geometry":{"type":"LineString","coordinates":[[8.4,46.63],[8.263,46.7],[8.2,46.825],[8.114,46.9],[8.2,46.99],[8.329,46.9],[8.4,46.874],[8.426,46.9],[8.6,47.018],[8.726,46.9],[8.6,46.78],[8.52,46.7],[8.4,46.63]]},"properties":{"probabilityThreshold":0.0715,"lengthKm":147.8,"diagnosticOnly":true}},{"type":"Feature","geometry":{"type":"LineString","coordinates":[[9.2,46.612],[9.044,46.7],[9.0,46.744],[8.874,46.9],[9.0,46.97],[9.126,46.9],[9.2,46.826],[9.335,46.7],[9.2,46.612]]},"properties":{"probabilityThreshold":0.0715,"lengthKm":107.2,"diagnosticOnly":true}},{"type":"Feature","geometry":{"type":"LineString","coordinates":[[9.8,46.746],[9.683,46.9],[9.8,47.001],[9.899,47.1],[10.0,47.189],[10.2,47.222],[10.4,47.154],[10.498,47.1],[10.4,47.022],[10.318,46.9],[10.2,46.847],[10.0,46.711],[9.8,46.746]]},"properties":{"probabilityThreshold":0.0715,"lengthKm":175.3,"diagnosticOnly":true}},{"type":"Feature","geometry":{"type":"LineString","coordinates":[[10.6,46.852],[10.518,46.9],[10.6,47.002],[10.664,47.1],[10.8,47.203],[10.897,47.3],[11.0,47.396],[11.19,47.3],[11.0,47.141],[10.959,47.1],[10.8,46.91],[10.78,46.9],[10.6,46.852]]},"properties":{"probabilityThreshold":0.0715,"lengthKm":161.3,"diagnosticOnly":true}},{"type":"Feature","geometry":{"type":"LineString","coordinates":[[11.2,46.867],[11.139,46.9],[11.2,47.05],[11.245,47.1],[11.4,47.185],[11.6,47.24],[11.619,47.3],[11.8,47.416],[12.0,47.388],[12.2,47.406],[12.4,47.384],[12.6,47.386],[12.8,47.388],[12.935,47.3],[13.0,47.235],[13.2,47.209],[13.4,47.21],[13.49,47.3],[13.6,47.373],[13.758,47.3],[13.8,47.21],[13.842,47.3],[14.0,47.366],[14.158,47.3],[14.2,47.187],[14.4,47.217],[14.495,47.1],[14.4,47.007],[14.2,47.017],[14.073,46.9],[14.0,46.886],[13.839,46.9],[13.8,46.921],[13.6,46.96],[13.4,47.001],[13.207,46.9],[13.2,46.894],[13.0,46.806],[12.938,46.9],[12.871,47.1],[12.8,47.171],[12.6,47.232],[12.4,47.117],[12.2,47.104],[12.168,47.1],[12.0,47.085],[11.8,47.062],[11.633,46.9],[11.6,46.878],[11.503,46.9],[11.4,46.986],[11.307,46.9],[11.2,46.867]]},"properties":{"probabilityThreshold":0.0715,"lengthKm":672.9,"diagnosticOnly":true}},{"type":"Feature","geometry":{"type":"LineString","coordinates":[[14.8,47.098],[14.798,47.1],[14.707,47.3],[14.621,47.5],[14.8,47.676],[14.824,47.7],[15.0,47.785],[15.186,47.7],[15.2,47.686],[15.244,47.7],[15.4,47.749],[15.594,47.9],[15.6,47.902],[15.8,47.947],[15.859,47.9],[16.0,47.841],[16.088,47.7],[16.084,47.5],[16.0,47.316],[15.984,47.3],[15.8,47.17],[15.6,47.203],[15.4,47.18],[15.2,47.222],[15.078,47.1],[15.0,47.032],[14.8,47.098]]},"properties":{"probabilityThreshold":0.0715,"lengthKm":354.2,"diagnosticOnly":true}}],"properties":{"forecastHour":42,"method":"xgboost-dwd-era5-icon2i-v1","threshold":0.07145121517771291,"temporalConfirmation":"2-of-3 adjacent hours","diagnosticOnly":true}}