{"type":"FeatureCollection","features":[{"type":"Feature","geometry":{"type":"LineString","coordinates":[[21.104,41.9],[21.2,41.804],[21.4,41.844],[21.6,41.814],[21.686,41.9],[21.6,41.986],[21.4,41.956],[21.288,42.1],[21.2,42.188],[21.0,42.161],[20.939,42.1],[21.0,42.039],[21.104,41.9]]},"properties":{"probabilityThreshold":0.0715,"lengthKm":169.9,"diagnosticOnly":true}},{"type":"Feature","geometry":{"type":"LineString","coordinates":[[20.536,42.3],[20.6,42.236],[20.664,42.3],[20.8,42.46],[21.0,42.463],[21.2,42.435],[21.265,42.5],[21.2,42.565],[21.0,42.537],[20.831,42.7],[20.8,42.731],[20.769,42.7],[20.6,42.575],[20.4,42.552],[20.318,42.7],[20.4,42.859],[20.441,42.9],[20.4,42.941],[20.2,42.979],[20.136,43.1],[20.0,43.236],[19.868,43.3],[19.8,43.368],[19.694,43.3],[19.663,43.1],[19.696,42.9],[19.735,42.7],[19.8,42.581],[20.0,42.573],[20.194,42.5],[20.2,42.494],[20.4,42.448],[20.536,42.3]]},"properties":{"probabilityThreshold":0.0715,"lengthKm":457.8,"diagnosticOnly":true}},{"type":"Feature","geometry":{"type":"LineString","coordinates":[[21.324,42.3],[21.4,42.224],[21.6,42.208],[21.692,42.3],[21.716,42.5],[21.6,42.616],[21.484,42.5],[21.4,42.376],[21.324,42.3]]},"properties":{"probabilityThreshold":0.0715,"lengthKm":119.6,"diagnosticOnly":true}}],"properties":{"forecastHour":3,"method":"xgboost-dwd-era5-icon2i-v1","threshold":0.07145121517771291,"temporalConfirmation":"2-of-3 adjacent hours","diagnosticOnly":true}}