{"type":"FeatureCollection","features":[{"type":"Feature","geometry":{"type":"LineString","coordinates":[[4.349,42.7],[4.4,42.671],[4.6,42.67],[4.63,42.7],[4.8,42.802],[5.0,42.84],[5.06,42.9],[5.2,43.057],[5.37,43.1],[5.4,43.11],[5.6,43.278],[5.622,43.3],[5.721,43.5],[5.656,43.7],[5.8,43.775],[5.96,43.7],[6.0,43.66],[6.2,43.604],[6.296,43.7],[6.4,43.869],[6.6,43.821],[6.8,43.872],[7.0,43.814],[7.2,43.872],[7.4,43.873],[7.427,43.9],[7.4,43.927],[7.261,44.1],[7.283,44.3],[7.4,44.345],[7.6,44.394],[7.8,44.426],[7.874,44.5],[8.0,44.681],[8.138,44.5],[8.2,44.438],[8.262,44.5],[8.4,44.59],[8.51,44.7],[8.4,44.81],[8.292,44.9],[8.4,45.054],[8.566,44.9],[8.6,44.866],[8.8,44.792],[8.908,44.9],[9.0,45.068],[9.032,45.1],[9.2,45.241],[9.259,45.3],[9.4,45.424],[9.6,45.397],[9.8,45.479],[9.821,45.5],[10.0,45.607],[10.093,45.7],[10.2,45.786],[10.4,45.77],[10.6,45.802],[10.8,45.789],[11.0,45.876],[11.2,45.863],[11.237,45.9],[11.4,46.082],[11.6,45.963],[11.683,45.9],[11.8,45.783],[11.917,45.9],[11.81,46.1],[11.8,46.11],[11.65,46.3],[11.8,46.417],[12.0,46.459],[12.041,46.5],[12.2,46.65],[12.358,46.5],[12.4,46.458],[12.6,46.394],[12.8,46.409],[13.0,46.48],[13.02,46.5],[13.0,46.52],[12.827,46.7],[13.0,46.77],[13.2,46.8],[13.3,46.9],[13.4,47.019],[13.565,46.9],[13.522,46.7],[13.6,46.622],[13.791,46.5],[13.8,46.491],[13.809,46.5],[14.0,46.686],[14.2,46.635],[14.265,46.7],[14.2,46.765],[14.004,46.9],[14.0,46.904],[13.996,46.9],[13.8,46.773],[13.635,46.9],[13.8,47.007],[13.893,47.1],[14.0,47.149],[14.172,47.1],[14.2,47.072],[14.228,47.1],[14.244,47.3],[14.296,47.5],[14.322,47.7],[14.4,47.77],[14.522,47.7],[14.6,47.622],[14.675,47.5],[14.6,47.355],[14.545,47.3],[14.6,47.245],[14.655,47.3],[14.8,47.375],[14.925,47.5],[15.0,47.588],[15.112,47.7],[15.0,47.812],[14.8,47.779],[14.63,47.9],[14.8,48.024],[14.876,48.1],[14.859,48.3],[15.0,48.378],[15.2,48.373],[15.4,48.399],[15.501,48.5],[15.6,48.662],[15.638,48.7],[15.6,48.738],[15.4,48.811],[15.2,48.801],[15.0,48.793],[14.8,48.779],[14.6,48.82],[14.4,48.807],[14.2,48.786],[14.0,48.805],[13.8,48.787],[13.6,48.845],[13.4,48.847],[13.2,48.846],[13.0,48.845],[12.8,48.848],[12.6,48.847],[12.4,48.844],[12.2,48.847],[12.0,48.84],[11.8,48.841],[11.6,48.84],[11.4,48.858],[11.2,48.848],[11.0,48.85],[10.8,48.853],[10.6,48.854],[10.4,48.85],[10.2,48.847],[10.0,48.848],[9.8,48.844],[9.6,48.826],[9.4,48.815],[9.2,48.806],[9.0,48.786],[8.914,48.7],[8.8,48.517],[8.783,48.5],[8.6,48.32],[8.58,48.3],[8.4,48.156],[8.344,48.1],[8.2,48.001],[8.017,48.1],[8.0,48.117],[7.8,48.103],[7.797,48.1],[7.6,47.961],[7.4,48.018],[7.2,47.907],[7.193,47.9],[7.0,47.828],[6.8,47.723],[6.777,47.7],[6.6,47.639],[6.4,47.543],[6.357,47.5],[6.2,47.428],[6.0,47.422],[5.8,47.404],[5.696,47.3],[5.6,47.213],[5.4,47.154],[5.346,47.1],[5.4,47.046],[5.533,46.9],[5.4,46.828],[5.272,46.7],[5.2,46.591],[5.109,46.5],[5.2,46.409],[5.282,46.3],[5.386,46.1],[5.266,45.9],[5.2,45.811],[5.011,45.9],[5.021,46.1],[5.042,46.3],[5.0,46.342],[4.958,46.3],[4.959,46.1],[4.989,45.9],[4.944,45.7],[4.8,45.554],[4.746,45.5],[4.71,45.3],[4.6,45.149],[4.446,45.3],[4.4,45.346],[4.354,45.3],[4.293,45.1],[4.325,44.9],[4.297,44.7],[4.2,44.643],[4.0,44.616],[3.884,44.5],[3.8,44.431],[3.669,44.3],[3.664,44.1],[3.674,43.9],[3.729,43.7],[3.639,43.5],[3.618,43.3],[3.6,43.231],[3.4,43.113],[3.387,43.1],[3.4,43.087],[3.6,43.071],[3.713,43.1],[3.8,43.125],[3.833,43.1],[4.0,42.912],[4.011,42.9],[4.2,42.784],[4.349,42.7]]},"properties":{"probabilityThreshold":0.0715,"lengthKm":3561.8,"diagnosticOnly":true}},{"type":"Feature","geometry":{"type":"LineString","coordinates":[[3.0,44.615],[3.1,44.5],[3.2,44.4],[3.4,44.441],[3.459,44.5],[3.4,44.559],[3.219,44.7],[3.244,44.9],[3.2,44.944],[3.0,44.963]]},"properties":{"probabilityThreshold":0.0715,"lengthKm":126.4,"diagnosticOnly":true}},{"type":"Feature","geometry":{"type":"LineString","coordinates":[[8.8,46.966],[8.628,47.1],[8.8,47.257],[9.0,47.148],[9.053,47.3],[9.2,47.363],[9.4,47.36],[9.6,47.314],[9.8,47.366],[10.0,47.4],[10.117,47.3],[10.0,47.149],[9.8,47.231],[9.6,47.283],[9.4,47.178],[9.2,47.182],[9.028,47.1],[9.0,47.07],[8.8,46.966]]},"properties":{"probabilityThreshold":0.0715,"lengthKm":293.9,"diagnosticOnly":true}},{"type":"Feature","geometry":{"type":"LineString","coordinates":[[12.4,47.008],[12.334,47.1],[12.328,47.3],[12.2,47.428],[12.117,47.5],[12.2,47.632],[12.268,47.7],[12.4,47.771],[12.6,47.766],[12.8,47.8],[13.0,47.757],[13.143,47.9],[13.2,47.972],[13.4,47.954],[13.6,48.012],[13.644,47.9],[13.6,47.829],[13.471,47.7],[13.6,47.571],[13.796,47.5],[13.6,47.311],[13.4,47.42],[13.2,47.351],[13.142,47.5],[13.0,47.642],[12.858,47.5],[13.0,47.358],[13.149,47.3],[13.0,47.101],[12.8,47.131],[12.6,47.135],[12.565,47.1],[12.4,47.008]]},"properties":{"probabilityThreshold":0.0715,"lengthKm":501.3,"diagnosticOnly":true}},{"type":"Feature","geometry":{"type":"LineString","coordinates":[[19.363,47.3],[19.4,47.263],[19.437,47.3],[19.462,47.5],[19.54,47.7],[19.6,47.774],[19.658,47.9],[19.684,48.1],[19.655,48.3],[19.616,48.5],[19.736,48.7],[19.6,48.766],[19.447,48.7],[19.4,48.654],[19.2,48.697],[19.188,48.7],[19.0,48.744],[18.8,48.724],[18.776,48.7],[18.6,48.528],[18.572,48.5],[18.6,48.472],[18.754,48.3],[18.8,48.254],[18.914,48.1],[19.0,48.014],[19.12,47.9],[19.196,47.7],[19.2,47.696],[19.338,47.5],[19.363,47.3]]},"properties":{"probabilityThreshold":0.0715,"lengthKm":425.4,"diagnosticOnly":true}},{"type":"Feature","geometry":{"type":"LineString","coordinates":[[17.417,48.3],[17.6,48.24],[17.66,48.3],[17.659,48.5],[17.635,48.7],[17.6,48.735],[17.4,48.704],[17.396,48.7],[17.4,48.671],[17.446,48.5],[17.417,48.3]]},"properties":{"probabilityThreshold":0.0715,"lengthKm":132.3,"diagnosticOnly":true}}],"properties":{"forecastHour":30,"method":"xgboost-dwd-era5-icon2i-v1","threshold":0.07145121517771291,"temporalConfirmation":"2-of-3 adjacent hours","diagnosticOnly":true}}