{"type":"FeatureCollection","features":[{"type":"Feature","geometry":{"type":"LineString","coordinates":[[21.677,34.7],[21.8,34.577],[21.923,34.7],[21.891,34.9],[21.882,35.1],[21.8,35.182],[21.718,35.1],[21.709,34.9],[21.677,34.7]]},"properties":{"probabilityThreshold":0.0715,"lengthKm":147.6,"diagnosticOnly":true}},{"type":"Feature","geometry":{"type":"LineString","coordinates":[[3.0,43.887],[3.013,43.9],[3.052,44.1],[3.2,44.298],[3.4,44.26],[3.44,44.3],[3.6,44.411],[3.8,44.5],[3.8,44.5],[4.0,44.667],[4.033,44.7],[4.2,44.867],[4.4,44.881],[4.577,44.7],[4.6,44.677],[4.623,44.7],[4.8,44.892],[5.0,44.889],[5.011,44.9],[5.2,45.06],[5.24,45.1],[5.4,45.228],[5.6,45.253],[5.647,45.3],[5.6,45.347],[5.418,45.5],[5.4,45.518],[5.2,45.508],[5.111,45.7],[5.096,45.9],[5.2,46.029],[5.367,45.9],[5.4,45.867],[5.6,45.875],[5.625,45.9],[5.8,46.049],[5.851,46.1],[5.884,46.3],[6.0,46.445],[6.055,46.5],[6.025,46.7],[6.105,46.9],[6.2,47.031],[6.364,46.9],[6.4,46.864],[6.436,46.9],[6.406,47.1],[6.505,47.3],[6.6,47.369],[6.731,47.5],[6.8,47.589],[6.911,47.7],[7.0,47.801],[7.099,47.9],[7.2,48.061],[7.239,48.1],[7.4,48.254],[7.567,48.1],[7.4,47.954],[7.346,47.9],[7.4,47.846],[7.595,47.7],[7.6,47.695],[7.605,47.7],[7.8,47.853],[7.847,47.9],[8.0,48.073],[8.027,48.1],[8.08,48.3],[8.2,48.405],[8.295,48.5],[8.4,48.65],[8.45,48.7],[8.4,48.75],[8.2,48.784],[8.0,48.817],[7.8,48.761],[7.6,48.775],[7.4,48.788],[7.2,48.804],[7.0,48.759],[6.8,48.808],[6.6,48.839],[6.4,48.853],[6.247,48.7],[6.2,48.665],[6.16,48.7],[6.0,48.86],[5.8,48.846],[5.6,48.845],[5.4,48.81],[5.2,48.738],[5.162,48.7],[5.111,48.5],[5.0,48.423],[4.877,48.3],[4.8,48.242],[4.6,48.21],[4.49,48.1],[4.4,48.011],[4.2,48.0],[4.1,47.9],[4.0,47.793],[3.8,47.71],[3.79,47.7],[3.6,47.608],[3.4,47.501],[3.399,47.5],[3.2,47.365],[3.135,47.3],[3.0,47.15]]},"properties":{"probabilityThreshold":0.0715,"lengthKm":1540.9,"diagnosticOnly":true}},{"type":"Feature","geometry":{"type":"LineString","coordinates":[[4.0,44.989],[3.914,45.1],[4.0,45.161],[4.2,45.208],[4.292,45.3],[4.4,45.385],[4.49,45.3],[4.4,45.176],[4.324,45.1],[4.2,44.933],[4.0,44.989]]},"properties":{"probabilityThreshold":0.0715,"lengthKm":140.5,"diagnosticOnly":true}},{"type":"Feature","geometry":{"type":"LineString","coordinates":[[3.4,45.541],[3.288,45.7],[3.4,45.874],[3.426,45.9],[3.6,46.099],[3.703,45.9],[3.728,45.7],[3.6,45.537],[3.4,45.541]]},"properties":{"probabilityThreshold":0.0715,"lengthKm":151.9,"diagnosticOnly":true}}],"properties":{"forecastHour":18,"method":"xgboost-dwd-era5-icon2i-v1","threshold":0.07145121517771291,"temporalConfirmation":"2-of-3 adjacent hours","diagnosticOnly":true}}