{"type":"FeatureCollection","features":[{"type":"Feature","geometry":{"type":"LineString","coordinates":[[21.155,34.7],[21.2,34.655],[21.4,34.696],[21.6,34.669],[21.723,34.7],[21.6,34.731],[21.4,34.704],[21.2,34.745],[21.155,34.7]]},"properties":{"probabilityThreshold":0.0715,"lengthKm":111.3,"diagnosticOnly":true}},{"type":"Feature","geometry":{"type":"LineString","coordinates":[[3.75,42.5],[3.8,42.45],[4.0,42.458],[4.042,42.5],[4.0,42.542],[3.853,42.7],[3.946,42.9],[4.0,42.943],[4.2,42.933],[4.35,43.1],[4.4,43.297],[4.401,43.3],[4.4,43.301],[4.238,43.5],[4.4,43.551],[4.6,43.588],[4.8,43.676],[4.824,43.7],[5.0,43.832],[5.068,43.9],[5.014,44.1],[5.0,44.114],[4.942,44.1],[4.8,44.043],[4.753,44.1],[4.608,44.3],[4.761,44.5],[4.8,44.543],[4.891,44.5],[5.0,44.479],[5.178,44.3],[5.2,44.278],[5.222,44.3],[5.221,44.5],[5.4,44.633],[5.6,44.626],[5.8,44.588],[5.912,44.7],[5.837,44.9],[5.99,45.1],[6.0,45.103],[6.2,45.221],[6.269,45.3],[6.4,45.355],[6.456,45.3],[6.6,45.174],[6.731,45.3],[6.8,45.404],[7.0,45.39],[7.11,45.5],[7.119,45.7],[7.2,45.823],[7.4,45.759],[7.514,45.7],[7.4,45.644],[7.256,45.5],[7.2,45.356],[7.144,45.3],[7.2,45.188],[7.256,45.3],[7.4,45.356],[7.6,45.471],[7.647,45.5],[7.729,45.7],[7.8,45.777],[7.922,45.9],[8.0,45.958],[8.2,46.002],[8.298,46.1],[8.4,46.177],[8.6,46.255],[8.645,46.3],[8.8,46.405],[8.895,46.5],[8.8,46.595],[8.637,46.7],[8.8,46.761],[8.921,46.7],[9.0,46.621],[9.079,46.7],[9.2,46.854],[9.4,46.863],[9.437,46.9],[9.6,47.018],[9.8,46.976],[9.997,46.9],[10.0,46.893],[10.008,46.9],[10.041,47.1],[10.112,47.3],[10.2,47.423],[10.389,47.3],[10.4,47.11],[10.411,47.3],[10.6,47.398],[10.8,47.492],[10.808,47.5],[10.8,47.508],[10.6,47.602],[10.4,47.521],[10.321,47.7],[10.4,47.81],[10.6,47.782],[10.8,47.829],[10.871,47.9],[11.0,48.045],[11.2,48.0],[11.4,47.988],[11.512,48.1],[11.6,48.268],[11.632,48.3],[11.749,48.5],[11.8,48.566],[12.0,48.621],[12.2,48.634],[12.4,48.637],[12.463,48.7],[12.4,48.763],[12.2,48.766],[12.0,48.779],[11.8,48.834],[11.6,48.849],[11.4,48.836],[11.2,48.826],[11.0,48.828],[10.8,48.827],[10.6,48.824],[10.4,48.835],[10.2,48.829],[10.0,48.829],[9.8,48.841],[9.6,48.843],[9.4,48.846],[9.2,48.843],[9.0,48.857],[8.8,48.858],[8.6,48.86],[8.4,48.86],[8.2,48.857],[8.0,48.851],[7.8,48.851],[7.6,48.838],[7.4,48.841],[7.2,48.811],[7.0,48.85],[6.8,48.852],[6.6,48.822],[6.4,48.808],[6.292,48.7],[6.2,48.592],[6.108,48.5],[6.0,48.411],[5.889,48.3],[5.8,48.245],[5.6,48.204],[5.496,48.1],[5.4,48.046],[5.254,47.9],[5.2,47.833],[5.0,47.811],[4.889,47.7],[4.8,47.66],[4.64,47.5],[4.8,47.34],[4.933,47.3],[4.8,47.195],[4.6,47.218],[4.4,47.111],[4.389,47.1],[4.4,47.075],[4.455,46.9],[4.459,46.7],[4.6,46.637],[4.711,46.5],[4.6,46.361],[4.539,46.3],[4.4,46.144],[4.356,46.1],[4.2,45.991],[4.0,45.952],[3.8,45.93],[3.782,45.9],[3.6,45.714],[3.586,45.7],[3.6,45.686],[3.713,45.5],[3.698,45.3],[3.8,45.135],[3.838,45.1],[3.924,44.9],[3.823,44.7],[3.8,44.691],[3.769,44.5],[3.733,44.3],[3.712,44.1],[3.702,43.9],[3.698,43.7],[3.6,43.537],[3.579,43.5],[3.6,43.479],[3.767,43.3],[3.715,43.1],[3.6,42.912],[3.588,42.9],[3.6,42.888],[3.747,42.7],[3.75,42.5]]},"properties":{"probabilityThreshold":0.0715,"lengthKm":2966.4,"diagnosticOnly":true}},{"type":"Feature","geometry":{"type":"LineString","coordinates":[[3.0,43.063],[3.177,42.9],[3.2,42.877],[3.223,42.9],[3.286,43.1],[3.4,43.201],[3.499,43.3],[3.4,43.399],[3.2,43.38],[3.12,43.3],[3.0,43.137]]},"properties":{"probabilityThreshold":0.0715,"lengthKm":141.6,"diagnosticOnly":true}},{"type":"Feature","geometry":{"type":"LineString","coordinates":[[3.0,44.448],[3.164,44.3],[3.192,44.1],[3.2,44.092],[3.208,44.1],[3.4,44.297],[3.403,44.3],[3.439,44.5],[3.6,44.633],[3.797,44.7],[3.655,44.9],[3.6,44.955],[3.428,45.1],[3.4,45.128],[3.248,45.3],[3.2,45.348],[3.0,45.395]]},"properties":{"probabilityThreshold":0.0715,"lengthKm":234.0,"diagnosticOnly":true}},{"type":"Feature","geometry":{"type":"LineString","coordinates":[[6.268,44.7],[6.4,44.579],[6.521,44.7],[6.498,44.9],[6.4,45.023],[6.2,45.039],[6.052,44.9],[6.2,44.779],[6.268,44.7]]},"properties":{"probabilityThreshold":0.0715,"lengthKm":134.4,"diagnosticOnly":true}},{"type":"Feature","geometry":{"type":"LineString","coordinates":[[4.4,45.228],[4.252,45.3],[4.2,45.352],[4.106,45.5],[4.2,45.607],[4.315,45.5],[4.4,45.415],[4.464,45.3],[4.4,45.228]]},"properties":{"probabilityThreshold":0.0715,"lengthKm":102.3,"diagnosticOnly":true}},{"type":"Feature","geometry":{"type":"LineString","coordinates":[[19.496,45.3],[19.6,45.196],[19.704,45.3],[19.6,45.404],[19.515,45.5],[19.4,45.615],[19.285,45.5],[19.4,45.385],[19.496,45.3]]},"properties":{"probabilityThreshold":0.0715,"lengthKm":113.4,"diagnosticOnly":true}},{"type":"Feature","geometry":{"type":"LineString","coordinates":[[7.8,45.979],[7.709,46.1],[7.6,46.209],[7.4,46.274],[7.393,46.3],[7.4,46.308],[7.6,46.389],[7.8,46.456],[8.0,46.363],[8.143,46.3],[8.0,46.202],[7.898,46.1],[7.8,45.979]]},"properties":{"probabilityThreshold":0.0715,"lengthKm":161.7,"diagnosticOnly":true}},{"type":"Feature","geometry":{"type":"LineString","coordinates":[[18.5,46.1],[18.6,46.0],[18.7,46.1],[18.645,46.3],[18.6,46.345],[18.512,46.5],[18.6,46.604],[18.8,46.584],[18.916,46.7],[19.0,46.829],[19.071,46.9],[19.2,47.019],[19.4,47.056],[19.444,47.1],[19.457,47.3],[19.477,47.5],[19.5,47.7],[19.507,47.9],[19.537,48.1],[19.459,48.3],[19.413,48.5],[19.6,48.623],[19.8,48.7],[19.8,48.7],[19.8,48.7],[19.6,48.777],[19.4,48.801],[19.2,48.786],[19.0,48.783],[18.917,48.7],[18.8,48.516],[18.784,48.5],[18.755,48.3],[18.748,48.1],[18.8,48.048],[18.898,47.9],[18.863,47.7],[18.91,47.5],[18.881,47.3],[18.8,47.185],[18.715,47.1],[18.6,46.924],[18.576,46.9],[18.4,46.704],[18.396,46.7],[18.2,46.545],[18.155,46.5],[18.2,46.455],[18.296,46.3],[18.4,46.196],[18.5,46.1]]},"properties":{"probabilityThreshold":0.0715,"lengthKm":764.2,"diagnosticOnly":true}},{"type":"Feature","geometry":{"type":"LineString","coordinates":[[16.517,47.5],[16.6,47.417],[16.683,47.5],[16.8,47.593],[17.0,47.591],[17.109,47.7],[17.2,47.882],[17.218,47.9],[17.4,48.076],[17.424,48.1],[17.6,48.247],[17.653,48.3],[17.63,48.5],[17.6,48.53],[17.4,48.573],[17.203,48.7],[17.2,48.703],[17.0,48.718],[16.982,48.7],[16.8,48.584],[16.716,48.5],[16.688,48.3],[16.679,48.1],[16.6,48.019],[16.481,47.9],[16.4,47.77],[16.33,47.7],[16.4,47.63],[16.517,47.5]]},"properties":{"probabilityThreshold":0.0715,"lengthKm":375.1,"diagnosticOnly":true}}],"properties":{"forecastHour":24,"method":"xgboost-dwd-era5-icon2i-v1","threshold":0.07145121517771291,"temporalConfirmation":"2-of-3 adjacent hours","diagnosticOnly":true}}