{"type":"FeatureCollection","features":[{"type":"Feature","geometry":{"type":"LineString","coordinates":[[12.956,47.3],[13.0,47.256],[13.2,47.268],[13.232,47.3],[13.293,47.5],[13.2,47.593],[13.0,47.601],[12.899,47.5],[12.956,47.3]]},"properties":{"probabilityThreshold":0.0715,"lengthKm":111.4,"diagnosticOnly":true}},{"type":"Feature","geometry":{"type":"LineString","coordinates":[[13.969,47.3],[14.0,47.269],[14.031,47.3],[14.023,47.5],[14.055,47.7],[14.0,47.755],[13.945,47.7],[13.8,47.611],[13.689,47.5],[13.8,47.389],[13.969,47.3]]},"properties":{"probabilityThreshold":0.0715,"lengthKm":127.9,"diagnosticOnly":true}},{"type":"Feature","geometry":{"type":"LineString","coordinates":[[12.181,47.5],[12.2,47.481],[12.219,47.5],[12.4,47.671],[12.586,47.5],[12.6,47.486],[12.614,47.5],[12.644,47.7],[12.6,47.744],[12.4,47.729],[12.246,47.9],[12.4,48.029],[12.471,48.1],[12.4,48.171],[12.2,48.187],[12.0,48.211],[11.889,48.1],[11.967,47.9],[11.8,47.748],[11.752,47.7],[11.8,47.652],[12.0,47.63],[12.181,47.5]]},"properties":{"probabilityThreshold":0.0715,"lengthKm":294.5,"diagnosticOnly":true}},{"type":"Feature","geometry":{"type":"LineString","coordinates":[[14.159,47.9],[14.2,47.859],[14.4,47.852],[14.6,47.855],[14.8,47.84],[14.86,47.9],[15.0,48.053],[15.184,47.9],[15.2,47.884],[15.4,47.864],[15.6,47.851],[15.8,47.887],[15.813,47.9],[16.0,48.014],[16.2,48.017],[16.283,48.1],[16.2,48.183],[16.0,48.186],[15.8,48.166],[15.6,48.133],[15.4,48.128],[15.2,48.111],[15.0,48.147],[14.8,48.126],[14.774,48.1],[14.6,47.945],[14.4,47.948],[14.2,47.941],[14.159,47.9]]},"properties":{"probabilityThreshold":0.0715,"lengthKm":371.0,"diagnosticOnly":true}}],"properties":{"forecastHour":57,"method":"xgboost-dwd-era5-icon2i-v1","threshold":0.07145121517771291,"temporalConfirmation":"2-of-3 adjacent hours","diagnosticOnly":true}}