{"type":"FeatureCollection","features":[{"type":"Feature","geometry":{"type":"LineString","coordinates":[[21.198,41.9],[21.2,41.898],[21.4,41.897],[21.6,41.88],[21.62,41.9],[21.6,41.92],[21.4,41.903],[21.214,42.1],[21.2,42.114],[21.0,42.149],[20.951,42.1],[21.0,42.051],[21.198,41.9]]},"properties":{"probabilityThreshold":0.0715,"lengthKm":138.2,"diagnosticOnly":true}},{"type":"Feature","geometry":{"type":"LineString","coordinates":[[20.585,42.3],[20.6,42.285],[20.615,42.3],[20.8,42.466],[21.0,42.456],[21.2,42.444],[21.256,42.5],[21.2,42.556],[21.0,42.544],[20.825,42.7],[20.8,42.725],[20.775,42.7],[20.6,42.553],[20.4,42.519],[20.25,42.7],[20.252,42.9],[20.2,42.952],[20.026,43.1],[20.0,43.126],[19.864,43.3],[19.8,43.364],[19.736,43.3],[19.744,43.1],[19.8,43.044],[19.993,42.9],[19.98,42.7],[20.0,42.68],[20.187,42.5],[20.2,42.487],[20.4,42.481],[20.585,42.3]]},"properties":{"probabilityThreshold":0.0715,"lengthKm":423.6,"diagnosticOnly":true}}],"properties":{"forecastHour":0,"method":"xgboost-dwd-era5-icon2i-v1","threshold":0.07145121517771291,"temporalConfirmation":"2-of-3 adjacent hours","diagnosticOnly":true}}