{"type":"FeatureCollection","features":[{"type":"Feature","geometry":{"type":"LineString","coordinates":[[3.0,36.668],[3.05,36.5],[3.2,36.35],[3.395,36.5],[3.4,36.504],[3.6,36.576],[3.724,36.7],[3.6,36.824],[3.453,36.9],[3.6,36.947],[3.8,36.964],[4.0,36.95],[4.2,36.952],[4.259,36.9],[4.2,36.802],[4.0,36.851],[3.849,36.7],[3.859,36.5],[4.0,36.359],[4.141,36.5],[4.2,36.598],[4.237,36.5],[4.4,36.337],[4.563,36.5],[4.6,36.535],[4.8,36.557],[4.943,36.7],[4.962,36.9],[5.0,36.941],[5.076,36.9],[5.186,36.7],[5.2,36.686],[5.4,36.625],[5.475,36.7],[5.4,36.775],[5.324,36.9],[5.4,37.022],[5.478,37.1],[5.6,37.187],[5.713,37.3],[5.8,37.352],[6.0,37.418],[6.082,37.5],[6.2,37.559],[6.341,37.7],[6.2,37.841],[6.134,37.9],[6.2,37.992],[6.4,38.006],[6.494,38.1],[6.6,38.172],[6.8,38.151],[6.949,38.3],[7.0,38.368],[7.2,38.354],[7.4,38.362],[7.6,38.395],[7.8,38.409],[8.0,38.454],[8.046,38.5],[8.2,38.699],[8.201,38.7],[8.224,38.9],[8.4,39.096],[8.404,39.1],[8.4,39.104],[8.2,39.108],[8.0,39.103],[7.997,39.1],[7.8,38.935],[7.6,38.971],[7.471,39.1],[7.6,39.217],[7.8,39.282],[7.818,39.3],[8.0,39.452],[8.2,39.481],[8.219,39.5],[8.2,39.519],[8.0,39.548],[7.8,39.559],[7.6,39.532],[7.4,39.502],[7.2,39.524],[7.176,39.5],[7.0,39.357],[6.816,39.5],[6.8,39.516],[6.784,39.5],[6.6,39.322],[6.578,39.3],[6.4,39.177],[6.2,39.135],[6.165,39.1],[6.0,38.98],[5.8,38.93],[5.77,38.9],[5.6,38.804],[5.4,38.749],[5.351,38.7],[5.4,38.651],[5.566,38.5],[5.4,38.388],[5.272,38.5],[5.2,38.572],[5.0,38.531],[4.8,38.522],[4.602,38.7],[4.6,38.702],[4.598,38.7],[4.4,38.566],[4.236,38.7],[4.2,38.736],[4.164,38.7],[4.13,38.5],[4.0,38.377],[3.83,38.5],[3.8,38.53],[3.6,38.512],[3.4,38.566],[3.2,38.543],[3.0,38.513]]},"properties":{"probabilityThreshold":0.0715,"lengthKm":1791.0,"diagnosticOnly":true}},{"type":"Feature","geometry":{"type":"LineString","coordinates":[[6.477,37.7],[6.6,37.577],[6.8,37.565],[7.0,37.586],[7.2,37.604],[7.296,37.7],[7.2,37.796],[7.0,37.814],[6.8,37.835],[6.6,37.823],[6.477,37.7]]},"properties":{"probabilityThreshold":0.0715,"lengthKm":168.2,"diagnosticOnly":true}},{"type":"Feature","geometry":{"type":"LineString","coordinates":[[8.841,39.1],[9.0,38.941],[9.2,38.946],[9.354,39.1],[9.2,39.254],[9.104,39.3],[9.0,39.404],[8.934,39.5],[8.822,39.7],[8.8,39.722],[8.778,39.7],[8.666,39.5],[8.6,39.344],[8.556,39.3],[8.6,39.256],[8.8,39.229],[8.841,39.1]]},"properties":{"probabilityThreshold":0.0715,"lengthKm":236.0,"diagnosticOnly":true}},{"type":"Feature","geometry":{"type":"LineString","coordinates":[[5.556,39.3],[5.6,39.256],[5.8,39.257],[6.0,39.278],[6.022,39.3],[6.045,39.5],[6.0,39.545],[5.955,39.5],[5.8,39.343],[5.6,39.344],[5.556,39.3]]},"properties":{"probabilityThreshold":0.0715,"lengthKm":124.0,"diagnosticOnly":true}},{"type":"Feature","geometry":{"type":"LineString","coordinates":[[9.141,39.5],[9.2,39.441],[9.4,39.399],[9.501,39.5],[9.6,39.555],[9.676,39.5],[9.8,39.376],[10.0,39.399],[10.101,39.5],[10.114,39.7],[10.2,39.805],[10.295,39.9],[10.4,40.012],[10.488,40.1],[10.4,40.188],[10.287,40.1],[10.2,40.02],[10.0,39.996],[9.8,40.01],[9.6,40.021],[9.4,39.936],[9.364,39.9],[9.363,39.7],[9.2,39.559],[9.141,39.5]]},"properties":{"probabilityThreshold":0.0715,"lengthKm":350.1,"diagnosticOnly":true}},{"type":"Feature","geometry":{"type":"LineString","coordinates":[[8.376,40.1],[8.4,40.076],[8.6,40.057],[8.8,40.086],[9.0,40.02],[9.08,40.1],[9.0,40.18],[8.8,40.114],[8.6,40.143],[8.4,40.124],[8.376,40.1]]},"properties":{"probabilityThreshold":0.0715,"lengthKm":135.2,"diagnosticOnly":true}},{"type":"Feature","geometry":{"type":"LineString","coordinates":[[9.183,40.3],[9.2,40.283],[9.4,40.195],[9.6,40.219],[9.681,40.3],[9.6,40.381],[9.4,40.405],[9.2,40.317],[9.183,40.3]]},"properties":{"probabilityThreshold":0.0715,"lengthKm":100.7,"diagnosticOnly":true}},{"type":"Feature","geometry":{"type":"LineString","coordinates":[[16.353,44.3],[16.4,44.253],[16.6,44.294],[16.8,44.245],[16.958,44.3],[17.0,44.313],[17.024,44.3],[17.2,44.216],[17.4,44.269],[17.431,44.3],[17.6,44.478],[17.622,44.5],[17.616,44.7],[17.6,44.716],[17.584,44.7],[17.4,44.587],[17.219,44.7],[17.2,44.719],[17.181,44.7],[17.0,44.619],[16.8,44.542],[16.758,44.5],[16.6,44.306],[16.4,44.347],[16.353,44.3]]},"properties":{"probabilityThreshold":0.0715,"lengthKm":282.9,"diagnosticOnly":true}},{"type":"Feature","geometry":{"type":"LineString","coordinates":[[3.762,44.5],[3.8,44.462],[4.0,44.468],[4.032,44.5],[4.2,44.676],[4.4,44.622],[4.548,44.5],[4.6,44.448],[4.652,44.5],[4.8,44.697],[4.803,44.7],[4.891,44.9],[5.0,45.027],[5.073,45.1],[5.2,45.263],[5.237,45.3],[5.2,45.337],[5.0,45.399],[4.829,45.5],[4.8,45.529],[4.6,45.534],[4.566,45.5],[4.4,45.374],[4.285,45.5],[4.217,45.7],[4.21,45.9],[4.224,46.1],[4.231,46.3],[4.2,46.331],[4.169,46.3],[4.0,46.153],[3.8,46.218],[3.682,46.1],[3.8,45.982],[3.96,45.9],[3.8,45.799],[3.701,45.7],[3.8,45.601],[3.918,45.5],[3.908,45.3],[3.8,45.12],[3.78,45.1],[3.761,44.9],[3.748,44.7],[3.762,44.5]]},"properties":{"probabilityThreshold":0.0715,"lengthKm":651.1,"diagnosticOnly":true}},{"type":"Feature","geometry":{"type":"LineString","coordinates":[[3.373,44.7],[3.4,44.673],[3.427,44.7],[3.434,44.9],[3.445,45.1],[3.4,45.145],[3.2,45.143],[3.157,45.1],[3.2,45.057],[3.366,44.9],[3.373,44.7]]},"properties":{"probabilityThreshold":0.0715,"lengthKm":129.1,"diagnosticOnly":true}},{"type":"Feature","geometry":{"type":"LineString","coordinates":[[6.3,44.7],[6.4,44.6],[6.5,44.7],[6.519,44.9],[6.4,45.019],[6.281,44.9],[6.3,44.7]]},"properties":{"probabilityThreshold":0.0715,"lengthKm":103.7,"diagnosticOnly":true}},{"type":"Feature","geometry":{"type":"LineString","coordinates":[[15.375,44.7],[15.4,44.675],[15.6,44.638],[15.8,44.603],[15.848,44.7],[15.856,44.9],[15.8,44.956],[15.744,44.9],[15.6,44.762],[15.4,44.725],[15.375,44.7]]},"properties":{"probabilityThreshold":0.0715,"lengthKm":123.6,"diagnosticOnly":true}},{"type":"Feature","geometry":{"type":"LineString","coordinates":[[6.971,44.9],[7.0,44.871],[7.2,44.872],[7.228,44.9],[7.21,45.1],[7.294,45.3],[7.386,45.5],[7.2,45.55],[7.15,45.5],[7.0,45.36],[6.814,45.5],[7.0,45.644],[7.056,45.7],[7.17,45.9],[7.2,45.96],[7.349,45.9],[7.4,45.877],[7.466,45.9],[7.6,45.987],[7.703,45.9],[7.8,45.829],[8.0,45.848],[8.052,45.9],[8.2,45.997],[8.4,46.078],[8.446,46.1],[8.6,46.153],[8.73,46.1],[8.8,46.063],[9.0,46.024],[9.2,45.97],[9.33,46.1],[9.243,46.3],[9.2,46.492],[9.0,46.497],[8.8,46.378],[8.6,46.459],[8.4,46.449],[8.283,46.5],[8.4,46.548],[8.6,46.545],[8.8,46.66],[9.0,46.503],[9.073,46.7],[9.2,46.832],[9.347,46.9],[9.4,46.951],[9.577,46.9],[9.6,46.895],[9.605,46.9],[9.8,47.0],[9.9,47.1],[9.8,47.2],[9.6,47.166],[9.4,47.17],[9.214,47.1],[9.2,47.085],[9.0,47.06],[8.8,47.023],[8.6,47.051],[8.565,47.1],[8.6,47.141],[8.688,47.3],[8.691,47.5],[8.6,47.591],[8.413,47.7],[8.47,47.9],[8.42,48.1],[8.4,48.149],[8.363,48.1],[8.2,48.03],[8.087,48.1],[8.2,48.3],[8.2,48.3],[8.218,48.5],[8.4,48.689],[8.424,48.7],[8.4,48.711],[8.2,48.766],[8.0,48.714],[7.8,48.726],[7.6,48.733],[7.4,48.716],[7.2,48.77],[7.0,48.758],[6.8,48.765],[6.735,48.7],[6.8,48.635],[7.0,48.642],[7.124,48.5],[7.2,48.424],[7.276,48.5],[7.4,48.684],[7.6,48.667],[7.8,48.674],[7.931,48.5],[7.8,48.409],[7.691,48.3],[7.6,48.21],[7.4,48.129],[7.371,48.1],[7.281,47.9],[7.2,47.763],[7.0,47.726],[6.812,47.9],[7.0,48.065],[7.035,48.1],[7.045,48.3],[7.0,48.345],[6.955,48.3],[6.8,48.201],[6.699,48.1],[6.788,47.9],[6.6,47.79],[6.4,47.704],[6.396,47.7],[6.2,47.532],[6.168,47.5],[6.182,47.3],[6.142,47.1],[6.0,46.915],[5.841,47.1],[5.8,47.141],[5.6,47.109],[5.591,47.1],[5.4,46.921],[5.379,46.9],[5.323,46.7],[5.2,46.55],[5.15,46.5],[5.2,46.45],[5.327,46.3],[5.347,46.1],[5.4,46.047],[5.6,46.011],[5.689,46.1],[5.8,46.187],[5.913,46.3],[6.0,46.387],[6.113,46.5],[6.2,46.599],[6.4,46.599],[6.6,46.678],[6.727,46.5],[6.6,46.398],[6.4,46.406],[6.294,46.3],[6.335,46.1],[6.4,46.035],[6.465,46.1],[6.6,46.202],[6.682,46.1],[6.787,45.9],[6.6,45.772],[6.4,45.747],[6.2,45.822],[6.078,45.7],[6.2,45.578],[6.4,45.653],[6.6,45.628],[6.786,45.5],[6.794,45.3],[6.777,45.1],[6.8,45.077],[6.971,44.9]]},"properties":{"probabilityThreshold":0.0715,"lengthKm":2398.0,"diagnosticOnly":true}},{"type":"Feature","geometry":{"type":"LineString","coordinates":[[7.405,45.5],[7.6,45.404],[7.696,45.5],[7.668,45.7],[7.6,45.794],[7.561,45.7],[7.405,45.5]]},"properties":{"probabilityThreshold":0.0715,"lengthKm":101.5,"diagnosticOnly":true}},{"type":"Feature","geometry":{"type":"LineString","coordinates":[[12.75,45.7],[12.8,45.65],[12.85,45.7],[13.0,45.888],[13.012,45.9],[13.068,46.1],[13.2,46.247],[13.253,46.3],[13.2,46.353],[13.0,46.386],[12.914,46.3],[12.932,46.1],[12.8,45.978],[12.6,45.979],[12.521,45.9],[12.6,45.821],[12.75,45.7]]},"properties":{"probabilityThreshold":0.0715,"lengthKm":216.0,"diagnosticOnly":true}},{"type":"Feature","geometry":{"type":"LineString","coordinates":[[11.191,46.1],[11.2,46.091],[11.4,46.064],[11.6,46.053],[11.8,46.053],[12.0,46.091],[12.2,46.05],[12.4,46.036],[12.464,46.1],[12.6,46.236],[12.664,46.3],[12.6,46.364],[12.4,46.361],[12.2,46.345],[12.0,46.382],[11.8,46.311],[11.789,46.3],[11.6,46.147],[11.4,46.12],[11.2,46.109],[11.191,46.1]]},"properties":{"probabilityThreshold":0.0715,"lengthKm":260.0,"diagnosticOnly":true}},{"type":"Feature","geometry":{"type":"LineString","coordinates":[[7.6,46.152],[7.436,46.3],[7.4,46.336],[7.263,46.5],[7.4,46.6],[7.532,46.5],[7.6,46.432],[7.8,46.421],[7.879,46.5],[8.0,46.571],[8.159,46.5],[8.0,46.371],[7.929,46.3],[7.8,46.182],[7.6,46.152]]},"properties":{"probabilityThreshold":0.0715,"lengthKm":199.0,"diagnosticOnly":true}},{"type":"Feature","geometry":{"type":"LineString","coordinates":[[10.1,47.1],[10.2,47.0],[10.3,47.1],[10.4,47.268],[10.498,47.1],[10.6,46.998],[10.8,47.031],[10.869,47.1],[11.0,47.216],[11.2,47.2],[11.4,47.258],[11.442,47.3],[11.4,47.342],[11.2,47.319],[11.0,47.384],[10.8,47.346],[10.6,47.352],[10.442,47.5],[10.4,47.542],[10.358,47.5],[10.2,47.402],[10.0,47.383],[9.917,47.3],[10.0,47.217],[10.1,47.1]]},"properties":{"probabilityThreshold":0.0715,"lengthKm":327.4,"diagnosticOnly":true}},{"type":"Feature","geometry":{"type":"LineString","coordinates":[[5.581,48.7],[5.6,48.681],[5.8,48.626],[6.0,48.586],[6.2,48.643],[6.4,48.65],[6.45,48.7],[6.4,48.75],[6.2,48.757],[6.0,48.814],[5.8,48.774],[5.6,48.719],[5.581,48.7]]},"properties":{"probabilityThreshold":0.0715,"lengthKm":142.1,"diagnosticOnly":true}}],"properties":{"forecastHour":6,"method":"xgboost-dwd-era5-icon2i-v1","threshold":0.07145121517771291,"temporalConfirmation":"2-of-3 adjacent hours","diagnosticOnly":true}}