{"type":"FeatureCollection","features":[{"type":"Feature","geometry":{"type":"LineString","coordinates":[[3.0,37.29],[3.01,37.3],[3.2,37.414],[3.4,37.417],[3.492,37.3],[3.6,37.192],[3.708,37.3],[3.747,37.5],[3.8,37.535],[3.943,37.7],[4.0,37.764],[4.2,37.864],[4.338,37.9],[4.2,37.936],[4.0,38.083],[3.97,38.1],[3.8,38.164],[3.6,38.171],[3.4,38.162],[3.2,38.134],[3.166,38.1],[3.0,38.023]]},"properties":{"probabilityThreshold":0.0715,"lengthKm":309.9,"diagnosticOnly":true}},{"type":"Feature","geometry":{"type":"LineString","coordinates":[[5.151,37.9],[5.2,37.851],[5.275,37.9],[5.395,38.1],[5.21,38.3],[5.2,38.31],[5.19,38.3],[5.107,38.1],[5.151,37.9]]},"properties":{"probabilityThreshold":0.0715,"lengthKm":115.8,"diagnosticOnly":true}},{"type":"Feature","geometry":{"type":"LineString","coordinates":[[6.731,37.9],[6.8,37.831],[7.0,37.787],[7.2,37.858],[7.242,37.9],[7.4,38.008],[7.492,38.1],[7.4,38.192],[7.2,38.136],[7.164,38.1],[7.0,38.013],[6.8,37.969],[6.731,37.9]]},"properties":{"probabilityThreshold":0.0715,"lengthKm":166.3,"diagnosticOnly":true}},{"type":"Feature","geometry":{"type":"LineString","coordinates":[[16.488,42.7],[16.6,42.588],[16.8,42.569],[16.931,42.7],[17.0,42.881],[17.019,42.9],[17.0,42.919],[16.8,42.952],[16.748,42.9],[16.6,42.812],[16.488,42.7]]},"properties":{"probabilityThreshold":0.0715,"lengthKm":130.6,"diagnosticOnly":true}},{"type":"Feature","geometry":{"type":"LineString","coordinates":[[6.707,43.7],[6.8,43.607],[6.893,43.7],[6.846,43.9],[6.8,43.946],[6.6,44.014],[6.486,43.9],[6.6,43.786],[6.707,43.7]]},"properties":{"probabilityThreshold":0.0715,"lengthKm":116.0,"diagnosticOnly":true}},{"type":"Feature","geometry":{"type":"LineString","coordinates":[[12.965,45.7],[13.0,45.665],[13.2,45.62],[13.28,45.7],[13.4,45.827],[13.525,45.9],[13.6,46.064],[13.8,46.076],[13.824,46.1],[13.836,46.3],[13.8,46.336],[13.6,46.345],[13.555,46.3],[13.4,46.188],[13.312,46.1],[13.2,45.987],[13.091,46.1],[13.2,46.196],[13.304,46.3],[13.4,46.455],[13.445,46.5],[13.4,46.545],[13.2,46.6],[13.0,46.518],[12.982,46.5],[12.931,46.3],[12.8,46.184],[12.67,46.3],[12.6,46.37],[12.4,46.367],[12.2,46.357],[12.0,46.322],[11.978,46.3],[11.8,46.17],[11.73,46.1],[11.8,46.03],[12.0,46.09],[12.01,46.1],[12.2,46.243],[12.297,46.1],[12.2,45.978],[12.122,45.9],[12.2,45.822],[12.4,45.865],[12.6,45.871],[12.629,45.9],[12.8,46.016],[12.907,45.9],[12.965,45.7]]},"properties":{"probabilityThreshold":0.0715,"lengthKm":640.3,"diagnosticOnly":true}},{"type":"Feature","geometry":{"type":"LineString","coordinates":[[9.38,46.5],[9.4,46.48],[9.6,46.477],[9.8,46.416],[9.884,46.5],[9.857,46.7],[9.8,46.757],[9.621,46.9],[9.8,47.001],[10.0,47.095],[10.2,47.061],[10.239,47.1],[10.4,47.192],[10.508,47.3],[10.4,47.408],[10.2,47.353],[10.147,47.3],[10.0,47.105],[9.92,47.3],[9.8,47.42],[9.6,47.3],[9.4,47.375],[9.325,47.3],[9.2,47.101],[9.038,47.3],[9.0,47.338],[8.962,47.3],[8.8,47.163],[8.604,47.3],[8.6,47.304],[8.596,47.3],[8.4,47.147],[8.353,47.1],[8.4,47.053],[8.6,47.041],[8.8,47.037],[8.93,46.9],[9.0,46.83],[9.07,46.9],[9.2,47.099],[9.4,46.969],[9.579,46.9],[9.479,46.7],[9.4,46.52],[9.38,46.5]]},"properties":{"probabilityThreshold":0.0715,"lengthKm":643.0,"diagnosticOnly":true}},{"type":"Feature","geometry":{"type":"LineString","coordinates":[[10.762,46.7],[10.8,46.662],[11.0,46.656],[11.2,46.68],[11.22,46.7],[11.2,46.72],[11.073,46.9],[11.0,46.973],[10.927,46.9],[10.8,46.738],[10.762,46.7]]},"properties":{"probabilityThreshold":0.0715,"lengthKm":108.3,"diagnosticOnly":true}},{"type":"Feature","geometry":{"type":"LineString","coordinates":[[10.301,46.9],[10.4,46.801],[10.6,46.871],[10.629,46.9],[10.8,47.019],[10.881,47.1],[11.0,47.274],[11.165,47.1],[11.2,47.065],[11.235,47.1],[11.4,47.298],[11.402,47.3],[11.4,47.302],[11.2,47.335],[11.0,47.326],[10.8,47.332],[10.768,47.3],[10.6,47.148],[10.552,47.1],[10.4,46.999],[10.301,46.9]]},"properties":{"probabilityThreshold":0.0715,"lengthKm":249.8,"diagnosticOnly":true}}],"properties":{"forecastHour":15,"method":"xgboost-dwd-era5-icon2i-v1","threshold":0.07145121517771291,"temporalConfirmation":"2-of-3 adjacent hours","diagnosticOnly":true}}